{"type": "FeatureCollection", "crs": {"type": "name", "properties": {"name": "EPSG:4326"}}, "features": [{"type": "Feature", "id": 1, "geometry": {"type": "Polygon", "coordinates": [[[-122.26057581395652, 37.810833312778875], [-122.26059934120943, 37.810871191506735], [-122.26062203231453, 37.810909391408536], [-122.26064387722454, 37.81094789997736], [-122.26066487914903, 37.81098670310215], [-122.26068501837784, 37.81102579193616], [-122.26070429728442, 37.81106515449031], [-122.26072270401596, 37.81110477687824], [-122.26074024096256, 37.8111446478138], [-122.26101878471356, 37.810987357974305], [-122.26100194840102, 37.810838254796955], [-122.26052666702986, 37.81075913073053], [-122.26057581395652, 37.810833312778875]]]}, "properties": {"OBJECTID": 1, "APN": "010 0768 006 01", "ST_NO": "210", "STNAME": "Grand Av", "OWNER": "City of Oakland", "AGENCY": "LEA", "DEPT": "AHHS", "USE": "Veteran's Memorial Bldg.", "DATE_ACQUI": "12/31/1992", "AQU__COST": "$472,300", "DISP_DATE": null, "DISP_PRICE": null, "COMMENTS_1": "Grant deed", "ASSET_NO": null, "COUNCIL_DISTRICT": "CCD3", "CITY": "Oakland", "ZIPCODE": 94610, "LEGISLATION": "Ordinance #11525", "IMPROVED": null, "LOT_SIZEDIM": "Sq Ft", "BLD_SIZEDIM": null, "LOT_SIZE": "9475           ", "BLD_SIZE": null, "GLOBALID": "{7BD7A7C0-949B-41B4-B851-5E4185F32251}"}}, {"type": "Feature", "id": 2, "geometry": {"type": "Polygon", "coordinates": [[[-122.26159969342508, 37.82322011539438], [-122.26158410182597, 37.823255293502555], [-122.26158372332117, 37.823256452371396], [-122.26158337419325, 37.82325761642707], [-122.26158304832255, 37.82325878927678], [-122.26158274642842, 37.823259963877966], [-122.26158247384443, 37.8232611408542], [-122.2615822245177, 37.82326232662449], [-122.26158200433433, 37.82326350774049], [-122.26158180739145, 37.823264696947625], [-122.26158163793644, 37.823265886447444], [-122.26158149252471, 37.82326708051054], [-122.2615813763564, 37.823268274136915], [-122.2615812868399, 37.82326947017802], [-122.26158122221939, 37.82327066936327], [-122.26158118416724, 37.82327186744856], [-122.26158117092774, 37.82327306516335], [-122.26158118515937, 37.82327426246796], [-122.26158122774842, 37.82327545934905], [-122.26158129434732, 37.82327665938752], [-122.26158139268138, 37.8232778519203], [-122.26158150704993, 37.82327904772958], [-122.26158165236748, 37.82328024026388], [-122.2615818304232, 37.82328143019987], [-122.26158202441327, 37.82328261919467], [-122.26158224936913, 37.82328380561753], [-122.26158249900416, 37.82328498604637], [-122.26158277691312, 37.82328616253714], [-122.26158307876531, 37.823287339373536], [-122.26158340344097, 37.82328850672776], [-122.2615837608714, 37.8232896721865], [-122.26158414037263, 37.82329083379975], [-122.26158454537257, 37.82329198659403], [-122.26158497513504, 37.823293136909044], [-122.26158543128238, 37.823294278391856], [-122.2615859112228, 37.8232954138939], [-122.26158641672858, 37.823296543388786], [-122.26158694861923, 37.823297664051445], [-122.26158750077492, 37.82329877948924], [-122.26158808199062, 37.82329988675802], [-122.2615886859631, 37.82330098173298], [-122.26158931120361, 37.82330207639029], [-122.26158996358163, 37.8233031565788], [-122.26159063971937, 37.82330422938062], [-122.26159133684149, 37.823305289915055], [-122.26159206123465, 37.82330634160405], [-122.26159280672903, 37.82330738594614], [-122.26159357143544, 37.823308418047255], [-122.2615943651352, 37.82330943916772], [-122.26159517540519, 37.82331044878978], [-122.26159601201, 37.823311447470914], [-122.2615968678269, 37.82331243391106], [-122.26159774643392, 37.82331340946314], [-122.26159887872308, 37.823314615386224], [-122.26189218082865, 37.82360408740853], [-122.26189582071895, 37.82358731843474], [-122.2618990915623, 37.82357050082776], [-122.26190199441189, 37.82355364160366], [-122.26190452314816, 37.82353674436979], [-122.26190667972742, 37.82351981683192], [-122.26190846680826, 37.82350285895047], [-122.26190987755194, 37.82348588137525], [-122.26191091463396, 37.823468884769454], [-122.26191157825467, 37.8234518775683], [-122.26191186575596, 37.82343485981158], [-122.26191178462777, 37.8234178482637], [-122.26191132487236, 37.82340083252625], [-122.26191048871266, 37.82338383155197], [-122.26190928230221, 37.82336684313935], [-122.26190770136051, 37.82334987368102], [-122.26190449259313, 37.82332348270553], [-122.26190311321639, 37.82331395903232], [-122.26190159702358, 37.82330434809854], [-122.26159969342508, 37.82322011539438]]]}, "properties": {"OBJECTID": 2, "APN": "009 0745 053 03", "ST_NO": "405", "STNAME": "36th St", "OWNER": "City of Oakland", "AGENCY": "LEA", "DEPT": "OPR", "USE": "Mosswood Park", "DATE_ACQUI": "03/01/1963", "AQU__COST": "$99,286.00", "DISP_DATE": null, "DISP_PRICE": null, "COMMENTS_1": "Director's and grant deed", "ASSET_NO": null, "COUNCIL_DISTRICT": "CCD3", "CITY": "Oakland", "ZIPCODE": 94609, "LEGISLATION": null, "IMPROVED": null, "LOT_SIZEDIM": "Sq Ft", "BLD_SIZEDIM": null, "LOT_SIZE": "7240           ", "BLD_SIZE": null, "GLOBALID": "{F00C5696-5ECA-4730-B9CB-D48FB2D0C519}"}}, {"type": "Feature", "id": 3, "geometry": {"type": "Polygon", "coordinates": [[[-122.28673546030073, 37.80933192374403], [-122.28682864480494, 37.80935308222186], [-122.286833427945, 37.80933988548748], [-122.28674024262074, 37.80931872913561], [-122.28673546030073, 37.80933192374403]]]}, "properties": {"OBJECTID": 3, "APN": "004 0035 002 07", "ST_NO": "0", "STNAME": "14th St", "OWNER": "Redevelopment Agency", "AGENCY": "CEDA", "DEPT": "Housing", "USE": null, "DATE_ACQUI": null, "AQU__COST": null, "DISP_DATE": null, "DISP_PRICE": null, "COMMENTS_1": null, "ASSET_NO": null, "COUNCIL_DISTRICT": "CCD3", "CITY": "Oakland", "ZIPCODE": 94607, "LEGISLATION": null, "IMPROVED": null, "LOT_SIZEDIM": null, "BLD_SIZEDIM": null, "LOT_SIZE": "0              ", "BLD_SIZE": null, "GLOBALID": "{5D70A3FF-6FC2-49E0-B346-2738296F7CAB}"}}, {"type": "Feature", "id": 4, "geometry": {"type": "Polygon", "coordinates": [[[-122.28290878476906, 37.80868925516246], [-122.2830692345816, 37.80872195792965], [-122.2831107107483, 37.80872470406438], [-122.28313786708308, 37.8087269824825], [-122.28316496690587, 37.808729638656395], [-122.28319201006524, 37.808732666259814], [-122.28321897625126, 37.80873606841257], [-122.28324587079723, 37.8087398457373], [-122.28327266693819, 37.80874399090368], [-122.28329937547508, 37.80874851078033], [-122.28332597756625, 37.80875339580757], [-122.28335246801434, 37.80875865098643], [-122.28337884230523, 37.80876427286931], [-122.28482582237228, 37.809093323717036], [-122.28480055308817, 37.80916305784221], [-122.28510003681423, 37.80923114349948], [-122.2851253035879, 37.80916142622159], [-122.28522477186922, 37.809184042780856], [-122.28554803317805, 37.80829203277418], [-122.2854482033526, 37.808269336887975], [-122.28555742131748, 37.80796794253923], [-122.2833521795305, 37.80746577047538], [-122.28324312567425, 37.807766698915], [-122.28319529865936, 37.807898668198746], [-122.28311877543635, 37.808109819000315], [-122.2830805164208, 37.80821539855675], [-122.28290878476906, 37.80868925516246]]]}, "properties": {"OBJECTID": 4, "APN": "004 0013 016 02", "ST_NO": "1026", "STNAME": "12th St", "OWNER": "City of Oakland", "AGENCY": "LEA", "DEPT": "OPR", "USE": "Lowell Park", "DATE_ACQUI": "08/08/1973", "AQU__COST": "$384,273.00", "DISP_DATE": null, "DISP_PRICE": null, "COMMENTS_1": "Grant deed", "ASSET_NO": null, "COUNCIL_DISTRICT": "CCD3", "CITY": "Oakland", "ZIPCODE": 94607, "LEGISLATION": "Ordinance #8833 C.M.S.", "IMPROVED": null, "LOT_SIZEDIM": null, "BLD_SIZEDIM": null, "LOT_SIZE": "355808         ", "BLD_SIZE": null, "GLOBALID": "{31ACC302-C982-45F4-9E17-E851138D8AA4}"}}, {"type": "Feature", "id": 5, "geometry": {"type": "Polygon", "coordinates": [[[-122.27305337517511, 37.80877569219886], [-122.27300582838735, 37.80885177920026], [-122.27301993432049, 37.80891952078507], [-122.27328818580288, 37.80886792731335], [-122.27324125602057, 37.80874456161965], [-122.27323557832078, 37.808745600500494], [-122.2732243681704, 37.80874748832729], [-122.27321311529185, 37.808749219985266], [-122.27320182854504, 37.80875079534125], [-122.27319050707771, 37.80875221581433], [-122.27317915697422, 37.808753476390805], [-122.27316778278222, 37.80875458192453], [-122.27315638002142, 37.80875553037333], [-122.27314496726414, 37.80875632005162], [-122.27314392721503, 37.80875637717551], [-122.27305337517511, 37.80877569219886]]]}, "properties": {"OBJECTID": 5, "APN": "003 0061 001 02", "ST_NO": null, "STNAME": "San Pablo Av", "OWNER": "City of Oakland", "AGENCY": "PWA", "DEPT": "Public Works", "USE": "Street", "DATE_ACQUI": "06/14/1973", "AQU__COST": "$51,900", "DISP_DATE": null, "DISP_PRICE": null, "COMMENTS_1": "Grant deed\r\n", "ASSET_NO": null, "COUNCIL_DISTRICT": null, "CITY": "Oakland", "ZIPCODE": null, "LEGISLATION": "Ordinance #88020 C.M.S.", "IMPROVED": null, "LOT_SIZEDIM": "Sq Ft", "BLD_SIZEDIM": null, "LOT_SIZE": "3726           ", "BLD_SIZE": null, "GLOBALID": "{574163D4-08FF-4058-9CC3-E2C97A9F73CD}"}}, {"type": "Feature", "id": 6, "geometry": {"type": "Polygon", "coordinates": [[[-122.2624711770343, 37.83743947779029], [-122.26249624122713, 37.837444085413956], [-122.26251122707104, 37.837447133450375], [-122.26252614604796, 37.83745038992162], [-122.26254098929454, 37.83745385496011], [-122.26255575473785, 37.837457515939604], [-122.26257043471804, 37.83746138633498], [-122.26258503259706, 37.83746545836107], [-122.26259953511324, 37.83746973362239], [-122.26261394133033, 37.83747421002335], [-122.26262824668316, 37.83747888200685], [-122.26264244856293, 37.837483751721386], [-122.26265653984566, 37.83748881786708], [-122.26267052225393, 37.83749407830868], [-122.262684377058, 37.837499528403846], [-122.26269811949261, 37.837505174956696], [-122.2627117279852, 37.83751100563245], [-122.26272520894057, 37.83751702877354], [-122.26273855946602, 37.837523234578796], [-122.26275176539701, 37.83752962396292], [-122.26276483293782, 37.837536196833454], [-122.26277774956297, 37.837542948455194], [-122.26279052054046, 37.837549876639976], [-122.26280313796013, 37.83755698431873], [-122.26281558832657, 37.83756426325504], [-122.26282788411525, 37.837571716075196], [-122.26284001002486, 37.837579333163475], [-122.26285196700844, 37.837587117318314], [-122.26286375506608, 37.83759506853975], [-122.26287536428109, 37.83760317994426], [-122.2628867928307, 37.83761144944957], [-122.26289803457738, 37.83761987996013], [-122.26307432359975, 37.83775331877163], [-122.2630755338212, 37.837754286544964], [-122.26307665617817, 37.83775525070888], [-122.26307773498642, 37.83775624786982], [-122.26307851570833, 37.83775701391989], [-122.26307927198009, 37.83775779580527], [-122.2630802389235, 37.83775886143977], [-122.26308093756532, 37.83775968075157], [-122.2630816010542, 37.83776051324594], [-122.26308244979478, 37.83776164182321], [-122.26308304841268, 37.83776250552358], [-122.26308362331653, 37.83776337871964], [-122.26308434392084, 37.837764562653255], [-122.26308500642756, 37.83776576433126], [-122.26308547150765, 37.83776667995279], [-122.26308590578297, 37.83776760517586], [-122.26308631181232, 37.83776853574332], [-122.26308668441133, 37.837769477358], [-122.2630871294285, 37.8377707427593], [-122.26308752417489, 37.8377720194595], [-122.26308785973693, 37.8377733054822], [-122.26308813882373, 37.83777460289649], [-122.26308831184485, 37.83777557843325], [-122.26308845207147, 37.83777655446009], [-122.26308858785518, 37.83777786596973], [-122.2630886493813, 37.837778850907526], [-122.26308868261128, 37.837779839080845], [-122.26308867649726, 37.83778114919495], [-122.26308862723086, 37.837782135788295], [-122.26308855664226, 37.837783120590686], [-122.26308844432889, 37.83778410320384], [-122.26308830534182, 37.83778508269972], [-122.26308806217432, 37.83778637947973], [-122.2630877674989, 37.83778767281033], [-122.26308741410791, 37.837788957876995], [-122.26308700454358, 37.83779022971945], [-122.26308654245138, 37.8377914925023], [-122.2630860214599, 37.83779273928898], [-122.26308559665517, 37.83779366820772], [-122.26308513696591, 37.83779458428734], [-122.26308465220859, 37.837795490193855], [-122.2630841370986, 37.83779638741259], [-122.26308340345481, 37.83779756565255], [-122.26308261340387, 37.837798720827315], [-122.26308199265361, 37.83779957532426], [-122.26308134140044, 37.83780041480712], [-122.26308043569227, 37.83780151615894], [-122.2630794769552, 37.83780258736323], [-122.26307847326657, 37.8378036325184], [-122.26307769172385, 37.8378043994111], [-122.26307688130053, 37.837805144936794], [-122.2630757677248, 37.837806117900165], [-122.2630746099336, 37.83780705847476], [-122.26307341147212, 37.83780796660764], [-122.26307217593585, 37.83780884435468], [-122.26307090043203, 37.837809681914436], [-122.2630699209565, 37.837810290736705], [-122.26306891950733, 37.837810870353756], [-122.2630675595031, 37.83781162198198], [-122.26306651537728, 37.837812159342775], [-122.26306545737178, 37.837812672299684], [-122.26306401788452, 37.8378133252641], [-122.26306291788833, 37.83781378751636], [-122.26306180220647, 37.837814223985376], [-122.2630606798693, 37.83781464156794], [-122.26305953917074, 37.83781503270413], [-122.26305799546888, 37.837815516353146], [-122.2630564726, 37.83781613048217], [-122.26405103722672, 37.83769903123948], [-122.2640488525182, 37.83768261935192], [-122.26400730893243, 37.83768790183307], [-122.26399273461331, 37.83768933974198], [-122.26397837220004, 37.837690553682656], [-122.26396398560853, 37.83769157109285], [-122.26394957472195, 37.83769238705209], [-122.26393515026, 37.83769300491592], [-122.26392071744057, 37.837693420387325], [-122.26390627373841, 37.837693639129434], [-122.2638918305424, 37.83769365534655], [-122.26387738439084, 37.83769347260645], [-122.26386294861237, 37.83769309211604], [-122.2638485239597, 37.83769250823879], [-122.26383411412873, 37.83769172724798], [-122.26381972084206, 37.83769074700844], [-122.26380535384966, 37.83768956737428], [-122.26379101403785, 37.837688188332365], [-122.26377670675822, 37.837686611209], [-122.26376243644265, 37.83768483593804], [-122.26374820575022, 37.83768286247965], [-122.26373402453092, 37.837680694905764], [-122.26371989176499, 37.837678327606135], [-122.26370581118158, 37.83767576826007], [-122.26369179159404, 37.83767301462628], [-122.26367783211624, 37.83767006671803], [-122.26366394261484, 37.83766692931014], [-122.2636501228561, 37.837663592561604], [-122.26363637583327, 37.83766007049134], [-122.26362271117917, 37.837656358033], [-122.26360913153626, 37.837652454444104], [-122.26359563705489, 37.83764836605093], [-122.26358223658188, 37.83764409201819], [-122.26356893446543, 37.837639628764926], [-122.26355572829726, 37.83763498687491], [-122.26354262859654, 37.83763016126871], [-122.26352963633316, 37.83762515544772], [-122.2635167532966, 37.83761997008846], [-122.26350399192907, 37.8376146064113], [-122.26349134258118, 37.83760906877962], [-122.26347882562193, 37.83760335618584], [-122.26346643488058, 37.83759747012858], [-122.26345417224665, 37.83759141550187], [-122.2634420474366, 37.8375851907542], [-122.26343006138687, 37.837578797981145], [-122.26341821598707, 37.83757224207679], [-122.26340651566902, 37.83756552297489], [-122.26339496392792, 37.83755863851378], [-122.2633835691083, 37.837551604038644], [-122.26337233181265, 37.83754440758654], [-122.26336125048536, 37.837537058322084], [-122.26307052001545, 37.83735514836626], [-122.26305308007208, 37.837344754392745], [-122.26303541342493, 37.83733459585336], [-122.2630175258761, 37.83732469305347], [-122.26299942421562, 37.83731503323424], [-122.26298111135286, 37.83730562689987], [-122.26297395179185, 37.837302086486666], [-122.26296259349212, 37.83729647395753], [-122.26294387963017, 37.83728757989813], [-122.26290790278769, 37.83727144717494], [-122.26248711217863, 37.83732495064977], [-122.2624711770343, 37.83743947779029]]]}, "properties": {"OBJECTID": 6, "APN": "014 1218 013 03", "ST_NO": null, "STNAME": "52nd St", "OWNER": "City of Oakland", "AGENCY": "PWA", "DEPT": "Public Works", "USE": "Street", "DATE_ACQUI": "07/15/1968", "AQU__COST": "$50,350.00", "DISP_DATE": null, "DISP_PRICE": null, "COMMENTS_1": "Grant deed", "ASSET_NO": null, "COUNCIL_DISTRICT": "CCD1", "CITY": "Oakland", "ZIPCODE": null, "LEGISLATION": "Ordinance #78500 C.M.S.", "IMPROVED": null, "LOT_SIZEDIM": "Sq Ft", "BLD_SIZEDIM": null, "LOT_SIZE": "57716          ", "BLD_SIZE": null, "GLOBALID": "{BBDBB572-6163-4E02-BF09-BC346792BF03}"}}, {"type": "Feature", "id": 7, "geometry": {"type": "Polygon", "coordinates": [[[-122.27095627730907, 37.81376915585057], [-122.27099794001194, 37.81393574734405], [-122.27114761463177, 37.81380231261022], [-122.27095627730907, 37.81376915585057]]]}, "properties": {"OBJECTID": 7, "APN": "008 0664 046 00", "ST_NO": null, "STNAME": "24th St", "OWNER": "City of Oakland", "AGENCY": "PWA", "DEPT": "Maintenance", "USE": "Open Space, grass", "DATE_ACQUI": null, "AQU__COST": null, "DISP_DATE": null, "DISP_PRICE": null, "COMMENTS_1": null, "ASSET_NO": null, "COUNCIL_DISTRICT": "CCD3", "CITY": "Oakland", "ZIPCODE": 94612, "LEGISLATION": "Ordinance #7056", "IMPROVED": null, "LOT_SIZEDIM": null, "BLD_SIZEDIM": null, "LOT_SIZE": "0              ", "BLD_SIZE": null, "GLOBALID": "{09B75871-89DF-43B1-81DC-6304AF191780}"}}, {"type": "Feature", "id": 8, "geometry": {"type": "Polygon", "coordinates": [[[-122.25678025143587, 37.8332518408273], [-122.2578725753089, 37.833297739651314], [-122.25793477796044, 37.83302291617393], [-122.25799800765931, 37.832743561522285], [-122.25803203862924, 37.83259317532001], [-122.25690883663263, 37.83254512352169], [-122.25689826229136, 37.83261692015955], [-122.25682087666873, 37.832614881479714], [-122.25678025143587, 37.8332518408273]]]}, "properties": {"OBJECTID": 8, "APN": "013 1106 002 00", "ST_NO": "365-371", "STNAME": "45th St", "OWNER": "City of Oakland", "AGENCY": "LEA", "DEPT": "OPR", "USE": "Studio One Art Center", "DATE_ACQUI": "02/26/1948", "AQU__COST": "$12,000.00", "DISP_DATE": null, "DISP_PRICE": null, "COMMENTS_1": "Grant deed", "ASSET_NO": null, "COUNCIL_DISTRICT": "CCD1", "CITY": "Oakland", "ZIPCODE": 94609, "LEGISLATION": "Ordinance #2576 C.M.S.", "IMPROVED": null, "LOT_SIZEDIM": "Sq Ft", "BLD_SIZEDIM": null, "LOT_SIZE": "82235          ", "BLD_SIZE": null, "GLOBALID": "{16418B8E-FAD1-43F1-8AA2-E9E8BAF0B6C2}"}}, {"type": "Feature", "id": 9, "geometry": {"type": "Polygon", "coordinates": [[[-122.24653882001606, 37.812236568717296], [-122.24683417964211, 37.81235566762022], [-122.24691295186396, 37.812233396445386], [-122.24699172740362, 37.81211112656847], [-122.24670524344869, 37.81199560660467], [-122.24653882001606, 37.812236568717296]]]}, "properties": {"OBJECTID": 9, "APN": "011 0836 016 00", "ST_NO": "721", "STNAME": "Walker Av", "OWNER": "City of Oakland", "AGENCY": "PWA", "DEPT": "Parking", "USE": "Grand Avenue Parking Lot", "DATE_ACQUI": "10/18/1974", "AQU__COST": "$91,490.00", "DISP_DATE": null, "DISP_PRICE": null, "COMMENTS_1": "Grant deed", "ASSET_NO": null, "COUNCIL_DISTRICT": "CCD2", "CITY": "Oakland", "ZIPCODE": 94610, "LEGISLATION": "Ordinance #9075 C.M.S.", "IMPROVED": null, "LOT_SIZEDIM": "Sq Ft", "BLD_SIZEDIM": null, "LOT_SIZE": "9455           ", "BLD_SIZE": null, "GLOBALID": "{83B34573-9705-466D-B0E8-3A8EDB89E1D9}"}}, {"type": "Feature", "id": 10, "geometry": {"type": "Polygon", "coordinates": [[[-122.2801682201019, 37.826489667186635], [-122.28057661258123, 37.826582606321345], [-122.28060668140049, 37.82649944899773], [-122.28019835627815, 37.826406528644675], [-122.2801682201019, 37.826489667186635]]]}, "properties": {"OBJECTID": 10, "APN": "005 0477 007 00", "ST_NO": "3501", "STNAME": "Adeline St", "OWNER": "City of Oakland", "AGENCY": "LEA", "DEPT": "Housing", "USE": "Private house", "DATE_ACQUI": "06/11/1996", "AQU__COST": "$66,500.00", "DISP_DATE": null, "DISP_PRICE": null, "COMMENTS_1": "private property; Grant deed", "ASSET_NO": "96713007", "COUNCIL_DISTRICT": "CCD3", "CITY": "Emeryville", "ZIPCODE": 94608, "LEGISLATION": "#11884 C.M.S.", "IMPROVED": "Yes", "LOT_SIZEDIM": null, "BLD_SIZEDIM": null, "LOT_SIZE": "3998           ", "BLD_SIZE": null, "GLOBALID": "{39FDD76E-2F8A-49AF-86FB-7558CFA23A1E}"}}, {"type": "Feature", "id": 11, "geometry": {"type": "Polygon", "coordinates": [[[-122.25576021504817, 37.83595654572995], [-122.25588470218102, 37.836005398665215], [-122.25595687805738, 37.83586332600328], [-122.25591021537473, 37.83584499174779], [-122.25583241981987, 37.83581441224228], [-122.25576021504817, 37.83595654572995]]]}, "properties": {"OBJECTID": 11, "APN": "013 1140 029 04", "ST_NO": "0", "STNAME": "51st St", "OWNER": "City of Oakland", "AGENCY": "PWA", "DEPT": "Maintenance", "USE": "51st. St. Remnant", "DATE_ACQUI": null, "AQU__COST": null, "DISP_DATE": null, "DISP_PRICE": null, "COMMENTS_1": null, "ASSET_NO": null, "COUNCIL_DISTRICT": "CCD1", "CITY": "Oakland", "ZIPCODE": 94609, "LEGISLATION": null, "IMPROVED": null, "LOT_SIZEDIM": null, "BLD_SIZEDIM": null, "LOT_SIZE": "0              ", "BLD_SIZE": null, "GLOBALID": "{7E5C3629-A29B-40C8-97F6-EC05567313BD}"}}, {"type": "Feature", "id": 12, "geometry": {"type": "Polygon", "coordinates": [[[-122.28413675366164, 37.811094529035316], [-122.2843042079086, 37.81113265760964], [-122.28433286019948, 37.81105346664153], [-122.28416539102035, 37.811015336929344], [-122.28416138180276, 37.811026424935555], [-122.28413675366164, 37.811094529035316]]]}, "properties": {"OBJECTID": 12, "APN": "005 0387 015 00", "ST_NO": "1608", "STNAME": "Chestnut St", "OWNER": "Redevelopment Agency", "AGENCY": "CEDA", "DEPT": "Housing", "USE": "Private house", "DATE_ACQUI": null, "AQU__COST": null, "DISP_DATE": null, "DISP_PRICE": null, "COMMENTS_1": "unable to disti", "ASSET_NO": null, "COUNCIL_DISTRICT": "CCD3", "CITY": "Oakland", "ZIPCODE": 94607, "LEGISLATION": null, "IMPROVED": null, "LOT_SIZEDIM": null, "BLD_SIZEDIM": null, "LOT_SIZE": "0              ", "BLD_SIZE": null, "GLOBALID": "{0E755D96-6704-4914-926B-306950725C9D}"}}, {"type": "Feature", "id": 13, "geometry": {"type": "Polygon", "coordinates": [[[-122.25711453337097, 37.836633926218084], [-122.25716589520883, 37.83664574679884], [-122.25724600715762, 37.836546240895665], [-122.25711146119987, 37.8365267154556], [-122.25703911805374, 37.83661656906917], [-122.25711453337097, 37.836633926218084]]]}, "properties": {"OBJECTID": 13, "APN": "014 1234 017 02", "ST_NO": "384", "STNAME": "51st St", "OWNER": "City of Oakland", "AGENCY": "PWA", "DEPT": "Maintenance", "USE": "51st. St. Remnant", "DATE_ACQUI": null, "AQU__COST": null, "DISP_DATE": null, "DISP_PRICE": null, "COMMENTS_1": null, "ASSET_NO": null, "COUNCIL_DISTRICT": "CCD1", "CITY": "Oakland", "ZIPCODE": 94618, "LEGISLATION": null, "IMPROVED": null, "LOT_SIZEDIM": null, "BLD_SIZEDIM": null, "LOT_SIZE": "0              ", "BLD_SIZE": null, "GLOBALID": "{179D4F7A-1B2B-4D91-AA4A-8C3E74AC5A92}"}}, {"type": "Feature", "id": 14, "geometry": {"type": "Polygon", "coordinates": [[[-122.20171190285912, 37.82696539418709], [-122.2022035724482, 37.827051940377906], [-122.20220406835472, 37.82704986800602], [-122.20220776685782, 37.82703355378557], [-122.2022111077601, 37.82701718636132], [-122.20221408956345, 37.82700077770896], [-122.20221670525898, 37.82698433144542], [-122.20221896283896, 37.8269678481586], [-122.2022208554396, 37.82695133779205], [-122.20222238406014, 37.82693480525347], [-122.20222354965166, 37.82691825334191], [-122.20222434965237, 37.82690168631332], [-122.20222440648196, 37.82690018281444], [-122.20175058178681, 37.826859850550925], [-122.20171190285912, 37.82696539418709]]]}, "properties": {"OBJECTID": 14, "APN": "048D 7249 008 00", "ST_NO": null, "STNAME": "Shepherd Canyon Rd", "OWNER": "City of Oakland", "AGENCY": "LEA", "DEPT": "OPR", "USE": "Shepherd Canyon Park", "DATE_ACQUI": null, "AQU__COST": null, "DISP_DATE": null, "DISP_PRICE": null, "COMMENTS_1": null, "ASSET_NO": null, "COUNCIL_DISTRICT": "CCD4", "CITY": "Oakland", "ZIPCODE": 94611, "LEGISLATION": null, "IMPROVED": null, "LOT_SIZEDIM": null, "BLD_SIZEDIM": null, "LOT_SIZE": "8076           ", "BLD_SIZE": null, "GLOBALID": "{FFD2985B-1E0C-46C1-A50A-7CB49CA5953F}"}}, {"type": "Feature", "id": 15, "geometry": {"type": "Polygon", "coordinates": [[[-122.28479577567694, 37.84438513913661], [-122.28485332626639, 37.84450810520703], [-122.2850879803791, 37.84444334369854], [-122.2850147029493, 37.84421494224837], [-122.28470161964744, 37.84430135173285], [-122.28474138069096, 37.84440014925444], [-122.28479577567694, 37.84438513913661]]]}, "properties": {"OBJECTID": 15, "APN": "016 1459 006 00", "ST_NO": "6128", "STNAME": "Marshall St", "OWNER": "City of Oakland", "AGENCY": "CEDA", "DEPT": "Housing", "USE": "vacant lot", "DATE_ACQUI": "07/12/1989", "AQU__COST": null, "DISP_DATE": "03/16/2007", "DISP_PRICE": "$65000", "COMMENTS_1": "dda to P. wang; Grant deed", "ASSET_NO": null, "COUNCIL_DISTRICT": "CCD1", "CITY": "Emeryville", "ZIPCODE": 94608, "LEGISLATION": null, "IMPROVED": null, "LOT_SIZEDIM": "Sq Ft", "BLD_SIZEDIM": null, "LOT_SIZE": "6913           ", "BLD_SIZE": null, "GLOBALID": "{3935D43C-5B85-4B7E-8424-9C9CE3BEAEB3}"}}], "exceededTransferLimit": true}