{"type": "FeatureCollection", "features": [{"type": "Feature", "geometry": {"type": "Polygon", "coordinates": [[[-122.2661, 37.80323], [-122.26657, 37.80341], [-122.26663, 37.80332], [-122.26672, 37.80317], [-122.26626, 37.80298], [-122.2661, 37.80323]]]}, "properties": {"APN_12": "008 062601600", "FULL_SITUS": "1443 ALICE ST OAKLAND 94612", "YEARBUILT": 1910, "TOTALCAP": 53, "VLOWCAP": 0, "LOWCAP": 0, "MODCAP": 53, "AMODCAP": 0, "ZNLABEL_1": "NA", "GPLANCODE": 8, "HESITETYPE": "Other Opportunity", "RHNACAT": "Moderate-Income", "STATUS": "Available", "BLDG_AREA_": 60800, "SHP_NO_UNI": 0, "SITUS_CITY": "OAKLAND", "SITUS_ZIP_": 94612, "USEDESCRIP": "Parking garage", "BASEZONE_1": "CBD-C"}}, {"type": "Feature", "geometry": {"type": "Polygon", "coordinates": [[[-122.26946, 37.81078], [-122.2698, 37.81084], [-122.26981, 37.81077], [-122.26995, 37.8108], [-122.27002, 37.81081], [-122.27009, 37.81054], [-122.26954, 37.81045], [-122.26946, 37.81078]]]}, "properties": {"APN_12": "008 064700200", "FULL_SITUS": "2101 TELEGRAPH AVE OAKLAND 94612", "YEARBUILT": 1910, "TOTALCAP": 0, "VLOWCAP": 0, "LOWCAP": 0, "MODCAP": 0, "AMODCAP": 0, "ZNLABEL_1": "NA", "GPLANCODE": 8, "HESITETYPE": "Pipeline", "RHNACAT": "Mixed-Income", "STATUS": "Not Available (Pipeline Project)", "BLDG_AREA_": 61824, "SHP_NO_UNI": 93, "SITUS_CITY": "OAKLAND", "SITUS_ZIP_": 94612, "USEDESCRIP": "Restricted residential income property", "BASEZONE_1": "CBD-C"}}, {"type": "Feature", "geometry": {"type": "Polygon", "coordinates": [[[-122.26091, 37.78925], [-122.261, 37.78933], [-122.2612, 37.78919], [-122.26133, 37.78909], [-122.26133, 37.78909], [-122.26128, 37.78904], [-122.26101, 37.78881], [-122.26068, 37.78904], [-122.26091, 37.78925]]]}, "properties": {"APN_12": "018 046000200", "FULL_SITUS": "48 5TH AVE OAKLAND 94606", "YEARBUILT": 1911, "TOTALCAP": 21, "VLOWCAP": 11, "LOWCAP": 7, "MODCAP": 3, "AMODCAP": 0, "ZNLABEL_1": "NA", "GPLANCODE": 0, "HESITETYPE": "Pipeline", "RHNACAT": "Mixed-Income", "STATUS": "Not Available (Pipeline Project)", "BLDG_AREA_": 9891, "SHP_NO_UNI": 30, "SITUS_CITY": "OAKLAND", "SITUS_ZIP_": 94606, "USEDESCRIP": "Misc. industrial (improved); no other ind code", "BASEZONE_1": "M-40"}}, {"type": "Feature", "geometry": {"type": "Polygon", "coordinates": [[[-122.26214, 37.81273], [-122.26225, 37.81275], [-122.26234, 37.81243], [-122.26223, 37.81241], [-122.26214, 37.81273]]]}, "properties": {"APN_12": "008 067000300", "FULL_SITUS": "261 24TH ST OAKLAND 94612", "YEARBUILT": 1912, "TOTALCAP": 0, "VLOWCAP": 0, "LOWCAP": 0, "MODCAP": 0, "AMODCAP": 0, "ZNLABEL_1": "<Null>", "GPLANCODE": 8, "HESITETYPE": "Pipeline", "RHNACAT": "Mixed-Income", "STATUS": "Not Available (Pipeline Project)", "BLDG_AREA_": 7364, "SHP_NO_UNI": 0, "SITUS_CITY": "OAKLAND", "SITUS_ZIP_": 94612, "USEDESCRIP": "Store/Office with Apts/Lofts", "BASEZONE_1": "D-BV-1"}}, {"type": "Feature", "geometry": {"type": "Polygon", "coordinates": [[[-122.27015, 37.81038], [-122.2707, 37.81047], [-122.27078, 37.81015], [-122.27075, 37.81015], [-122.27082, 37.80988], [-122.27055, 37.80984], [-122.27048, 37.81011], [-122.27048, 37.81011], [-122.27038, 37.81009], [-122.27034, 37.81008], [-122.27023, 37.81006], [-122.27023, 37.81006], [-122.27023, 37.81006], [-122.27023, 37.81006], [-122.27023, 37.81006], [-122.27015, 37.81038]]]}, "properties": {"APN_12": "008 064503301", "FULL_SITUS": "525 21ST ST OAKLAND 94612", "YEARBUILT": 1912, "TOTALCAP": 68, "VLOWCAP": 0, "LOWCAP": 68, "MODCAP": 0, "AMODCAP": 0, "ZNLABEL_1": " ", "GPLANCODE": 8, "HESITETYPE": "Other Opportunity", "RHNACAT": "Lower-Income", "STATUS": "Available", "BLDG_AREA_": 15400, "SHP_NO_UNI": 0, "SITUS_CITY": "OAKLAND", "SITUS_ZIP_": 94612, "USEDESCRIP": "One to five story office building", "BASEZONE_1": "CBD-X"}}, {"type": "Feature", "geometry": {"type": "Polygon", "coordinates": [[[-122.28116, 37.80922], [-122.28157, 37.80932], [-122.28164, 37.80911], [-122.28123, 37.80902], [-122.28123, 37.80902], [-122.28116, 37.80922]]]}, "properties": {"APN_12": "005 038301800", "FULL_SITUS": "1420 MYRTLE ST OAKLAND 94607", "YEARBUILT": 1912, "TOTALCAP": 24, "VLOWCAP": 0, "LOWCAP": 0, "MODCAP": 24, "AMODCAP": 0, "ZNLABEL_1": "NA", "GPLANCODE": 0, "HESITETYPE": "Other Opportunity", "RHNACAT": "Moderate-Income", "STATUS": "Available", "BLDG_AREA_": 5525, "SHP_NO_UNI": 0, "SITUS_CITY": "OAKLAND", "SITUS_ZIP_": 94607, "USEDESCRIP": "Church", "BASEZONE_1": "RM-4"}}, {"type": "Feature", "geometry": {"type": "Polygon", "coordinates": [[[-122.24138, 37.8607], [-122.24139, 37.86073], [-122.24139, 37.86072], [-122.2414, 37.86072], [-122.2414, 37.86071], [-122.24141, 37.86071], [-122.24141, 37.8607], [-122.24142, 37.8607], [-122.24142, 37.8607], [-122.24143, 37.86069], [-122.24143, 37.86069], [-122.24144, 37.86069], [-122.24145, 37.86068], [-122.24145, 37.86068], [-122.24146, 37.86067], [-122.24146, 37.86067], [-122.24147, 37.86067], [-122.24148, 37.86066], [-122.24148, 37.86066], [-122.24149, 37.86066], [-122.24149, 37.86066], [-122.2415, 37.86065], [-122.24151, 37.86065], [-122.24151, 37.86065], [-122.24152, 37.86064], [-122.24153, 37.86064], [-122.24153, 37.86064], [-122.24154, 37.86064], [-122.24155, 37.86064], [-122.24155, 37.86063], [-122.24156, 37.86063], [-122.24157, 37.86063], [-122.24157, 37.86063], [-122.24158, 37.86063], [-122.24159, 37.86062], [-122.24214, 37.86046], [-122.24215, 37.86045], [-122.24215, 37.86045], [-122.24216, 37.86045], [-122.24217, 37.86045], [-122.24218, 37.86045], [-122.24218, 37.86044], [-122.24219, 37.86044], [-122.2422, 37.86044], [-122.2422, 37.86044], [-122.24221, 37.86044], [-122.24222, 37.86044], [-122.24223, 37.86044], [-122.24223, 37.86044], [-122.24224, 37.86043], [-122.24225, 37.86043], [-122.24226, 37.86043], [-122.24226, 37.86043], [-122.24227, 37.86043], [-122.24228, 37.86043], [-122.24229, 37.86043], [-122.24229, 37.86043], [-122.2423, 37.86043], [-122.24231, 37.86043], [-122.24232, 37.86043], [-122.24233, 37.86043], [-122.24233, 37.86043], [-122.24234, 37.86043], [-122.24235, 37.86043], [-122.24236, 37.86044], [-122.24236, 37.86044], [-122.24237, 37.86044], [-122.24238, 37.86044], [-122.24238, 37.86044], [-122.24239, 37.86044], [-122.2424, 37.86044], [-122.24241, 37.86044], [-122.24241, 37.86044], [-122.24242, 37.86045], [-122.24243, 37.86045], [-122.24244, 37.86045], [-122.24244, 37.86045], [-122.24245, 37.86045], [-122.24246, 37.86046], [-122.24246, 37.86046], [-122.24247, 37.86046], [-122.24248, 37.86046], [-122.24248, 37.86047], [-122.24249, 37.86047], [-122.2425, 37.86047], [-122.2425, 37.86047], [-122.24251, 37.86048], [-122.24252, 37.86048], [-122.24252, 37.86048], [-122.24253, 37.86049], [-122.24254, 37.86049], [-122.24255, 37.8605], [-122.24283, 37.86066], [-122.24284, 37.86066], [-122.24285, 37.86067], [-122.24285, 37.86067], [-122.24286, 37.86067], [-122.24286, 37.86068], [-122.24287, 37.86068], [-122.24288, 37.86069], [-122.24288, 37.86069], [-122.24289, 37.86069], [-122.24289, 37.8607], [-122.2429, 37.8607], [-122.2429, 37.86071], [-122.24291, 37.86071], [-122.24291, 37.86072], [-122.24292, 37.86072], [-122.24292, 37.86073], [-122.24293, 37.86073], [-122.24293, 37.86073], [-122.24294, 37.86074], [-122.24294, 37.86074], [-122.24294, 37.86075], [-122.24295, 37.86075], [-122.24295, 37.86076], [-122.24296, 37.86077], [-122.24296, 37.86077], [-122.24296, 37.86077], [-122.24296, 37.86078], [-122.24297, 37.86078], [-122.24297, 37.86078], [-122.24297, 37.86079], [-122.24297, 37.86079], [-122.24298, 37.86079], [-122.24298, 37.8608], [-122.24298, 37.8608], [-122.24299, 37.8608], [-122.24299, 37.8608], [-122.24299, 37.86081], [-122.24299, 37.86081], [-122.243, 37.86081], [-122.243, 37.86081], [-122.243, 37.86082], [-122.24301, 37.86082], [-122.24301, 37.86082], [-122.24301, 37.86082], [-122.24302, 37.86083], [-122.24303, 37.86083], [-122.24303, 37.86084], [-122.24304, 37.86084], [-122.24305, 37.86085], [-122.24305, 37.86085], [-122.24306, 37.86085], [-122.24307, 37.86086], [-122.24307, 37.86086], [-122.24308, 37.86086], [-122.24309, 37.86087], [-122.2431, 37.86087], [-122.2431, 37.86087], [-122.24311, 37.86088], [-122.24312, 37.86088], [-122.24313, 37.86088], [-122.24313, 37.86089], [-122.24314, 37.86089], [-122.24315, 37.86089], [-122.24316, 37.86089], [-122.24316, 37.8609], [-122.24317, 37.8609], [-122.24318, 37.8609], [-122.24319, 37.8609], [-122.2432, 37.8609], [-122.2432, 37.86091], [-122.24321, 37.86091], [-122.24322, 37.86091], [-122.24323, 37.86091], [-122.24324, 37.86091], [-122.24324, 37.86091], [-122.24325, 37.86091], [-122.24326, 37.86091], [-122.24327, 37.86092], [-122.24328, 37.86092], [-122.24329, 37.86092], [-122.24329, 37.86092], [-122.2433, 37.86092], [-122.24331, 37.86092], [-122.24332, 37.86092], [-122.24333, 37.86092], [-122.24334, 37.86092], [-122.24335, 37.86092], [-122.24335, 37.86092], [-122.24336, 37.86092], [-122.24337, 37.86092], [-122.24338, 37.86092], [-122.24339, 37.86092], [-122.2434, 37.86092], [-122.2434, 37.86091], [-122.24341, 37.86091], [-122.24342, 37.86091], [-122.24343, 37.86091], [-122.24344, 37.86091], [-122.24344, 37.86091], [-122.24345, 37.86091], [-122.24346, 37.8609], [-122.24347, 37.8609], [-122.24348, 37.8609], [-122.24348, 37.8609], [-122.24349, 37.8609], [-122.2435, 37.86089], [-122.24352, 37.86089], [-122.2437, 37.86081], [-122.24374, 37.8608], [-122.24378, 37.86078], [-122.24381, 37.86076], [-122.24385, 37.86074], [-122.24388, 37.86072], [-122.24392, 37.8607], [-122.24395, 37.86068], [-122.24402, 37.86065], [-122.24403, 37.86064], [-122.24403, 37.86063], [-122.24404, 37.86063], [-122.24405, 37.86062], [-122.24406, 37.86062], [-122.24406, 37.86061], [-122.24407, 37.8606], [-122.24408, 37.8606], [-122.24408, 37.86059], [-122.24409, 37.86058], [-122.2441, 37.86058], [-122.2441, 37.86057], [-122.24411, 37.86056], [-122.24411, 37.86056], [-122.24412, 37.86055], [-122.24413, 37.86054], [-122.24413, 37.86053], [-122.24414, 37.86053], [-122.24414, 37.86052], [-122.24415, 37.86051], [-122.24415, 37.8605], [-122.24416, 37.8605], [-122.24416, 37.86049], [-122.24417, 37.86048], [-122.24417, 37.86047], [-122.24417, 37.86047], [-122.24418, 37.86046], [-122.24418, 37.86045], [-122.24418, 37.86044], [-122.24419, 37.86043], [-122.24419, 37.86043], [-122.24419, 37.86042], [-122.2442, 37.86041], [-122.2442, 37.8604], [-122.2442, 37.86039], [-122.2442, 37.86039], [-122.24421, 37.86038], [-122.24421, 37.86037], [-122.24421, 37.86036], [-122.24421, 37.86035], [-122.24423, 37.86024], [-122.24419, 37.85996], [-122.24372, 37.85992], [-122.24372, 37.85975], [-122.24417, 37.85979], [-122.24413, 37.85946], [-122.24387, 37.85944], [-122.24391, 37.85917], [-122.24391, 37.85917], [-122.24392, 37.85916], [-122.24392, 37.85916], [-122.24392, 37.85916], [-122.24393, 37.85916], [-122.24393, 37.85915], [-122.24393, 37.85915], [-122.24394, 37.85915], [-122.24394, 37.85914], [-122.24395, 37.85914], [-122.24395, 37.85914], [-122.24396, 37.85913], [-122.24396, 37.85913], [-122.24396, 37.85913], [-122.24397, 37.85913], [-122.24397, 37.85912], [-122.24398, 37.85912], [-122.24398, 37.85912], [-122.24399, 37.85912], [-122.24399, 37.85912], [-122.244, 37.85911], [-122.244, 37.85911], [-122.244, 37.85911], [-122.24401, 37.85911], [-122.24401, 37.85911], [-122.24402, 37.8591], [-122.24402, 37.8591], [-122.24403, 37.8591], [-122.24403, 37.8591], [-122.24404, 37.8591], [-122.24404, 37.8591], [-122.24405, 37.85909], [-122.24405, 37.85909], [-122.24406, 37.85909], [-122.24406, 37.85909], [-122.24407, 37.85909], [-122.24408, 37.85909], [-122.24408, 37.85909], [-122.24409, 37.85909], [-122.24409, 37.85908], [-122.24409, 37.85904], [-122.24387, 37.85906], [-122.24386, 37.85901], [-122.24309, 37.85906], [-122.24305, 37.8587], [-122.24262, 37.85873], [-122.24253, 37.85794], [-122.24273, 37.85794], [-122.24272, 37.85793], [-122.24262, 37.85779], [-122.2426, 37.85776], [-122.24257, 37.85773], [-122.24256, 37.85772], [-122.24243, 37.85765], [-122.24241, 37.85764], [-122.2424, 37.85764], [-122.24238, 37.85763], [-122.24236, 37.85763], [-122.24234, 37.85763], [-122.24231, 37.85762], [-122.2423, 37.85762], [-122.24228, 37.85762], [-122.24227, 37.85762], [-122.24226, 37.85761], [-122.24224, 37.85761], [-122.24223, 37.85761], [-122.24222, 37.85761], [-122.2422, 37.8576], [-122.24219, 37.8576], [-122.24218, 37.8576], [-122.24216, 37.85759], [-122.24215, 37.85759], [-122.24214, 37.85758], [-122.24212, 37.85758], [-122.24211, 37.85757], [-122.2421, 37.85757], [-122.24208, 37.85757], [-122.24207, 37.85756], [-122.24206, 37.85755], [-122.24205, 37.85755], [-122.24204, 37.85754], [-122.24202, 37.85754], [-122.24201, 37.85753], [-122.242, 37.85753], [-122.24199, 37.85752], [-122.24198, 37.85751], [-122.24197, 37.85751], [-122.24195, 37.8575], [-122.24194, 37.85749], [-122.24193, 37.85749], [-122.24192, 37.85748], [-122.24107, 37.85801], [-122.24107, 37.85802], [-122.24107, 37.85802], [-122.24107, 37.85802], [-122.24108, 37.85802], [-122.24108, 37.85802], [-122.24108, 37.85802], [-122.24108, 37.85802], [-122.24108, 37.85803], [-122.24108, 37.85803], [-122.24108, 37.85803], [-122.24108, 37.85803], [-122.24108, 37.85803], [-122.24109, 37.85803], [-122.24109, 37.85804], [-122.24109, 37.85804], [-122.24109, 37.85804], [-122.24109, 37.85804], [-122.24109, 37.85804], [-122.24109, 37.85804], [-122.24109, 37.85804], [-122.24109, 37.85805], [-122.24109, 37.85805], [-122.24109, 37.85805], [-122.24109, 37.85805], [-122.24109, 37.85805], [-122.2411, 37.85805], [-122.2411, 37.85806], [-122.2411, 37.85806], [-122.2411, 37.85806], [-122.2411, 37.85806], [-122.2411, 37.85806], [-122.2411, 37.85806], [-122.2411, 37.85807], [-122.2411, 37.85807], [-122.2411, 37.85807], [-122.2411, 37.85807], [-122.2411, 37.85807], [-122.2411, 37.85808], [-122.2411, 37.85808], [-122.2411, 37.85808], [-122.2411, 37.85808], [-122.2411, 37.85808], [-122.2411, 37.85808], [-122.2411, 37.85809], [-122.2411, 37.85809], [-122.2411, 37.85809], [-122.2411, 37.85809], [-122.2411, 37.85809], [-122.2411, 37.85809], [-122.2411, 37.8581], [-122.2411, 37.8581], [-122.2411, 37.8581], [-122.2411, 37.8581], [-122.24109, 37.8581], [-122.24109, 37.8581], [-122.24109, 37.85811], [-122.24109, 37.85811], [-122.24109, 37.85811], [-122.24109, 37.85811], [-122.24109, 37.85811], [-122.24109, 37.85811], [-122.24109, 37.85812], [-122.24109, 37.85812], [-122.24109, 37.85812], [-122.24109, 37.85812], [-122.24109, 37.85812], [-122.24108, 37.85812], [-122.24108, 37.85812], [-122.24108, 37.85813], [-122.24108, 37.85813], [-122.24108, 37.85813], [-122.24124, 37.85836], [-122.24113, 37.85853], [-122.24118, 37.85886], [-122.24114, 37.8592], [-122.24114, 37.85923], [-122.24076, 37.85926], [-122.24084, 37.85942], [-122.2409, 37.85958], [-122.24097, 37.85973], [-122.24102, 37.85987], [-122.24109, 37.86002], [-122.24118, 37.85999], [-122.24124, 37.86011], [-122.24127, 37.8602], [-122.24118, 37.86023], [-122.24138, 37.8607]]]}, "properties": {"APN_12": "048H767002700", "FULL_SITUS": "41 TUNNEL RD OAKLAND 94705", "YEARBUILT": 1914, "TOTALCAP": 0, "VLOWCAP": 0, "LOWCAP": 0, "MODCAP": 0, "AMODCAP": 0, "ZNLABEL_1": "<Null>", "GPLANCODE": 0, "HESITETYPE": "Potential Project", "RHNACAT": "Above-Moderate-Income", "STATUS": "Available (Pre-Approval Stage)", "BLDG_AREA_": 250642, "SHP_NO_UNI": 279, "SITUS_CITY": "OAKLAND", "SITUS_ZIP_": 94705, "USEDESCRIP": "Hotel", "BASEZONE_1": "RU-3"}}, {"type": "Feature", "geometry": {"type": "Polygon", "coordinates": [[[-122.26663, 37.80332], [-122.2671, 37.8035], [-122.26719, 37.80335], [-122.26672, 37.80317], [-122.26663, 37.80332]]]}, "properties": {"APN_12": "008 062602300", "FULL_SITUS": "1434 HARRISON ST OAKLAND 94612", "YEARBUILT": 1915, "TOTALCAP": 71, "VLOWCAP": 0, "LOWCAP": 0, "MODCAP": 71, "AMODCAP": 0, "ZNLABEL_1": "NA", "GPLANCODE": 8, "HESITETYPE": "Other Opportunity", "RHNACAT": "Moderate-Income", "STATUS": "Available", "BLDG_AREA_": 10583, "SHP_NO_UNI": 0, "SITUS_CITY": "OAKLAND", "SITUS_ZIP_": 94612, "USEDESCRIP": "Parking lot", "BASEZONE_1": "CBD-C"}}, {"type": "Feature", "geometry": {"type": "Polygon", "coordinates": [[[-122.26526, 37.79845], [-122.26542, 37.7982], [-122.26518, 37.79811], [-122.26503, 37.79835], [-122.26526, 37.79845]]]}, "properties": {"APN_12": "002 008501000", "FULL_SITUS": "113 10TH ST OAKLAND 94607", "YEARBUILT": 1915, "TOTALCAP": 25, "VLOWCAP": 0, "LOWCAP": 0, "MODCAP": 25, "AMODCAP": 0, "ZNLABEL_1": "NA", "GPLANCODE": 8, "HESITETYPE": "RHNA5", "RHNACAT": "Moderate-Income", "STATUS": "Available", "BLDG_AREA_": 14825, "SHP_NO_UNI": 0, "SITUS_CITY": "OAKLAND", "SITUS_ZIP_": 94607, "USEDESCRIP": "Warehouse", "BASEZONE_1": "D-LM-4"}}, {"type": "Feature", "geometry": {"type": "Polygon", "coordinates": [[[-122.26588, 37.80451], [-122.26636, 37.80469], [-122.26648, 37.8045], [-122.266, 37.80432], [-122.26588, 37.80451]]]}, "properties": {"APN_12": "008 062603001", "FULL_SITUS": "1600 HARRISON ST OAKLAND 94612", "YEARBUILT": 1916, "TOTALCAP": 68, "VLOWCAP": 0, "LOWCAP": 0, "MODCAP": 68, "AMODCAP": 0, "ZNLABEL_1": "NA", "GPLANCODE": 8, "HESITETYPE": "RHNA5", "RHNACAT": "Moderate-Income", "STATUS": "Available", "BLDG_AREA_": 11550, "SHP_NO_UNI": 0, "SITUS_CITY": "OAKLAND", "SITUS_ZIP_": 94612, "USEDESCRIP": "Commercial repair garage", "BASEZONE_1": "CBD-C"}}, {"type": "Feature", "geometry": {"type": "Polygon", "coordinates": [[[-122.28408, 37.82014], [-122.28453, 37.82024], [-122.28488, 37.81928], [-122.28399, 37.81908], [-122.28364, 37.82004], [-122.28408, 37.82014]]]}, "properties": {"APN_12": "005 044500601", "FULL_SITUS": "2619 MAGNOLIA ST OAKLAND 94607", "YEARBUILT": 1917, "TOTALCAP": 12, "VLOWCAP": 0, "LOWCAP": 0, "MODCAP": 0, "AMODCAP": 12, "ZNLABEL_1": "NA", "GPLANCODE": 10, "HESITETYPE": "Pipeline", "RHNACAT": "Above-Moderate-Income", "STATUS": "Not Available (Pipeline Project)", "BLDG_AREA_": 97937, "SHP_NO_UNI": 0, "SITUS_CITY": "OAKLAND", "SITUS_ZIP_": 94607, "USEDESCRIP": "Industrial Light/Manufacturing", "BASEZONE_1": "CIX-1A"}}, {"type": "Feature", "geometry": {"type": "Polygon", "coordinates": [[[-122.27477, 37.79704], [-122.2752, 37.79721], [-122.27536, 37.79696], [-122.27531, 37.79694], [-122.27531, 37.79694], [-122.27531, 37.79694], [-122.27531, 37.79694], [-122.27531, 37.79694], [-122.27531, 37.79694], [-122.27523, 37.79691], [-122.27523, 37.79691], [-122.27492, 37.79679], [-122.27492, 37.79679], [-122.27477, 37.79704]]]}, "properties": {"APN_12": "001 013901500", "FULL_SITUS": "419 4TH ST OAKLAND 94607", "YEARBUILT": 1920, "TOTALCAP": 69, "VLOWCAP": 0, "LOWCAP": 0, "MODCAP": 0, "AMODCAP": 69, "ZNLABEL_1": "NA", "GPLANCODE": 0, "HESITETYPE": "Potential Project", "RHNACAT": "Above-Moderate-Income", "STATUS": "Available (Pre-Approval Stage)", "BLDG_AREA_": 13900, "SHP_NO_UNI": 1, "SITUS_CITY": "OAKLAND", "SITUS_ZIP_": 94607, "USEDESCRIP": "Warehouse", "BASEZONE_1": "C-45"}}, {"type": "Feature", "geometry": {"type": "Polygon", "coordinates": [[[-122.26473, 37.7988], [-122.26498, 37.79889], [-122.26514, 37.79864], [-122.26467, 37.79846], [-122.26451, 37.79871], [-122.26473, 37.7988]]]}, "properties": {"APN_12": "002 008500400", "FULL_SITUS": "102 10TH ST OAKLAND 94607", "YEARBUILT": 1920, "TOTALCAP": 26, "VLOWCAP": 0, "LOWCAP": 0, "MODCAP": 26, "AMODCAP": 0, "ZNLABEL_1": "NA", "GPLANCODE": 8, "HESITETYPE": "RHNA5", "RHNACAT": "Moderate-Income", "STATUS": "Available", "BLDG_AREA_": 15000, "SHP_NO_UNI": 0, "SITUS_CITY": "OAKLAND", "SITUS_ZIP_": 94607, "USEDESCRIP": "Commercial repair garage", "BASEZONE_1": "D-LM-4"}}, {"type": "Feature", "geometry": {"type": "Polygon", "coordinates": [[[-122.27493, 37.80624], [-122.27493, 37.80624], [-122.275, 37.80627], [-122.275, 37.80627], [-122.275, 37.80627], [-122.27516, 37.80601], [-122.27509, 37.80598], [-122.27493, 37.80624], [-122.27493, 37.80624], [-122.27493, 37.80624]]]}, "properties": {"APN_12": "003 007102100", "FULL_SITUS": "616 14TH ST OAKLAND 94612", "YEARBUILT": 1920, "TOTALCAP": 5, "VLOWCAP": 5, "LOWCAP": 0, "MODCAP": 0, "AMODCAP": 0, "ZNLABEL_1": "NA", "GPLANCODE": 8, "HESITETYPE": "Potential Project", "RHNACAT": "Lower-Income", "STATUS": "Available (Pre-Approval Stage)", "BLDG_AREA_": 7407, "SHP_NO_UNI": 18, "SITUS_CITY": "OAKLAND", "SITUS_ZIP_": 94612, "USEDESCRIP": "Hotel", "BASEZONE_1": "CBD-X"}}, {"type": "Feature", "geometry": {"type": "Polygon", "coordinates": [[[-122.24852, 37.79218], [-122.24839, 37.79228], [-122.24851, 37.79238], [-122.2486, 37.79246], [-122.24878, 37.79262], [-122.24953, 37.79209], [-122.2493, 37.79189], [-122.2493, 37.79189], [-122.24894, 37.79214], [-122.24894, 37.79214], [-122.24894, 37.79214], [-122.24889, 37.7921], [-122.24878, 37.792], [-122.24865, 37.79209], [-122.24852, 37.79218]]]}, "properties": {"APN_12": "020 013901702", "FULL_SITUS": "1003 E 15TH ST OAKLAND 94606", "YEARBUILT": 1920, "TOTALCAP": 68, "VLOWCAP": 0, "LOWCAP": 67, "MODCAP": 0, "AMODCAP": 1, "ZNLABEL_1": "NA", "GPLANCODE": 0, "HESITETYPE": "Potential Project", "RHNACAT": "Lower-Income", "STATUS": "Available (Pre-Approval Stage)", "BLDG_AREA_": 26683, "SHP_NO_UNI": 0, "SITUS_CITY": "OAKLAND", "SITUS_ZIP_": 94606, "USEDESCRIP": "Church", "BASEZONE_1": "RM-2"}}, {"type": "Feature", "geometry": {"type": "Polygon", "coordinates": [[[-122.26883, 37.80431], [-122.26893, 37.80435], [-122.26901, 37.80423], [-122.26903, 37.80419], [-122.26857, 37.80401], [-122.26847, 37.80417], [-122.26874, 37.80427], [-122.26883, 37.80431]]]}, "properties": {"APN_12": "008 062403600", "FULL_SITUS": "1433 WEBSTER ST OAKLAND 94612", "YEARBUILT": 1920, "TOTALCAP": 0, "VLOWCAP": 0, "LOWCAP": 0, "MODCAP": 0, "AMODCAP": 0, "ZNLABEL_1": "NA", "GPLANCODE": 8, "HESITETYPE": "Pipeline", "RHNACAT": "Mixed-Income", "STATUS": "Not Available (Pipeline Project)", "BLDG_AREA_": 19216, "SHP_NO_UNI": 1, "SITUS_CITY": "OAKLAND", "SITUS_ZIP_": 94612, "USEDESCRIP": "One to five story office building", "BASEZONE_1": "CBD-C"}}, {"type": "Feature", "geometry": {"type": "Polygon", "coordinates": [[[-122.20174, 37.75514], [-122.20268, 37.75596], [-122.20272, 37.75594], [-122.20394, 37.75553], [-122.20393, 37.75551], [-122.20397, 37.75549], [-122.20401, 37.75548], [-122.20405, 37.75546], [-122.20409, 37.75544], [-122.20413, 37.75543], [-122.20417, 37.75541], [-122.20421, 37.75539], [-122.20425, 37.75537], [-122.20429, 37.75536], [-122.20433, 37.75534], [-122.20437, 37.75532], [-122.20441, 37.75529], [-122.20445, 37.75527], [-122.2045, 37.75524], [-122.20472, 37.75511], [-122.2047, 37.75509], [-122.2047, 37.75508], [-122.20471, 37.75508], [-122.20471, 37.75508], [-122.20471, 37.75508], [-122.20471, 37.75508], [-122.20472, 37.75507], [-122.20472, 37.75507], [-122.20472, 37.75507], [-122.20473, 37.75507], [-122.20473, 37.75506], [-122.20473, 37.75506], [-122.20473, 37.75506], [-122.20474, 37.75506], [-122.20474, 37.75505], [-122.20474, 37.75505], [-122.20474, 37.75505], [-122.20475, 37.75505], [-122.20475, 37.75504], [-122.20475, 37.75504], [-122.20475, 37.75504], [-122.20476, 37.75504], [-122.20476, 37.75503], [-122.20476, 37.75503], [-122.20476, 37.75503], [-122.20476, 37.75502], [-122.20477, 37.75502], [-122.20477, 37.75502], [-122.20477, 37.75502], [-122.20477, 37.75501], [-122.20477, 37.75501], [-122.20477, 37.75501], [-122.20478, 37.755], [-122.20478, 37.755], [-122.20478, 37.755], [-122.20478, 37.75499], [-122.20478, 37.75499], [-122.20478, 37.75499], [-122.20478, 37.75499], [-122.20478, 37.75498], [-122.20479, 37.75498], [-122.20479, 37.75498], [-122.20479, 37.75497], [-122.20479, 37.75497], [-122.20479, 37.75497], [-122.20479, 37.75496], [-122.20479, 37.75496], [-122.20479, 37.75496], [-122.20479, 37.75495], [-122.20479, 37.75495], [-122.20479, 37.75495], [-122.20479, 37.75494], [-122.20479, 37.75494], [-122.20479, 37.75494], [-122.20479, 37.75493], [-122.20479, 37.75493], [-122.20479, 37.75493], [-122.20479, 37.75492], [-122.20479, 37.75492], [-122.20479, 37.75492], [-122.20479, 37.75491], [-122.20479, 37.75491], [-122.20479, 37.75491], [-122.20479, 37.7549], [-122.20479, 37.7549], [-122.20479, 37.7549], [-122.20479, 37.7549], [-122.20478, 37.75489], [-122.20478, 37.75489], [-122.20478, 37.75489], [-122.20478, 37.75488], [-122.20478, 37.75488], [-122.20478, 37.75488], [-122.20478, 37.75487], [-122.20478, 37.75487], [-122.20477, 37.75487], [-122.20477, 37.75486], [-122.20477, 37.75486], [-122.20477, 37.75486], [-122.20477, 37.75486], [-122.20477, 37.75485], [-122.20476, 37.75485], [-122.20476, 37.75485], [-122.20476, 37.75484], [-122.20476, 37.75484], [-122.20476, 37.75484], [-122.20475, 37.75484], [-122.20475, 37.75483], [-122.20475, 37.75483], [-122.20475, 37.75483], [-122.20474, 37.75482], [-122.20474, 37.75482], [-122.20474, 37.75482], [-122.20474, 37.75482], [-122.20473, 37.75481], [-122.20473, 37.75481], [-122.20473, 37.75481], [-122.20472, 37.75481], [-122.20472, 37.75481], [-122.20472, 37.7548], [-122.20471, 37.7548], [-122.2046, 37.75472], [-122.20408, 37.75482], [-122.20381, 37.75483], [-122.2035, 37.75483], [-122.20329, 37.75492], [-122.20264, 37.75509], [-122.20222, 37.75508], [-122.20207, 37.75514], [-122.20174, 37.75514]]]}, "properties": {"APN_12": "041 390100400", "FULL_SITUS": "796 66TH AVE OAKLAND 94621", "YEARBUILT": 1920, "TOTALCAP": 296, "VLOWCAP": 0, "LOWCAP": 296, "MODCAP": 0, "AMODCAP": 0, "ZNLABEL_1": "NA", "GPLANCODE": 0, "HESITETYPE": "Other Opportunity", "RHNACAT": "Lower-Income", "STATUS": "Available", "BLDG_AREA_": 6980, "SHP_NO_UNI": 1, "SITUS_CITY": "OAKLAND", "SITUS_ZIP_": 94621, "USEDESCRIP": "Exempt Public Agency", "BASEZONE_1": "CC-2"}}, {"type": "Feature", "geometry": {"type": "Polygon", "coordinates": [[[-122.27877, 37.8029], [-122.27908, 37.80302], [-122.27922, 37.80256], [-122.27925, 37.80248], [-122.27908, 37.80241], [-122.27892, 37.80266], [-122.27877, 37.8029]]]}, "properties": {"APN_12": "001 021704800", "FULL_SITUS": "685 9TH ST OAKLAND 94607", "YEARBUILT": 1921, "TOTALCAP": 117, "VLOWCAP": 0, "LOWCAP": 0, "MODCAP": 35, "AMODCAP": 82, "ZNLABEL_1": "NA", "GPLANCODE": 8, "HESITETYPE": "Pipeline", "RHNACAT": "Mixed-Income", "STATUS": "Not Available (Pipeline Project)", "BLDG_AREA_": 10000, "SHP_NO_UNI": 0, "SITUS_CITY": "OAKLAND", "SITUS_ZIP_": 94607, "USEDESCRIP": "Industrial Light/Manufacturing", "BASEZONE_1": "CBD-R"}}, {"type": "Feature", "geometry": {"type": "Polygon", "coordinates": [[[-122.235, 37.78219], [-122.23516, 37.78229], [-122.23531, 37.78214], [-122.23509, 37.78201], [-122.2349, 37.78189], [-122.23475, 37.78204], [-122.23489, 37.78213], [-122.235, 37.78219]]]}, "properties": {"APN_12": "020 010400800", "FULL_SITUS": "1218 MILLER AVE OAKLAND 94601", "YEARBUILT": 1922, "TOTALCAP": 4, "VLOWCAP": 0, "LOWCAP": 0, "MODCAP": 0, "AMODCAP": 4, "ZNLABEL_1": "NA", "GPLANCODE": 0, "HESITETYPE": "Pipeline", "RHNACAT": "Above-Moderate-Income", "STATUS": "Not Available (Pipeline Project)", "BLDG_AREA_": 18560, "SHP_NO_UNI": 11, "SITUS_CITY": "OAKLAND", "SITUS_ZIP_": 94601, "USEDESCRIP": "Industrial Light/Manufacturing", "BASEZONE_1": "CIX-2"}}, {"type": "Feature", "geometry": {"type": "Polygon", "coordinates": [[[-122.27666, 37.81067], [-122.27636, 37.81055], [-122.27605, 37.81105], [-122.27651, 37.81123], [-122.27667, 37.81098], [-122.2766, 37.81096], [-122.27651, 37.81092], [-122.27666, 37.81067]]]}, "properties": {"APN_12": "003 004700901", "FULL_SITUS": "1925 BRUSH ST OAKLAND 94612", "YEARBUILT": 1922, "TOTALCAP": 18, "VLOWCAP": 0, "LOWCAP": 0, "MODCAP": 0, "AMODCAP": 18, "ZNLABEL_1": "NA", "GPLANCODE": 3, "HESITETYPE": "Pipeline", "RHNACAT": "Above-Moderate-Income", "STATUS": "Not Available (Pipeline Project)", "BLDG_AREA_": 11400, "SHP_NO_UNI": 1, "SITUS_CITY": "OAKLAND", "SITUS_ZIP_": 94612, "USEDESCRIP": "One to five story office building", "BASEZONE_1": "RM-4"}}, {"type": "Feature", "geometry": {"type": "Polygon", "coordinates": [[[-122.27711, 37.80108], [-122.27722, 37.80113], [-122.27726, 37.80107], [-122.2773, 37.801], [-122.27738, 37.80088], [-122.27715, 37.80079], [-122.27699, 37.80104], [-122.27711, 37.80108]]]}, "properties": {"APN_12": "001 020901500", "FULL_SITUS": "578 7TH ST OAKLAND 94607", "YEARBUILT": 1923, "TOTALCAP": 57, "VLOWCAP": 0, "LOWCAP": 0, "MODCAP": 16, "AMODCAP": 41, "ZNLABEL_1": "NA", "GPLANCODE": 8, "HESITETYPE": "Pipeline", "RHNACAT": "Mixed-Income", "STATUS": "Not Available (Pipeline Project)", "BLDG_AREA_": 5625, "SHP_NO_UNI": 0, "SITUS_CITY": "OAKLAND", "SITUS_ZIP_": 94607, "USEDESCRIP": "Single-tenant Retail Store", "BASEZONE_1": "CBD-X"}}, {"type": "Feature", "geometry": {"type": "Polygon", "coordinates": [[[-122.26281, 37.82875], [-122.26315, 37.8288], [-122.26322, 37.82853], [-122.26288, 37.82848], [-122.26281, 37.82875]]]}, "properties": {"APN_12": "012 097200100", "FULL_SITUS": "469 40TH ST OAKLAND 94609", "YEARBUILT": 1923, "TOTALCAP": 32, "VLOWCAP": 4, "LOWCAP": 0, "MODCAP": 0, "AMODCAP": 28, "ZNLABEL_1": "NA", "GPLANCODE": 4, "HESITETYPE": "Potential Project", "RHNACAT": "Mixed-Income", "STATUS": "Available (Pre-Approval Stage)", "BLDG_AREA_": 5928, "SHP_NO_UNI": 8, "SITUS_CITY": "OAKLAND", "SITUS_ZIP_": 94609, "USEDESCRIP": "Multiple residential building of 5 or more units.", "BASEZONE_1": "CC-2"}}, {"type": "Feature", "geometry": {"type": "Polygon", "coordinates": [[[-122.27734, 37.82561], [-122.2774, 37.82563], [-122.27743, 37.82555], [-122.27754, 37.82526], [-122.27729, 37.8252], [-122.27715, 37.82557], [-122.27734, 37.82561]]]}, "properties": {"APN_12": "009 074001400", "FULL_SITUS": "990 34TH ST OAKLAND 94608", "YEARBUILT": 1924, "TOTALCAP": 2, "VLOWCAP": 0, "LOWCAP": 0, "MODCAP": 0, "AMODCAP": 2, "ZNLABEL_1": "NA", "GPLANCODE": 0, "HESITETYPE": "Potential Project", "RHNACAT": "Above-Moderate-Income", "STATUS": "Available (Pre-Approval Stage)", "BLDG_AREA_": 4072, "SHP_NO_UNI": 4, "SITUS_CITY": "OAKLAND", "SITUS_ZIP_": 94608, "USEDESCRIP": "Four living units; e.g. fourplex or triplex w/SFR", "BASEZONE_1": "RM-2"}}, {"type": "Feature", "geometry": {"type": "Polygon", "coordinates": [[[-122.27419, 37.81114], [-122.2745, 37.81064], [-122.27357, 37.8103], [-122.27344, 37.8105], [-122.2737, 37.81131], [-122.27419, 37.81114]]]}, "properties": {"APN_12": "003 003900300", "FULL_SITUS": "2103 SAN PABLO AVE OAKLAND 94612", "YEARBUILT": 1924, "TOTALCAP": 500, "VLOWCAP": 0, "LOWCAP": 120, "MODCAP": 10, "AMODCAP": 370, "ZNLABEL_1": "NA", "GPLANCODE": 8, "HESITETYPE": "RHNA5", "RHNACAT": "Mixed-Income", "STATUS": "Available", "BLDG_AREA_": 31339, "SHP_NO_UNI": 0, "SITUS_CITY": "OAKLAND", "SITUS_ZIP_": 94612, "USEDESCRIP": "Terminals, trucking and distribution", "BASEZONE_1": "CBD-X"}}, {"type": "Feature", "geometry": {"type": "Polygon", "coordinates": [[[-122.26299, 37.83262], [-122.263, 37.83272], [-122.26333, 37.8327], [-122.26336, 37.83259], [-122.26299, 37.83262]]]}, "properties": {"APN_12": "013 109902501", "FULL_SITUS": "4432 TELEGRAPH AVE OAKLAND 94609", "YEARBUILT": 1925, "TOTALCAP": 4, "VLOWCAP": 0, "LOWCAP": 4, "MODCAP": 0, "AMODCAP": 0, "ZNLABEL_1": " ", "GPLANCODE": 5, "HESITETYPE": "Other Opportunity", "RHNACAT": "Lower-Income", "STATUS": "Available", "BLDG_AREA_": 11375, "SHP_NO_UNI": 0, "SITUS_CITY": "OAKLAND", "SITUS_ZIP_": 94609, "USEDESCRIP": "Single-tenant Retail Store", "BASEZONE_1": "CN-2"}}, {"type": "Feature", "geometry": {"type": "MultiPolygon", "coordinates": [[[[-122.23684, 37.7833], [-122.23684, 37.7833], [-122.23673, 37.78341], [-122.23653, 37.78362], [-122.23653, 37.78363], [-122.23667, 37.78371], [-122.23698, 37.78338], [-122.23691, 37.78333], [-122.23685, 37.7833], [-122.23684, 37.7833], [-122.23684, 37.7833]]], [[[-122.23643, 37.78357], [-122.23649, 37.7836], [-122.23643, 37.78357], [-122.23643, 37.78357]]]]}, "properties": {"APN_12": "020 010600500", "FULL_SITUS": "2257 INTERNATIONAL BLVD OAKLAND 94606", "YEARBUILT": 1926, "TOTALCAP": 0, "VLOWCAP": 0, "LOWCAP": 0, "MODCAP": 0, "AMODCAP": 0, "ZNLABEL_1": "NA", "GPLANCODE": 0, "HESITETYPE": "Pipeline", "RHNACAT": "Lower-Income", "STATUS": "Not Available (Pipeline Project)", "BLDG_AREA_": 7440, "SHP_NO_UNI": 0, "SITUS_CITY": "OAKLAND", "SITUS_ZIP_": 94606, "USEDESCRIP": "Misc. industrial (improved); no other ind code", "BASEZONE_1": "CN-3"}}, {"type": "Feature", "geometry": {"type": "Polygon", "coordinates": [[[-122.27149, 37.82887], [-122.27189, 37.82893], [-122.27194, 37.82872], [-122.27153, 37.82869], [-122.27149, 37.82887]]]}, "properties": {"APN_12": "012 096001700", "FULL_SITUS": "3855 WEST ST OAKLAND 94608", "YEARBUILT": 1926, "TOTALCAP": 6, "VLOWCAP": 0, "LOWCAP": 0, "MODCAP": 0, "AMODCAP": 6, "ZNLABEL_1": "NA", "GPLANCODE": 3, "HESITETYPE": "Pipeline", "RHNACAT": "Above-Moderate-Income", "STATUS": "Not Available (Pipeline Project)", "BLDG_AREA_": 5077, "SHP_NO_UNI": 0, "SITUS_CITY": "OAKLAND", "SITUS_ZIP_": 94608, "USEDESCRIP": "Warehouse", "BASEZONE_1": "RM-4"}}, {"type": "Feature", "geometry": {"type": "Polygon", "coordinates": [[[-122.23536, 37.78389], [-122.23509, 37.78373], [-122.23498, 37.78384], [-122.23526, 37.784], [-122.23536, 37.78389]]]}, "properties": {"APN_12": "020 015301501", "FULL_SITUS": "1440 23RD AVE OAKLAND 94606", "YEARBUILT": 1928, "TOTALCAP": 9, "VLOWCAP": 0, "LOWCAP": 1, "MODCAP": 0, "AMODCAP": 8, "ZNLABEL_1": "NA", "GPLANCODE": 5, "HESITETYPE": "Pipeline", "RHNACAT": "Mixed-Income", "STATUS": "Not Available (Pipeline Project)", "BLDG_AREA_": 5884, "SHP_NO_UNI": 0, "SITUS_CITY": "OAKLAND", "SITUS_ZIP_": 94606, "USEDESCRIP": "Store/Office with Apts/Lofts", "BASEZONE_1": "CN-3"}}, {"type": "Feature", "geometry": {"type": "Polygon", "coordinates": [[[-122.26084, 37.81698], [-122.26111, 37.81702], [-122.26117, 37.81676], [-122.26119, 37.81668], [-122.26121, 37.81659], [-122.26122, 37.81658], [-122.2613, 37.81648], [-122.26138, 37.8164], [-122.26143, 37.81633], [-122.26126, 37.81622], [-122.26141, 37.81605], [-122.26135, 37.81601], [-122.26131, 37.81606], [-122.26112, 37.81594], [-122.261, 37.81606], [-122.26069, 37.81637], [-122.26066, 37.81638], [-122.26066, 37.81638], [-122.26066, 37.81639], [-122.26066, 37.8164], [-122.26067, 37.8164], [-122.26067, 37.81641], [-122.26067, 37.81642], [-122.26067, 37.81643], [-122.26067, 37.81644], [-122.26067, 37.81644], [-122.26067, 37.81645], [-122.26068, 37.81646], [-122.26068, 37.81647], [-122.26068, 37.81647], [-122.26068, 37.81648], [-122.26068, 37.81649], [-122.26068, 37.8165], [-122.26068, 37.8165], [-122.26068, 37.81651], [-122.26068, 37.81652], [-122.26068, 37.81653], [-122.26068, 37.81653], [-122.26067, 37.81654], [-122.26067, 37.81655], [-122.26067, 37.81656], [-122.26067, 37.81656], [-122.26067, 37.81657], [-122.26067, 37.81658], [-122.26067, 37.81659], [-122.26066, 37.81659], [-122.26066, 37.8166], [-122.26066, 37.81661], [-122.26066, 37.81662], [-122.26065, 37.81662], [-122.26065, 37.81663], [-122.26065, 37.81664], [-122.26064, 37.81665], [-122.26064, 37.81665], [-122.26064, 37.81666], [-122.26063, 37.81667], [-122.26063, 37.81667], [-122.26063, 37.81668], [-122.26052, 37.81687], [-122.26051, 37.81687], [-122.26051, 37.81687], [-122.26051, 37.81687], [-122.26051, 37.81687], [-122.26051, 37.81687], [-122.26051, 37.81688], [-122.26051, 37.81688], [-122.26051, 37.81688], [-122.26051, 37.81688], [-122.26051, 37.81688], [-122.26051, 37.81688], [-122.26051, 37.81688], [-122.26051, 37.81688], [-122.26051, 37.81689], [-122.26051, 37.81689], [-122.26051, 37.81689], [-122.26051, 37.81689], [-122.26051, 37.81689], [-122.26051, 37.81689], [-122.26051, 37.81689], [-122.26051, 37.81689], [-122.26051, 37.8169], [-122.26051, 37.8169], [-122.26051, 37.8169], [-122.26051, 37.8169], [-122.26051, 37.8169], [-122.26051, 37.8169], [-122.26051, 37.8169], [-122.26051, 37.81691], [-122.26051, 37.81691], [-122.26051, 37.81691], [-122.26051, 37.81691], [-122.26051, 37.81691], [-122.26051, 37.81691], [-122.26051, 37.81691], [-122.26051, 37.81691], [-122.26051, 37.81692], [-122.26051, 37.81692], [-122.26051, 37.81692], [-122.26051, 37.81692], [-122.26051, 37.81692], [-122.26051, 37.81692], [-122.26051, 37.81692], [-122.26051, 37.81693], [-122.26051, 37.81693], [-122.26051, 37.81693], [-122.26051, 37.81693], [-122.26051, 37.81693], [-122.26051, 37.81693], [-122.26052, 37.81693], [-122.26052, 37.81693], [-122.26052, 37.81694], [-122.26052, 37.81694], [-122.26052, 37.81694], [-122.26052, 37.81694], [-122.26052, 37.81694], [-122.26052, 37.81694], [-122.26052, 37.81694], [-122.26052, 37.81694], [-122.26052, 37.81694], [-122.26052, 37.81695], [-122.26053, 37.81695], [-122.26053, 37.81695], [-122.26053, 37.81695], [-122.26053, 37.81695], [-122.26053, 37.81695], [-122.26053, 37.81695], [-122.26053, 37.81695], [-122.26053, 37.81695], [-122.26053, 37.81695], [-122.26054, 37.81696], [-122.26054, 37.81696], [-122.26054, 37.81696], [-122.26054, 37.81696], [-122.26054, 37.81696], [-122.26054, 37.81696], [-122.26054, 37.81696], [-122.26055, 37.81696], [-122.26055, 37.81696], [-122.26055, 37.81696], [-122.26055, 37.81696], [-122.26055, 37.81696], [-122.26055, 37.81697], [-122.26055, 37.81697], [-122.26055, 37.81697], [-122.26056, 37.81697], [-122.26056, 37.81697], [-122.26056, 37.81697], [-122.26056, 37.81697], [-122.26056, 37.81697], [-122.26056, 37.81697], [-122.26057, 37.81697], [-122.26057, 37.81697], [-122.26057, 37.81697], [-122.26057, 37.81697], [-122.26057, 37.81697], [-122.26057, 37.81697], [-122.26057, 37.81697], [-122.26058, 37.81697], [-122.26058, 37.81697], [-122.26058, 37.81697], [-122.26058, 37.81698], [-122.26058, 37.81698], [-122.26058, 37.81698], [-122.26059, 37.81698], [-122.26059, 37.81698], [-122.26059, 37.81698], [-122.26059, 37.81698], [-122.26059, 37.81698], [-122.26059, 37.81698], [-122.2606, 37.81698], [-122.2606, 37.81698], [-122.2606, 37.81698], [-122.2606, 37.81698], [-122.2606, 37.81698], [-122.26061, 37.81698], [-122.26061, 37.81698], [-122.26061, 37.81698], [-122.26061, 37.81698], [-122.26061, 37.81698], [-122.26061, 37.81698], [-122.26062, 37.81698], [-122.26062, 37.81698], [-122.26062, 37.81698], [-122.26062, 37.81698], [-122.26064, 37.81697], [-122.26065, 37.81697], [-122.26066, 37.81697], [-122.26067, 37.81697], [-122.26068, 37.81697], [-122.26069, 37.81697], [-122.2607, 37.81697], [-122.26071, 37.81697], [-122.26072, 37.81697], [-122.26073, 37.81697], [-122.26074, 37.81697], [-122.26075, 37.81697], [-122.26076, 37.81697], [-122.26077, 37.81697], [-122.26078, 37.81697], [-122.26079, 37.81697], [-122.2608, 37.81697], [-122.26081, 37.81697], [-122.26081, 37.81697], [-122.26082, 37.81697], [-122.26083, 37.81698], [-122.26084, 37.81698]]]}, "properties": {"APN_12": "010 080001006", "FULL_SITUS": "111 FAIRMOUNT AVE OAKLAND 94611", "YEARBUILT": 1928, "TOTALCAP": 25, "VLOWCAP": 25, "LOWCAP": 0, "MODCAP": 0, "AMODCAP": 0, "ZNLABEL_1": "NA", "GPLANCODE": 3, "HESITETYPE": "Other Opportunity", "RHNACAT": "Lower-Income", "STATUS": "Available", "BLDG_AREA_": 29564, "SHP_NO_UNI": 0, "SITUS_CITY": "OAKLAND", "SITUS_ZIP_": 94611, "USEDESCRIP": "Church", "BASEZONE_1": "RM-3"}}, {"type": "Feature", "geometry": {"type": "Polygon", "coordinates": [[[-122.27906, 37.81503], [-122.27947, 37.81512], [-122.27947, 37.81512], [-122.27952, 37.81499], [-122.27952, 37.81499], [-122.27886, 37.81484], [-122.2787, 37.8148], [-122.27869, 37.8148], [-122.27864, 37.81493], [-122.27865, 37.81493], [-122.27906, 37.81503]]]}, "properties": {"APN_12": "005 043101902", "FULL_SITUS": "2220 MYRTLE ST OAKLAND 94607", "YEARBUILT": 1928, "TOTALCAP": 115, "VLOWCAP": 0, "LOWCAP": 0, "MODCAP": 0, "AMODCAP": 115, "ZNLABEL_1": "NA", "GPLANCODE": 6, "HESITETYPE": "Pipeline", "RHNACAT": "Above-Moderate-Income", "STATUS": "Not Available (Pipeline Project)", "BLDG_AREA_": 8650, "SHP_NO_UNI": 2, "SITUS_CITY": "OAKLAND", "SITUS_ZIP_": 94607, "USEDESCRIP": "Commercial repair garage", "BASEZONE_1": "CC-2"}}], "exceededTransferLimit": true, "properties": {"exceededTransferLimit": true}}