{"type": "FeatureCollection", "features": [{"type": "Feature", "geometry": {"type": "Polygon", "coordinates": [[[-122.29087, 37.80545], [-122.29204, 37.80572], [-122.29206, 37.80567], [-122.2921, 37.80554], [-122.29187, 37.80526], [-122.29176, 37.80516], [-122.29176, 37.80501], [-122.29152, 37.80471], [-122.29116, 37.80464], [-122.29087, 37.80545]]]}, "properties": {"APN_12": "004 010800700", "FULL_SITUS": "1300 7TH ST OAKLAND 94607", "YEARBUILT": 1985, "TOTALCAP": 376, "VLOWCAP": 0, "LOWCAP": 0, "MODCAP": 38, "AMODCAP": 338, "ZNLABEL_1": "NA", "GPLANCODE": 0, "HESITETYPE": "Potential Project", "STATUS": "Available (Pre-Approval Stage)", "BLDG_AREA_": 30200, "SHP_NO_UNI": 0, "USEDESCRIP": "Warehouse", "BASEZONE_1": "S-15W"}}, {"type": "Feature", "geometry": {"type": "Polygon", "coordinates": [[[-122.29054, 37.80419], [-122.29054, 37.80419], [-122.29054, 37.80419], [-122.29054, 37.80422], [-122.29111, 37.80434], [-122.29107, 37.8043], [-122.29107, 37.8043], [-122.29107, 37.8043], [-122.29106, 37.8043], [-122.29106, 37.8043], [-122.29106, 37.8043], [-122.29106, 37.8043], [-122.29106, 37.8043], [-122.29106, 37.8043], [-122.29106, 37.8043], [-122.29106, 37.8043], [-122.29106, 37.8043], [-122.29106, 37.8043], [-122.29106, 37.8043], [-122.29106, 37.8043], [-122.29106, 37.8043], [-122.29106, 37.8043], [-122.29106, 37.8043], [-122.29102, 37.80427], [-122.29102, 37.80427], [-122.29102, 37.80427], [-122.29101, 37.80426], [-122.29101, 37.80426], [-122.29101, 37.80426], [-122.29101, 37.80426], [-122.291, 37.80425], [-122.291, 37.80425], [-122.291, 37.80425], [-122.291, 37.80425], [-122.291, 37.80425], [-122.29099, 37.80424], [-122.29098, 37.80424], [-122.29097, 37.80423], [-122.29097, 37.80423], [-122.29097, 37.80423], [-122.29097, 37.80423], [-122.29097, 37.80423], [-122.29097, 37.80423], [-122.29097, 37.80423], [-122.29097, 37.80423], [-122.29097, 37.80423], [-122.29096, 37.80423], [-122.29096, 37.80423], [-122.29094, 37.80421], [-122.29094, 37.80421], [-122.29093, 37.8042], [-122.29093, 37.8042], [-122.29093, 37.8042], [-122.29093, 37.8042], [-122.29093, 37.8042], [-122.29093, 37.8042], [-122.29093, 37.8042], [-122.29093, 37.8042], [-122.29092, 37.8042], [-122.29092, 37.80419], [-122.29092, 37.80419], [-122.29092, 37.80419], [-122.29081, 37.80412], [-122.2907, 37.80405], [-122.2907, 37.80405], [-122.2907, 37.80405], [-122.2907, 37.80405], [-122.2907, 37.80405], [-122.2907, 37.80405], [-122.2907, 37.80405], [-122.2907, 37.80405], [-122.2907, 37.80404], [-122.2907, 37.80404], [-122.2907, 37.80404], [-122.29069, 37.80404], [-122.29069, 37.80404], [-122.29069, 37.80404], [-122.29069, 37.80404], [-122.29069, 37.80404], [-122.29066, 37.80402], [-122.29066, 37.80402], [-122.29066, 37.80402], [-122.29066, 37.80402], [-122.29066, 37.80402], [-122.29065, 37.80402], [-122.29065, 37.80402], [-122.29065, 37.80402], [-122.29064, 37.80401], [-122.29064, 37.80401], [-122.29063, 37.80403], [-122.29062, 37.80404], [-122.2906, 37.80406], [-122.2906, 37.80408], [-122.29059, 37.80408], [-122.29059, 37.80408], [-122.29059, 37.80409], [-122.29059, 37.8041], [-122.29058, 37.80411], [-122.29058, 37.80411], [-122.29058, 37.80411], [-122.29058, 37.80412], [-122.29058, 37.80412], [-122.29058, 37.80412], [-122.29058, 37.80412], [-122.29057, 37.80414], [-122.29056, 37.80416], [-122.29055, 37.80418], [-122.29054, 37.80419]]]}, "properties": {"APN_12": "004 005101802", "FULL_SITUS": "1255 7TH ST OAKLAND 94607", "YEARBUILT": 1965, "TOTALCAP": 0, "VLOWCAP": 0, "LOWCAP": 0, "MODCAP": 0, "AMODCAP": 0, "ZNLABEL_1": "NA", "GPLANCODE": 6, "HESITETYPE": "Pipeline", "STATUS": "Not Available (Pipeline Project)", "BLDG_AREA_": 3999, "SHP_NO_UNI": 0, "USEDESCRIP": "Warehouse", "BASEZONE_1": "S-15W"}}, {"type": "Feature", "geometry": {"type": "Polygon", "coordinates": [[[-122.29444, 37.8153], [-122.29564, 37.8159], [-122.29607, 37.81536], [-122.29487, 37.81476], [-122.29444, 37.8153]]]}, "properties": {"APN_12": "007 056300200", "FULL_SITUS": "1708 WOOD ST OAKLAND 94607", "YEARBUILT": 1940, "TOTALCAP": 54, "VLOWCAP": 0, "LOWCAP": 0, "MODCAP": 54, "AMODCAP": 0, "ZNLABEL_1": "NA", "GPLANCODE": 7, "HESITETYPE": "Other Opportunity", "STATUS": "Available", "BLDG_AREA_": 18096, "SHP_NO_UNI": 0, "USEDESCRIP": "Vacant apartment land, capable of 5 or more units", "BASEZONE_1": "HBX-2"}}]}