{"type": "FeatureCollection", "features": [{"type": "Feature", "geometry": {"type": "Polygon", "coordinates": [[[-122.29222, 37.80364], [-122.29257, 37.80378], [-122.29257, 37.80378], [-122.29263, 37.80361], [-122.29263, 37.80361], [-122.29261, 37.80361], [-122.2926, 37.80361], [-122.2926, 37.80361], [-122.2926, 37.80361], [-122.2926, 37.80361], [-122.29259, 37.80361], [-122.29259, 37.80361], [-122.29258, 37.80361], [-122.29257, 37.80361], [-122.29257, 37.80361], [-122.29255, 37.80361], [-122.29254, 37.80361], [-122.29254, 37.80361], [-122.29254, 37.80361], [-122.29254, 37.80361], [-122.29253, 37.80361], [-122.29253, 37.80361], [-122.29253, 37.80361], [-122.29253, 37.80361], [-122.29253, 37.80361], [-122.29253, 37.80361], [-122.29253, 37.80361], [-122.29252, 37.80361], [-122.29252, 37.80361], [-122.29252, 37.80361], [-122.29252, 37.80361], [-122.29252, 37.80361], [-122.29251, 37.80361], [-122.29251, 37.80361], [-122.29251, 37.80361], [-122.29251, 37.80361], [-122.2925, 37.80361], [-122.2925, 37.80361], [-122.2925, 37.80361], [-122.29248, 37.80361], [-122.29247, 37.80361], [-122.29246, 37.80361], [-122.29246, 37.80361], [-122.29246, 37.80361], [-122.29246, 37.80361], [-122.29246, 37.80361], [-122.29246, 37.80361], [-122.29245, 37.80361], [-122.29245, 37.80361], [-122.29245, 37.80361], [-122.29243, 37.80361], [-122.29241, 37.80361], [-122.29241, 37.80362], [-122.29241, 37.80362], [-122.29241, 37.80362], [-122.29241, 37.80362], [-122.29241, 37.80362], [-122.29241, 37.80362], [-122.2924, 37.80362], [-122.2924, 37.80362], [-122.2924, 37.80362], [-122.2924, 37.80362], [-122.2924, 37.80362], [-122.2924, 37.80362], [-122.2924, 37.80362], [-122.2924, 37.80362], [-122.2924, 37.80362], [-122.2924, 37.80362], [-122.2924, 37.80362], [-122.2924, 37.80362], [-122.2924, 37.80362], [-122.2924, 37.80362], [-122.29239, 37.80362], [-122.29239, 37.80362], [-122.29239, 37.80362], [-122.29239, 37.80362], [-122.29239, 37.80362], [-122.29239, 37.80362], [-122.29239, 37.80362], [-122.29239, 37.80362], [-122.29239, 37.80362], [-122.29239, 37.80362], [-122.29239, 37.80362], [-122.29239, 37.80362], [-122.29239, 37.80362], [-122.29239, 37.80362], [-122.29239, 37.80362], [-122.29238, 37.80362], [-122.29238, 37.80362], [-122.29238, 37.80362], [-122.29238, 37.80362], [-122.29238, 37.80362], [-122.29238, 37.80362], [-122.29238, 37.80362], [-122.29238, 37.80362], [-122.29238, 37.80362], [-122.29238, 37.80362], [-122.29238, 37.80362], [-122.29238, 37.80362], [-122.29238, 37.80362], [-122.29238, 37.80362], [-122.29238, 37.80362], [-122.29222, 37.80364], [-122.29222, 37.80364]]]}, "properties": {"APN_12": "004 004901000", "FULL_SITUS": "5TH ST OAKLAND 94607", "YEARBUILT": 0, "TOTALCAP": 1032, "VLOWCAP": 85, "LOWCAP": 0, "MODCAP": 0, "AMODCAP": 947, "ZNLABEL_1": "NA", "GPLANCODE": 6, "HESITETYPE": "Pipeline", "RHNACAT": "Mixed-Income", "STATUS": "Not Available (Pipeline Project)", "BLDG_AREA_": 0, "SHP_NO_UNI": 0, "SITUS_CITY": "OAKLAND", "SITUS_ZIP_": 94607, "USEDESCRIP": "Vacant apartment land, capable of 5 or more units", "BASEZONE_1": "S-15W"}}, {"type": "Feature", "geometry": {"type": "Polygon", "coordinates": [[[-122.2628, 37.79456], [-122.26304, 37.79474], [-122.26311, 37.7948], [-122.26317, 37.79485], [-122.26324, 37.7949], [-122.26332, 37.79495], [-122.26339, 37.795], [-122.26346, 37.79505], [-122.26354, 37.79509], [-122.26361, 37.79514], [-122.26369, 37.79518], [-122.26377, 37.79523], [-122.26385, 37.79527], [-122.26393, 37.79531], [-122.26401, 37.79535], [-122.26409, 37.79539], [-122.26417, 37.79543], [-122.26425, 37.79547], [-122.26434, 37.7955], [-122.26442, 37.79554], [-122.26451, 37.79557], [-122.26466, 37.79563], [-122.26514, 37.79486], [-122.26493, 37.79473], [-122.26422, 37.79442], [-122.26317, 37.79397], [-122.2628, 37.79456]]]}, "properties": {"APN_12": "018 044501202", "FULL_SITUS": "510 FALLON ST OAKLAND 94607", "YEARBUILT": 0, "TOTALCAP": 888, "VLOWCAP": 0, "LOWCAP": 266, "MODCAP": 178, "AMODCAP": 444, "ZNLABEL_1": "NA", "GPLANCODE": 8, "HESITETYPE": "Other Opportunity", "RHNACAT": "Mixed-Income", "STATUS": "Available", "BLDG_AREA_": 0, "SHP_NO_UNI": 0, "SITUS_CITY": "OAKLAND", "SITUS_ZIP_": 94607, "USEDESCRIP": "Exempt Public Agency", "BASEZONE_1": "D-LM-4"}}, {"type": "Feature", "geometry": {"type": "Polygon", "coordinates": [[[-122.2477, 37.8351], [-122.24791, 37.83531], [-122.24813, 37.83542], [-122.24835, 37.8355], [-122.24849, 37.8356], [-122.24874, 37.83569], [-122.24901, 37.83579], [-122.24908, 37.83567], [-122.24964, 37.83543], [-122.25013, 37.83505], [-122.25037, 37.83514], [-122.25037, 37.83515], [-122.2511, 37.83544], [-122.25108, 37.83547], [-122.25146, 37.83561], [-122.25151, 37.83552], [-122.25157, 37.83543], [-122.25162, 37.83533], [-122.25175, 37.83508], [-122.2518, 37.83498], [-122.25185, 37.83489], [-122.25191, 37.83479], [-122.25207, 37.83453], [-122.25208, 37.83451], [-122.25209, 37.83448], [-122.25209, 37.83446], [-122.25208, 37.83444], [-122.25207, 37.83441], [-122.25206, 37.83439], [-122.25204, 37.83437], [-122.25202, 37.83436], [-122.25199, 37.83435], [-122.25077, 37.83387], [-122.25068, 37.83383], [-122.25059, 37.83378], [-122.25051, 37.83374], [-122.25042, 37.83368], [-122.25035, 37.83363], [-122.25027, 37.83357], [-122.2502, 37.83351], [-122.25014, 37.83344], [-122.25008, 37.83337], [-122.25003, 37.8333], [-122.24998, 37.83322], [-122.24988, 37.83305], [-122.24971, 37.83304], [-122.24975, 37.8331], [-122.24958, 37.83336], [-122.24935, 37.83361], [-122.24919, 37.83379], [-122.24898, 37.83394], [-122.24868, 37.83409], [-122.24836, 37.83421], [-122.24836, 37.83421], [-122.24803, 37.8343], [-122.24778, 37.83457], [-122.24766, 37.83467], [-122.24757, 37.83484], [-122.24757, 37.83492], [-122.2477, 37.8351]]]}, "properties": {"APN_12": "014 124200600", "FULL_SITUS": "5050 BROADWAY OAKLAND 94611", "YEARBUILT": 2016, "TOTALCAP": 788, "VLOWCAP": 0, "LOWCAP": 189, "MODCAP": 16, "AMODCAP": 583, "ZNLABEL_1": "NA", "GPLANCODE": 0, "HESITETYPE": "Other Opportunity", "RHNACAT": " ", "STATUS": "Available", "BLDG_AREA_": 111710, "SHP_NO_UNI": 0, "SITUS_CITY": "OAKLAND", "SITUS_ZIP_": 94611, "USEDESCRIP": "Shopping Center-NBHD/Grocery or Retail anchor", "BASEZONE_1": "CC-2"}}, {"type": "Feature", "geometry": {"type": "Polygon", "coordinates": [[[-122.29381, 37.80493], [-122.29488, 37.80517], [-122.29523, 37.80419], [-122.29416, 37.80395], [-122.29381, 37.80493]]]}, "properties": {"APN_12": "004 007100300", "FULL_SITUS": "7TH ST OAKLAND 94607", "YEARBUILT": 0, "TOTALCAP": 762, "VLOWCAP": 90, "LOWCAP": 148, "MODCAP": 2, "AMODCAP": 522, "ZNLABEL_1": "NA", "GPLANCODE": 6, "HESITETYPE": "Pipeline", "RHNACAT": "Mixed-Income", "STATUS": "Not Available (Pipeline Project)", "BLDG_AREA_": 0, "SHP_NO_UNI": 0, "SITUS_CITY": "OAKLAND", "SITUS_ZIP_": 94607, "USEDESCRIP": "Exempt Public Agency", "BASEZONE_1": "S-15W"}}, {"type": "Feature", "geometry": {"type": "Polygon", "coordinates": [[[-122.276, 37.79776], [-122.27561, 37.79761], [-122.2753, 37.7981], [-122.27569, 37.79826], [-122.276, 37.79776]]]}, "properties": {"APN_12": "001 013700101", "FULL_SITUS": "401 BROADWAY OAKLAND 94607", "YEARBUILT": 0, "TOTALCAP": 600, "VLOWCAP": 0, "LOWCAP": 600, "MODCAP": 0, "AMODCAP": 0, "ZNLABEL_1": "NA", "GPLANCODE": 0, "HESITETYPE": "Other Opportunity", "RHNACAT": "Lower-Income", "STATUS": "Available", "BLDG_AREA_": 0, "SHP_NO_UNI": 0, "SITUS_CITY": "OAKLAND", "SITUS_ZIP_": 94607, "USEDESCRIP": "Exempt Public Agency", "BASEZONE_1": "C-45"}}, {"type": "Feature", "geometry": {"type": "Polygon", "coordinates": [[[-122.29207, 37.80325], [-122.2921, 37.80344], [-122.29227, 37.80341], [-122.29231, 37.80341], [-122.29233, 37.8034], [-122.29236, 37.8034], [-122.29238, 37.8034], [-122.29241, 37.8034], [-122.29243, 37.8034], [-122.29245, 37.80339], [-122.29248, 37.80339], [-122.2925, 37.80339], [-122.29253, 37.80339], [-122.29255, 37.80339], [-122.29258, 37.80339], [-122.2926, 37.80339], [-122.29262, 37.8034], [-122.29265, 37.8034], [-122.29267, 37.8034], [-122.2927, 37.8034], [-122.29272, 37.8034], [-122.29274, 37.80341], [-122.29277, 37.80341], [-122.29279, 37.80341], [-122.29282, 37.80342], [-122.29284, 37.80342], [-122.29286, 37.80343], [-122.29289, 37.80343], [-122.29291, 37.80344], [-122.29404, 37.80369], [-122.29418, 37.8033], [-122.29428, 37.80332], [-122.29456, 37.80255], [-122.29392, 37.80263], [-122.29305, 37.80279], [-122.29299, 37.8028], [-122.29292, 37.80281], [-122.29285, 37.80283], [-122.29278, 37.80284], [-122.29272, 37.80286], [-122.29265, 37.80287], [-122.29259, 37.80289], [-122.29252, 37.80291], [-122.29245, 37.80293], [-122.29227, 37.80303], [-122.2921, 37.80325], [-122.29207, 37.80325]]]}, "properties": {"APN_12": "018 039001007", "FULL_SITUS": "5TH ST OAKLAND 94607", "YEARBUILT": 0, "TOTALCAP": 600, "VLOWCAP": 0, "LOWCAP": 0, "MODCAP": 0, "AMODCAP": 600, "ZNLABEL_1": "NA", "GPLANCODE": 6, "HESITETYPE": "Potential Project", "RHNACAT": "Above-Moderate-Income", "STATUS": "Available (Pre-Approval Stage)", "BLDG_AREA_": 0, "SHP_NO_UNI": 0, "SITUS_CITY": "OAKLAND", "SITUS_ZIP_": 94607, "USEDESCRIP": "Warehouse", "BASEZONE_1": "S-15W"}}, {"type": "Feature", "geometry": {"type": "Polygon", "coordinates": [[[-122.1984, 37.74822], [-122.1984, 37.74834], [-122.20063, 37.74692], [-122.20063, 37.74683], [-122.19975, 37.74622], [-122.19954, 37.74607], [-122.19942, 37.74598], [-122.1993, 37.74589], [-122.19918, 37.74579], [-122.19856, 37.74528], [-122.19844, 37.74527], [-122.19802, 37.74522], [-122.19834, 37.74567], [-122.19836, 37.74571], [-122.19837, 37.74584], [-122.1984, 37.74822]]]}, "properties": {"APN_12": "042 432800124", "FULL_SITUS": "8000 S COLISEUM WAY OAKLAND 94621", "YEARBUILT": 1980, "TOTALCAP": 576, "VLOWCAP": 0, "LOWCAP": 173, "MODCAP": 115, "AMODCAP": 288, "ZNLABEL_1": "NA", "GPLANCODE": 9, "HESITETYPE": "Other Opportunity", "RHNACAT": "Mixed-Income", "STATUS": "Available", "BLDG_AREA_": 11281, "SHP_NO_UNI": 2, "SITUS_CITY": "OAKLAND", "SITUS_ZIP_": 94621, "USEDESCRIP": "Exempt Public Agency", "BASEZONE_1": "CC-2"}}, {"type": "Feature", "geometry": {"type": "Polygon", "coordinates": [[[-122.26497, 37.79748], [-122.26528, 37.79699], [-122.26435, 37.79662], [-122.26404, 37.79712], [-122.26497, 37.79748]]]}, "properties": {"APN_12": "001 016900100", "FULL_SITUS": "51 9TH ST OAKLAND 94607", "YEARBUILT": 0, "TOTALCAP": 557, "VLOWCAP": 123, "LOWCAP": 74, "MODCAP": 36, "AMODCAP": 324, "ZNLABEL_1": "NA", "GPLANCODE": 8, "HESITETYPE": "Pipeline", "RHNACAT": "Mixed-Income", "STATUS": "Not Available (Pipeline Project)", "BLDG_AREA_": 0, "SHP_NO_UNI": 0, "SITUS_CITY": "OAKLAND", "SITUS_ZIP_": 94607, "USEDESCRIP": "Exempt Public Agency", "BASEZONE_1": "D-LM-2"}}, {"type": "Feature", "geometry": {"type": "Polygon", "coordinates": [[[-122.1799, 37.76916], [-122.17993, 37.76918], [-122.17996, 37.76921], [-122.17999, 37.76924], [-122.18002, 37.76927], [-122.18005, 37.76929], [-122.18008, 37.76932], [-122.18011, 37.76934], [-122.18015, 37.76937], [-122.18019, 37.7694], [-122.18039, 37.76927], [-122.18039, 37.76927], [-122.18039, 37.76927], [-122.1804, 37.76927], [-122.1804, 37.76927], [-122.1804, 37.76926], [-122.1804, 37.76926], [-122.1804, 37.76926], [-122.1804, 37.76926], [-122.1804, 37.76926], [-122.1804, 37.76926], [-122.1804, 37.76926], [-122.1804, 37.76926], [-122.1804, 37.76926], [-122.18041, 37.76926], [-122.18041, 37.76926], [-122.18041, 37.76925], [-122.18041, 37.76925], [-122.18041, 37.76925], [-122.18041, 37.76925], [-122.18041, 37.76925], [-122.18041, 37.76925], [-122.18041, 37.76925], [-122.18041, 37.76925], [-122.18041, 37.76925], [-122.18041, 37.76924], [-122.18041, 37.76924], [-122.18041, 37.76924], [-122.18041, 37.76924], [-122.18041, 37.76924], [-122.18041, 37.76924], [-122.18041, 37.76924], [-122.18041, 37.76924], [-122.18041, 37.76923], [-122.18041, 37.76923], [-122.18041, 37.76923], [-122.18041, 37.76923], [-122.18041, 37.76923], [-122.18041, 37.76923], [-122.18041, 37.76923], [-122.18041, 37.76923], [-122.18041, 37.76922], [-122.18041, 37.76922], [-122.18041, 37.76922], [-122.18041, 37.76922], [-122.18041, 37.76922], [-122.18041, 37.76922], [-122.18041, 37.76922], [-122.18041, 37.76922], [-122.1804, 37.76922], [-122.1804, 37.76921], [-122.1804, 37.76921], [-122.1804, 37.76921], [-122.1804, 37.76921], [-122.1804, 37.76921], [-122.1804, 37.76921], [-122.18037, 37.7692], [-122.18035, 37.76918], [-122.18002, 37.76886], [-122.18002, 37.76886], [-122.18002, 37.76885], [-122.18001, 37.76885], [-122.18001, 37.76885], [-122.18001, 37.76885], [-122.18001, 37.76885], [-122.18001, 37.76885], [-122.18001, 37.76885], [-122.18001, 37.76885], [-122.18001, 37.76885], [-122.18001, 37.76885], [-122.18, 37.76885], [-122.18, 37.76885], [-122.18, 37.76885], [-122.18, 37.76885], [-122.18, 37.76884], [-122.18, 37.76884], [-122.18, 37.76884], [-122.17999, 37.76884], [-122.17999, 37.76884], [-122.17999, 37.76884], [-122.17999, 37.76884], [-122.17999, 37.76884], [-122.17998, 37.76884], [-122.17998, 37.76884], [-122.17998, 37.76884], [-122.17998, 37.76884], [-122.17998, 37.76884], [-122.17998, 37.76884], [-122.17997, 37.76884], [-122.17997, 37.76884], [-122.17997, 37.76884], [-122.17997, 37.76884], [-122.17997, 37.76884], [-122.17997, 37.76884], [-122.17997, 37.76884], [-122.17996, 37.76884], [-122.17996, 37.76884], [-122.17996, 37.76884], [-122.17996, 37.76884], [-122.17996, 37.76884], [-122.17996, 37.76884], [-122.17996, 37.76884], [-122.17995, 37.76884], [-122.17995, 37.76885], [-122.17995, 37.76885], [-122.17995, 37.76885], [-122.17995, 37.76885], [-122.17995, 37.76885], [-122.17995, 37.76885], [-122.17995, 37.76885], [-122.17994, 37.76885], [-122.17973, 37.76899], [-122.1799, 37.76916]]]}, "properties": {"APN_12": "039 327100505", "FULL_SITUS": "6710 BANCROFT AVE OAKLAND 94605", "YEARBUILT": 0, "TOTALCAP": 539, "VLOWCAP": 0, "LOWCAP": 539, "MODCAP": 0, "AMODCAP": 0, "ZNLABEL_1": "NA", "GPLANCODE": 6, "HESITETYPE": "Potential Project", "RHNACAT": "Lower-Income", "STATUS": "Available (Pre-Approval Stage)", "BLDG_AREA_": 0, "SHP_NO_UNI": 0, "SITUS_CITY": "OAKLAND", "SITUS_ZIP_": 94605, "USEDESCRIP": "Vacant commercial land (may include misc. imps)", "BASEZONE_1": "CC-2"}}, {"type": "Feature", "geometry": {"type": "Polygon", "coordinates": [[[-122.25037, 37.83515], [-122.24963, 37.83634], [-122.25074, 37.83678], [-122.25147, 37.83562], [-122.25146, 37.83561], [-122.25108, 37.83547], [-122.2511, 37.83544], [-122.25037, 37.83515]]]}, "properties": {"APN_12": "014 124300101", "FULL_SITUS": "5200 BROADWAY OAKLAND 94618", "YEARBUILT": 0, "TOTALCAP": 510, "VLOWCAP": 0, "LOWCAP": 0, "MODCAP": 51, "AMODCAP": 459, "ZNLABEL_1": "NA", "GPLANCODE": 0, "HESITETYPE": "Potential Project", "RHNACAT": "Mixed-Income", "STATUS": "Available (Pre-Approval Stage)", "BLDG_AREA_": 0, "SHP_NO_UNI": 0, "SITUS_CITY": "OAKLAND", "SITUS_ZIP_": 94618, "USEDESCRIP": "School", "BASEZONE_1": "CC-2"}}, {"type": "Feature", "geometry": {"type": "Polygon", "coordinates": [[[-122.27419, 37.81114], [-122.2745, 37.81064], [-122.27357, 37.8103], [-122.27344, 37.8105], [-122.2737, 37.81131], [-122.27419, 37.81114]]]}, "properties": {"APN_12": "003 003900300", "FULL_SITUS": "2103 SAN PABLO AVE OAKLAND 94612", "YEARBUILT": 1924, "TOTALCAP": 500, "VLOWCAP": 0, "LOWCAP": 120, "MODCAP": 10, "AMODCAP": 370, "ZNLABEL_1": "NA", "GPLANCODE": 8, "HESITETYPE": "RHNA5", "RHNACAT": "Mixed-Income", "STATUS": "Available", "BLDG_AREA_": 31339, "SHP_NO_UNI": 0, "SITUS_CITY": "OAKLAND", "SITUS_ZIP_": 94612, "USEDESCRIP": "Terminals, trucking and distribution", "BASEZONE_1": "CBD-X"}}, {"type": "Feature", "geometry": {"type": "Polygon", "coordinates": [[[-122.17819, 37.76833], [-122.17852, 37.76865], [-122.1789, 37.76841], [-122.17863, 37.76815], [-122.17904, 37.76789], [-122.17775, 37.76663], [-122.1777, 37.76658], [-122.17765, 37.76654], [-122.17761, 37.76649], [-122.17756, 37.76645], [-122.17751, 37.76641], [-122.17746, 37.76637], [-122.17741, 37.76633], [-122.17735, 37.76629], [-122.17733, 37.76627], [-122.17684, 37.76659], [-122.17668, 37.76643], [-122.17642, 37.7666], [-122.17819, 37.76833]]]}, "properties": {"APN_12": "039 329900102", "FULL_SITUS": "7000 BANCROFT AVE OAKLAND 94605", "YEARBUILT": 2005, "TOTALCAP": 441, "VLOWCAP": 0, "LOWCAP": 106, "MODCAP": 9, "AMODCAP": 326, "ZNLABEL_1": "NA", "GPLANCODE": 6, "HESITETYPE": "Other Opportunity", "RHNACAT": "Mixed-Income", "STATUS": "Available", "BLDG_AREA_": 9920, "SHP_NO_UNI": 0, "SITUS_CITY": "OAKLAND", "SITUS_ZIP_": 94605, "USEDESCRIP": "Miscellaneous improved commercial", "BASEZONE_1": "CC-2"}}, {"type": "Feature", "geometry": {"type": "Polygon", "coordinates": [[[-122.26991, 37.80371], [-122.27022, 37.80321], [-122.26929, 37.80285], [-122.26898, 37.80334], [-122.26991, 37.80371]]]}, "properties": {"APN_12": "002 005500200", "FULL_SITUS": "FRANKLIN ST OAKLAND 94612", "YEARBUILT": 0, "TOTALCAP": 436, "VLOWCAP": 27, "LOWCAP": 0, "MODCAP": 0, "AMODCAP": 409, "ZNLABEL_1": "NA", "GPLANCODE": 8, "HESITETYPE": "Pipeline", "RHNACAT": "Mixed-Income", "STATUS": "Not Available (Pipeline Project)", "BLDG_AREA_": 0, "SHP_NO_UNI": 0, "SITUS_CITY": "OAKLAND", "SITUS_ZIP_": 94612, "USEDESCRIP": "Parking garage", "BASEZONE_1": "D-LM-3"}}, {"type": "Feature", "geometry": {"type": "Polygon", "coordinates": [[[-122.26277, 37.81302], [-122.26207, 37.8129], [-122.26207, 37.8129], [-122.26207, 37.8129], [-122.26207, 37.8129], [-122.26207, 37.8129], [-122.26207, 37.8129], [-122.26206, 37.8129], [-122.26206, 37.8129], [-122.26206, 37.8129], [-122.26206, 37.8129], [-122.26206, 37.8129], [-122.26206, 37.8129], [-122.26205, 37.8129], [-122.26205, 37.8129], [-122.26205, 37.8129], [-122.26205, 37.8129], [-122.26205, 37.8129], [-122.26205, 37.8129], [-122.26205, 37.8129], [-122.26204, 37.8129], [-122.26204, 37.8129], [-122.26204, 37.8129], [-122.26204, 37.8129], [-122.26204, 37.8129], [-122.26204, 37.8129], [-122.26204, 37.8129], [-122.26203, 37.8129], [-122.26203, 37.8129], [-122.26203, 37.81291], [-122.26203, 37.81291], [-122.26203, 37.81291], [-122.26203, 37.81291], [-122.26202, 37.81291], [-122.26202, 37.81291], [-122.26202, 37.81291], [-122.26202, 37.81291], [-122.26202, 37.81291], [-122.26202, 37.81291], [-122.26202, 37.81291], [-122.26202, 37.81291], [-122.26201, 37.81291], [-122.26201, 37.81291], [-122.26201, 37.81291], [-122.26201, 37.81291], [-122.26201, 37.81291], [-122.26201, 37.81291], [-122.26201, 37.81291], [-122.262, 37.81292], [-122.262, 37.81292], [-122.262, 37.81292], [-122.262, 37.81292], [-122.262, 37.81292], [-122.262, 37.81292], [-122.262, 37.81292], [-122.262, 37.81292], [-122.262, 37.81292], [-122.26199, 37.81292], [-122.26199, 37.81292], [-122.26199, 37.81292], [-122.26199, 37.81292], [-122.26199, 37.81293], [-122.26199, 37.81293], [-122.26199, 37.81293], [-122.26199, 37.81293], [-122.26199, 37.81293], [-122.26199, 37.81293], [-122.26198, 37.81293], [-122.26198, 37.81293], [-122.26198, 37.81293], [-122.26198, 37.81293], [-122.26198, 37.81293], [-122.26198, 37.81294], [-122.26198, 37.81294], [-122.26198, 37.81294], [-122.26198, 37.81294], [-122.26198, 37.81294], [-122.26198, 37.81294], [-122.26198, 37.81294], [-122.26198, 37.81294], [-122.26197, 37.81294], [-122.26197, 37.81295], [-122.26197, 37.81295], [-122.26197, 37.81295], [-122.26197, 37.81295], [-122.26197, 37.81295], [-122.26197, 37.81295], [-122.26197, 37.81295], [-122.26197, 37.81295], [-122.26197, 37.81295], [-122.26197, 37.81296], [-122.26197, 37.81296], [-122.26197, 37.81296], [-122.26197, 37.81296], [-122.26197, 37.81296], [-122.26197, 37.81296], [-122.26197, 37.81296], [-122.26197, 37.81296], [-122.26197, 37.81297], [-122.26197, 37.81297], [-122.26197, 37.81297], [-122.26197, 37.81297], [-122.26197, 37.81297], [-122.26197, 37.81297], [-122.26197, 37.81297], [-122.26197, 37.81297], [-122.26197, 37.81297], [-122.26197, 37.81298], [-122.26197, 37.81298], [-122.26197, 37.81298], [-122.26197, 37.81298], [-122.26197, 37.81298], [-122.26197, 37.81298], [-122.26197, 37.81298], [-122.26197, 37.81298], [-122.26197, 37.81299], [-122.26197, 37.81299], [-122.26197, 37.81299], [-122.26197, 37.81299], [-122.26197, 37.81299], [-122.26197, 37.81299], [-122.26197, 37.81299], [-122.26197, 37.81299], [-122.26197, 37.81299], [-122.26197, 37.813], [-122.26253, 37.8138], [-122.26257, 37.81386], [-122.26262, 37.81392], [-122.26263, 37.81394], [-122.26284, 37.81383], [-122.26273, 37.81369], [-122.26275, 37.81368], [-122.26269, 37.81361], [-122.26259, 37.81346], [-122.26253, 37.81337], [-122.26259, 37.81327], [-122.2627, 37.81329], [-122.26277, 37.81302]]]}, "properties": {"APN_12": "008 067102001", "FULL_SITUS": "265 27TH ST OAKLAND 94612", "YEARBUILT": 0, "TOTALCAP": 405, "VLOWCAP": 0, "LOWCAP": 0, "MODCAP": 0, "AMODCAP": 405, "ZNLABEL_1": "NA", "GPLANCODE": 8, "HESITETYPE": "Pipeline", "RHNACAT": "Above-Moderate-Income", "STATUS": "Not Available (Pipeline Project)", "BLDG_AREA_": 0, "SHP_NO_UNI": 0, "SITUS_CITY": "OAKLAND", "SITUS_ZIP_": 94612, "USEDESCRIP": "Vacant apartment land, capable of 5 or more units", "BASEZONE_1": "D-BV-1"}}, {"type": "Feature", "geometry": {"type": "Polygon", "coordinates": [[[-122.28083, 37.80199], [-122.28128, 37.80217], [-122.28158, 37.80167], [-122.28065, 37.80131], [-122.28044, 37.80165], [-122.28047, 37.80174], [-122.28049, 37.80184], [-122.28068, 37.80191], [-122.28072, 37.80193], [-122.28075, 37.80195], [-122.28079, 37.80197], [-122.28083, 37.80199]]]}, "properties": {"APN_12": "001 022101402", "FULL_SITUS": "CASTRO ST OAKLAND 94607", "YEARBUILT": 0, "TOTALCAP": 400, "VLOWCAP": 200, "LOWCAP": 200, "MODCAP": 0, "AMODCAP": 0, "ZNLABEL_1": "NA", "GPLANCODE": 6, "HESITETYPE": "Potential Project", "RHNACAT": "Lower-Income", "STATUS": "Available (Pre-Approval Stage)", "BLDG_AREA_": 0, "SHP_NO_UNI": 0, "SITUS_CITY": "OAKLAND", "SITUS_ZIP_": 94607, "USEDESCRIP": "Vacant commercial land (may include misc. imps)", "BASEZONE_1": "CC-2"}}, {"type": "Feature", "geometry": {"type": "Polygon", "coordinates": [[[-122.18024, 37.74181], [-122.1805, 37.74203], [-122.18104, 37.74177], [-122.18106, 37.74176], [-122.18139, 37.74161], [-122.18181, 37.74141], [-122.18181, 37.74141], [-122.1818, 37.7414], [-122.18173, 37.74134], [-122.18172, 37.74133], [-122.1817, 37.74131], [-122.18124, 37.74093], [-122.18051, 37.74032], [-122.18025, 37.7401], [-122.18024, 37.74009], [-122.18024, 37.74009], [-122.18023, 37.74008], [-122.17948, 37.7396], [-122.17948, 37.7396], [-122.17941, 37.73964], [-122.17935, 37.73968], [-122.17928, 37.73973], [-122.17921, 37.73977], [-122.17915, 37.73982], [-122.17881, 37.74008], [-122.1788, 37.74009], [-122.17879, 37.74009], [-122.17879, 37.7401], [-122.17879, 37.74011], [-122.17878, 37.74012], [-122.17879, 37.74013], [-122.17879, 37.74014], [-122.17879, 37.74015], [-122.17892, 37.74031], [-122.17892, 37.74032], [-122.17892, 37.74032], [-122.17893, 37.74032], [-122.17893, 37.74032], [-122.17894, 37.74033], [-122.17894, 37.74033], [-122.17895, 37.74033], [-122.17895, 37.74032], [-122.17896, 37.74032], [-122.17896, 37.74032], [-122.17897, 37.74032], [-122.17897, 37.74032], [-122.179, 37.7403], [-122.17908, 37.74036], [-122.17903, 37.7404], [-122.17903, 37.7404], [-122.17902, 37.74041], [-122.17902, 37.74041], [-122.17902, 37.74042], [-122.17901, 37.74043], [-122.17937, 37.74071], [-122.17925, 37.74081], [-122.17923, 37.7408], [-122.17923, 37.74079], [-122.17922, 37.74079], [-122.17922, 37.74079], [-122.17921, 37.74079], [-122.17921, 37.74079], [-122.1792, 37.74079], [-122.1792, 37.74079], [-122.17919, 37.74079], [-122.17919, 37.74079], [-122.17918, 37.74079], [-122.17891, 37.741], [-122.1789, 37.74101], [-122.1789, 37.74101], [-122.1789, 37.74102], [-122.1789, 37.74102], [-122.17889, 37.74102], [-122.1789, 37.74103], [-122.1789, 37.74103], [-122.1789, 37.74104], [-122.1789, 37.74104], [-122.17971, 37.74172], [-122.1797, 37.74172], [-122.17983, 37.74182], [-122.18007, 37.74165], [-122.18024, 37.74181]]]}, "properties": {"APN_12": "044 508018000", "FULL_SITUS": "921 98TH AVE OAKLAND 94603", "YEARBUILT": 0, "TOTALCAP": 399, "VLOWCAP": 0, "LOWCAP": 0, "MODCAP": 0, "AMODCAP": 399, "ZNLABEL_1": "NA", "GPLANCODE": 0, "HESITETYPE": "Pipeline", "RHNACAT": "Above-Moderate-Income", "STATUS": "Not Available (Pipeline Project)", "BLDG_AREA_": 0, "SHP_NO_UNI": 0, "SITUS_CITY": "OAKLAND", "SITUS_ZIP_": 94603, "USEDESCRIP": "Vacant industrial land (may include misc. imps)", "BASEZONE_1": "HBX-1"}}, {"type": "Feature", "geometry": {"type": "Polygon", "coordinates": [[[-122.26746, 37.81061], [-122.26729, 37.81089], [-122.26772, 37.81097], [-122.26785, 37.81076], [-122.26746, 37.81061]]]}, "properties": {"APN_12": "008 064800100", "FULL_SITUS": "2147 BROADWAY OAKLAND 94612", "YEARBUILT": 0, "TOTALCAP": 395, "VLOWCAP": 0, "LOWCAP": 0, "MODCAP": 0, "AMODCAP": 395, "ZNLABEL_1": "NA", "GPLANCODE": 8, "HESITETYPE": "Pipeline", "RHNACAT": "Above-Moderate-Income", "STATUS": "Not Available (Pipeline Project)", "BLDG_AREA_": 24694, "SHP_NO_UNI": 3, "SITUS_CITY": "OAKLAND", "SITUS_ZIP_": 94612, "USEDESCRIP": "Store/Office with Apts/Lofts", "BASEZONE_1": "CBD-P"}}, {"type": "Feature", "geometry": {"type": "Polygon", "coordinates": [[[-122.27085, 37.79799], [-122.27108, 37.79809], [-122.27112, 37.79802], [-122.27089, 37.79793], [-122.27085, 37.79799]]]}, "properties": {"APN_12": "001 018900700", "FULL_SITUS": "631 HARRISON ST OAKLAND 94607", "YEARBUILT": 0, "TOTALCAP": 380, "VLOWCAP": 0, "LOWCAP": 0, "MODCAP": 0, "AMODCAP": 380, "ZNLABEL_1": "NA", "GPLANCODE": 8, "HESITETYPE": "Pipeline", "RHNACAT": "Above-Moderate-Income", "STATUS": "Not Available (Pipeline Project)", "BLDG_AREA_": 0, "SHP_NO_UNI": 1, "SITUS_CITY": "OAKLAND", "SITUS_ZIP_": 94607, "USEDESCRIP": "Parking lot", "BASEZONE_1": "D-LM-2"}}, {"type": "Feature", "geometry": {"type": "Polygon", "coordinates": [[[-122.25794, 37.7879], [-122.25827, 37.78843], [-122.25851, 37.78884], [-122.25937, 37.78824], [-122.25867, 37.78762], [-122.25837, 37.78773], [-122.25794, 37.7879]]]}, "properties": {"APN_12": "018 046501700", "FULL_SITUS": "8TH AVE OAKLAND 94607", "YEARBUILT": 0, "TOTALCAP": 380, "VLOWCAP": 0, "LOWCAP": 0, "MODCAP": 0, "AMODCAP": 380, "ZNLABEL_1": "NA", "GPLANCODE": 0, "HESITETYPE": "Pipeline", "RHNACAT": "Above-Moderate-Income", "STATUS": "Not Available (Pipeline Project)", "BLDG_AREA_": 0, "SHP_NO_UNI": 0, "SITUS_CITY": "OAKLAND", "SITUS_ZIP_": 94607, "USEDESCRIP": "Vacant apartment land, capable of 5 or more units", "BASEZONE_1": "D-OTN"}}, {"type": "Feature", "geometry": {"type": "Polygon", "coordinates": [[[-122.25867, 37.78762], [-122.25937, 37.78824], [-122.26029, 37.78758], [-122.25984, 37.78718], [-122.25939, 37.78735], [-122.25867, 37.78762]]]}, "properties": {"APN_12": "018 046501800", "FULL_SITUS": "37 8TH AVE OAKLAND 94606", "YEARBUILT": 0, "TOTALCAP": 378, "VLOWCAP": 0, "LOWCAP": 0, "MODCAP": 0, "AMODCAP": 378, "ZNLABEL_1": "NA", "GPLANCODE": 0, "HESITETYPE": "Pipeline", "RHNACAT": "Above-Moderate-Income", "STATUS": "Not Available (Pipeline Project)", "BLDG_AREA_": 0, "SHP_NO_UNI": 0, "SITUS_CITY": "OAKLAND", "SITUS_ZIP_": 94606, "USEDESCRIP": "Vacant apartment land, capable of 5 or more units", "BASEZONE_1": "D-OTN"}}, {"type": "Feature", "geometry": {"type": "Polygon", "coordinates": [[[-122.29087, 37.80545], [-122.29204, 37.80572], [-122.29206, 37.80567], [-122.2921, 37.80554], [-122.29187, 37.80526], [-122.29176, 37.80516], [-122.29176, 37.80501], [-122.29152, 37.80471], [-122.29116, 37.80464], [-122.29087, 37.80545]]]}, "properties": {"APN_12": "004 010800700", "FULL_SITUS": "1300 7TH ST OAKLAND 94607", "YEARBUILT": 1985, "TOTALCAP": 376, "VLOWCAP": 0, "LOWCAP": 0, "MODCAP": 38, "AMODCAP": 338, "ZNLABEL_1": "NA", "GPLANCODE": 0, "HESITETYPE": "Potential Project", "RHNACAT": "Mixed-Income", "STATUS": "Available (Pre-Approval Stage)", "BLDG_AREA_": 30200, "SHP_NO_UNI": 0, "SITUS_CITY": "OAKLAND", "SITUS_ZIP_": 94607, "USEDESCRIP": "Warehouse", "BASEZONE_1": "S-15W"}}, {"type": "Feature", "geometry": {"type": "Polygon", "coordinates": [[[-122.26609, 37.80935], [-122.26598, 37.80975], [-122.26664, 37.80979], [-122.2667, 37.80945], [-122.26609, 37.80935]]]}, "properties": {"APN_12": "008 065101801", "FULL_SITUS": "2044 FRANKLIN ST OAKLAND 94612", "YEARBUILT": 0, "TOTALCAP": 357, "VLOWCAP": 20, "LOWCAP": 0, "MODCAP": 0, "AMODCAP": 337, "ZNLABEL_1": "NA", "GPLANCODE": 8, "HESITETYPE": "Pipeline", "RHNACAT": "Mixed-Income", "STATUS": "Not Available (Pipeline Project)", "BLDG_AREA_": 21220, "SHP_NO_UNI": 1, "SITUS_CITY": "OAKLAND", "SITUS_ZIP_": 94612, "USEDESCRIP": "Vacant apartment land, capable of 5 or more units", "BASEZONE_1": "CBD-C"}}, {"type": "Feature", "geometry": {"type": "Polygon", "coordinates": [[[-122.26198, 37.79052], [-122.26199, 37.79052], [-122.262, 37.79052], [-122.26201, 37.79052], [-122.26202, 37.79052], [-122.26202, 37.79052], [-122.26203, 37.79051], [-122.26204, 37.79051], [-122.26204, 37.7905], [-122.26217, 37.79029], [-122.26217, 37.79028], [-122.26218, 37.79027], [-122.26219, 37.79027], [-122.26278, 37.78984], [-122.26295, 37.78972], [-122.26247, 37.78929], [-122.26104, 37.79031], [-122.26113, 37.79039], [-122.2612, 37.79041], [-122.26127, 37.79042], [-122.26198, 37.79052]]]}, "properties": {"APN_12": "018 043000114", "FULL_SITUS": "1 5TH AVE OAKLAND 94606", "YEARBUILT": 0, "TOTALCAP": 356, "VLOWCAP": 0, "LOWCAP": 0, "MODCAP": 0, "AMODCAP": 356, "ZNLABEL_1": "NA", "GPLANCODE": 0, "HESITETYPE": "Pipeline", "RHNACAT": "Above-Moderate-Income", "STATUS": "Not Available (Pipeline Project)", "BLDG_AREA_": 0, "SHP_NO_UNI": 0, "SITUS_CITY": "OAKLAND", "SITUS_ZIP_": 94606, "USEDESCRIP": "Vacant apartment land, capable of 5 or more units", "BASEZONE_1": "D-OTN"}}, {"type": "Feature", "geometry": {"type": "Polygon", "coordinates": [[[-122.26225, 37.81275], [-122.26239, 37.81277], [-122.26241, 37.81266], [-122.26244, 37.81255], [-122.26241, 37.81255], [-122.26244, 37.81244], [-122.26234, 37.81243], [-122.26225, 37.81275]]]}, "properties": {"APN_12": "008 067000200", "FULL_SITUS": "265 24TH ST OAKLAND 94612", "YEARBUILT": 1908, "TOTALCAP": 330, "VLOWCAP": 15, "LOWCAP": 0, "MODCAP": 0, "AMODCAP": 315, "ZNLABEL_1": "<Null>", "GPLANCODE": 8, "HESITETYPE": "Pipeline", "RHNACAT": "Mixed-Income", "STATUS": "Not Available (Pipeline Project)", "BLDG_AREA_": 2997, "SHP_NO_UNI": 3, "SITUS_CITY": "OAKLAND", "SITUS_ZIP_": 94612, "USEDESCRIP": "Triplex; double or duplex with single family home", "BASEZONE_1": "D-BV-1"}}, {"type": "Feature", "geometry": {"type": "Polygon", "coordinates": [[[-122.16581, 37.73926], [-122.16602, 37.73955], [-122.16654, 37.7393], [-122.16633, 37.73902], [-122.16603, 37.73861], [-122.16576, 37.73874], [-122.16575, 37.7389], [-122.16581, 37.73898], [-122.1656, 37.73908], [-122.1657, 37.73922], [-122.16575, 37.73919], [-122.16581, 37.73926]]]}, "properties": {"APN_12": "047 550904400", "FULL_SITUS": "10550 INTERNATIONAL BLVD OAKLAND 94603", "YEARBUILT": 0, "TOTALCAP": 324, "VLOWCAP": 0, "LOWCAP": 324, "MODCAP": 0, "AMODCAP": 0, "ZNLABEL_1": "NA", "GPLANCODE": 6, "HESITETYPE": "Pipeline", "RHNACAT": "Mixed-Income", "STATUS": "Not Available (Pipeline Project)", "BLDG_AREA_": 0, "SHP_NO_UNI": 0, "SITUS_CITY": "OAKLAND", "SITUS_ZIP_": 94603, "USEDESCRIP": "Miscellaneous improved commercial", "BASEZONE_1": "CC-2"}}, {"type": "Feature", "geometry": {"type": "Polygon", "coordinates": [[[-122.30396, 37.80894], [-122.30334, 37.8088], [-122.30222, 37.8102], [-122.30328, 37.81073], [-122.30381, 37.81007], [-122.30385, 37.80991], [-122.30389, 37.80975], [-122.30392, 37.80959], [-122.30394, 37.80943], [-122.30396, 37.80926], [-122.30397, 37.8091], [-122.30396, 37.80894]]]}, "properties": {"APN_12": "006 004700101", "FULL_SITUS": "800 CEDAR ST OAKLAND 94607", "YEARBUILT": 0, "TOTALCAP": 316, "VLOWCAP": 0, "LOWCAP": 101, "MODCAP": 0, "AMODCAP": 215, "ZNLABEL_1": "NA", "GPLANCODE": 0, "HESITETYPE": "Pipeline", "RHNACAT": "Mixed-Income", "STATUS": "Not Available (Pipeline Project)", "BLDG_AREA_": 0, "SHP_NO_UNI": 0, "SITUS_CITY": "OAKLAND", "SITUS_ZIP_": 94607, "USEDESCRIP": "Vacant apartment land, capable of 5 or more units", "BASEZONE_1": "CIX-1B"}}, {"type": "Feature", "geometry": {"type": "Polygon", "coordinates": [[[-122.27032, 37.80472], [-122.27038, 37.80475], [-122.27053, 37.80451], [-122.2705, 37.80449], [-122.27051, 37.80449], [-122.27036, 37.80443], [-122.27012, 37.80434], [-122.26989, 37.80425], [-122.26973, 37.80449], [-122.27012, 37.80465], [-122.2702, 37.80468], [-122.27032, 37.80472]]]}, "properties": {"APN_12": "008 062100807", "FULL_SITUS": "1431 FRANKLIN ST OAKLAND 94612", "YEARBUILT": 0, "TOTALCAP": 315, "VLOWCAP": 26, "LOWCAP": 0, "MODCAP": 0, "AMODCAP": 289, "ZNLABEL_1": "NA", "GPLANCODE": 8, "HESITETYPE": "Potential Project", "RHNACAT": "Mixed-Income", "STATUS": "Available (Pre-Approval Stage)", "BLDG_AREA_": 0, "SHP_NO_UNI": 0, "SITUS_CITY": "OAKLAND", "SITUS_ZIP_": 94612, "USEDESCRIP": "Parking lot", "BASEZONE_1": "CC-2"}}, {"type": "Feature", "geometry": {"type": "Polygon", "coordinates": [[[-122.26845, 37.80747], [-122.26861, 37.80753], [-122.26874, 37.80732], [-122.26906, 37.80745], [-122.2693, 37.80707], [-122.26882, 37.80688], [-122.26845, 37.80747]]]}, "properties": {"APN_12": "008 062301300", "FULL_SITUS": "1740 BROADWAY OAKLAND 94612", "YEARBUILT": 1973, "TOTALCAP": 307, "VLOWCAP": 0, "LOWCAP": 0, "MODCAP": 0, "AMODCAP": 307, "ZNLABEL_1": "NA", "GPLANCODE": 8, "HESITETYPE": "Pipeline", "RHNACAT": "Above-Moderate-Income", "STATUS": "Not Available (Pipeline Project)", "BLDG_AREA_": 29363, "SHP_NO_UNI": 1, "SITUS_CITY": "OAKLAND", "SITUS_ZIP_": 94612, "USEDESCRIP": "One to five story office building", "BASEZONE_1": "CBD-P"}}, {"type": "Feature", "geometry": {"type": "Polygon", "coordinates": [[[-122.20174, 37.75514], [-122.20268, 37.75596], [-122.20272, 37.75594], [-122.20394, 37.75553], [-122.20393, 37.75551], [-122.20397, 37.75549], [-122.20401, 37.75548], [-122.20405, 37.75546], [-122.20409, 37.75544], [-122.20413, 37.75543], [-122.20417, 37.75541], [-122.20421, 37.75539], [-122.20425, 37.75537], [-122.20429, 37.75536], [-122.20433, 37.75534], [-122.20437, 37.75532], [-122.20441, 37.75529], [-122.20445, 37.75527], [-122.2045, 37.75524], [-122.20472, 37.75511], [-122.2047, 37.75509], [-122.2047, 37.75508], [-122.20471, 37.75508], [-122.20471, 37.75508], [-122.20471, 37.75508], [-122.20471, 37.75508], [-122.20472, 37.75507], [-122.20472, 37.75507], [-122.20472, 37.75507], [-122.20473, 37.75507], [-122.20473, 37.75506], [-122.20473, 37.75506], [-122.20473, 37.75506], [-122.20474, 37.75506], [-122.20474, 37.75505], [-122.20474, 37.75505], [-122.20474, 37.75505], [-122.20475, 37.75505], [-122.20475, 37.75504], [-122.20475, 37.75504], [-122.20475, 37.75504], [-122.20476, 37.75504], [-122.20476, 37.75503], [-122.20476, 37.75503], [-122.20476, 37.75503], [-122.20476, 37.75502], [-122.20477, 37.75502], [-122.20477, 37.75502], [-122.20477, 37.75502], [-122.20477, 37.75501], [-122.20477, 37.75501], [-122.20477, 37.75501], [-122.20478, 37.755], [-122.20478, 37.755], [-122.20478, 37.755], [-122.20478, 37.75499], [-122.20478, 37.75499], [-122.20478, 37.75499], [-122.20478, 37.75499], [-122.20478, 37.75498], [-122.20479, 37.75498], [-122.20479, 37.75498], [-122.20479, 37.75497], [-122.20479, 37.75497], [-122.20479, 37.75497], [-122.20479, 37.75496], [-122.20479, 37.75496], [-122.20479, 37.75496], [-122.20479, 37.75495], [-122.20479, 37.75495], [-122.20479, 37.75495], [-122.20479, 37.75494], [-122.20479, 37.75494], [-122.20479, 37.75494], [-122.20479, 37.75493], [-122.20479, 37.75493], [-122.20479, 37.75493], [-122.20479, 37.75492], [-122.20479, 37.75492], [-122.20479, 37.75492], [-122.20479, 37.75491], [-122.20479, 37.75491], [-122.20479, 37.75491], [-122.20479, 37.7549], [-122.20479, 37.7549], [-122.20479, 37.7549], [-122.20479, 37.7549], [-122.20478, 37.75489], [-122.20478, 37.75489], [-122.20478, 37.75489], [-122.20478, 37.75488], [-122.20478, 37.75488], [-122.20478, 37.75488], [-122.20478, 37.75487], [-122.20478, 37.75487], [-122.20477, 37.75487], [-122.20477, 37.75486], [-122.20477, 37.75486], [-122.20477, 37.75486], [-122.20477, 37.75486], [-122.20477, 37.75485], [-122.20476, 37.75485], [-122.20476, 37.75485], [-122.20476, 37.75484], [-122.20476, 37.75484], [-122.20476, 37.75484], [-122.20475, 37.75484], [-122.20475, 37.75483], [-122.20475, 37.75483], [-122.20475, 37.75483], [-122.20474, 37.75482], [-122.20474, 37.75482], [-122.20474, 37.75482], [-122.20474, 37.75482], [-122.20473, 37.75481], [-122.20473, 37.75481], [-122.20473, 37.75481], [-122.20472, 37.75481], [-122.20472, 37.75481], [-122.20472, 37.7548], [-122.20471, 37.7548], [-122.2046, 37.75472], [-122.20408, 37.75482], [-122.20381, 37.75483], [-122.2035, 37.75483], [-122.20329, 37.75492], [-122.20264, 37.75509], [-122.20222, 37.75508], [-122.20207, 37.75514], [-122.20174, 37.75514]]]}, "properties": {"APN_12": "041 390100400", "FULL_SITUS": "796 66TH AVE OAKLAND 94621", "YEARBUILT": 1920, "TOTALCAP": 296, "VLOWCAP": 0, "LOWCAP": 296, "MODCAP": 0, "AMODCAP": 0, "ZNLABEL_1": "NA", "GPLANCODE": 0, "HESITETYPE": "Other Opportunity", "RHNACAT": "Lower-Income", "STATUS": "Available", "BLDG_AREA_": 6980, "SHP_NO_UNI": 1, "SITUS_CITY": "OAKLAND", "SITUS_ZIP_": 94621, "USEDESCRIP": "Exempt Public Agency", "BASEZONE_1": "CC-2"}}, {"type": "Feature", "geometry": {"type": "Polygon", "coordinates": [[[-122.29272, 37.80397], [-122.29248, 37.80464], [-122.29306, 37.80477], [-122.2932, 37.80438], [-122.29318, 37.80437], [-122.29323, 37.80424], [-122.29327, 37.80425], [-122.29329, 37.8042], [-122.29272, 37.80397]]]}, "properties": {"APN_12": "004 006900201", "FULL_SITUS": "KIRKHAM ST OAKLAND 94607", "YEARBUILT": 0, "TOTALCAP": 289, "VLOWCAP": 0, "LOWCAP": 0, "MODCAP": 0, "AMODCAP": 289, "ZNLABEL_1": "NA", "GPLANCODE": 6, "HESITETYPE": "Potential Project", "RHNACAT": "Above-Moderate-Income", "STATUS": "Available (Pre-Approval Stage)", "BLDG_AREA_": 0, "SHP_NO_UNI": 0, "SITUS_CITY": "OAKLAND", "SITUS_ZIP_": 94607, "USEDESCRIP": "Parking lot", "BASEZONE_1": "S-15W"}}, {"type": "Feature", "geometry": {"type": "Polygon", "coordinates": [[[-122.26536, 37.79245], [-122.26555, 37.79174], [-122.26465, 37.7916], [-122.26426, 37.79222], [-122.26512, 37.7924], [-122.26536, 37.79245]]]}, "properties": {"APN_12": "018 044000903", "FULL_SITUS": "200 FALLON ST OAKLAND 94607", "YEARBUILT": 1974, "TOTALCAP": 276, "VLOWCAP": 0, "LOWCAP": 0, "MODCAP": 0, "AMODCAP": 276, "ZNLABEL_1": "NA", "GPLANCODE": 0, "HESITETYPE": "Potential Project", "RHNACAT": "Above-Moderate-Income", "STATUS": "Available (Pre-Approval Stage)", "BLDG_AREA_": 19600, "SHP_NO_UNI": 0, "SITUS_CITY": "OAKLAND", "SITUS_ZIP_": 94607, "USEDESCRIP": "Warehouse", "BASEZONE_1": "M-20"}}, {"type": "Feature", "geometry": {"type": "Polygon", "coordinates": [[[-122.26585, 37.81176], [-122.26631, 37.81183], [-122.26648, 37.81157], [-122.2659, 37.81156], [-122.26585, 37.81176]]]}, "properties": {"APN_12": "008 065600100", "FULL_SITUS": "2250 BROADWAY OAKLAND 94612", "YEARBUILT": 0, "TOTALCAP": 275, "VLOWCAP": 12, "LOWCAP": 0, "MODCAP": 0, "AMODCAP": 263, "ZNLABEL_1": "NA", "GPLANCODE": 8, "HESITETYPE": "Pipeline", "RHNACAT": "Mixed-Income", "STATUS": "Not Available (Pipeline Project)", "BLDG_AREA_": 46200, "SHP_NO_UNI": 9, "SITUS_CITY": "OAKLAND", "SITUS_ZIP_": 94612, "USEDESCRIP": "Over five story office building", "BASEZONE_1": "D-BV-2"}}, {"type": "Feature", "geometry": {"type": "Polygon", "coordinates": [[[-122.27496, 37.79797], [-122.27527, 37.79748], [-122.27433, 37.79711], [-122.27403, 37.7976], [-122.27496, 37.79797]]]}, "properties": {"APN_12": "001 013900100", "FULL_SITUS": "430 BROADWAY OAKLAND 94607", "YEARBUILT": 0, "TOTALCAP": 272, "VLOWCAP": 0, "LOWCAP": 100, "MODCAP": 0, "AMODCAP": 172, "ZNLABEL_1": "NA", "GPLANCODE": 0, "HESITETYPE": "Potential Project", "RHNACAT": "Mixed-Income", "STATUS": "Available (Pre-Approval Stage)", "BLDG_AREA_": 0, "SHP_NO_UNI": 0, "SITUS_CITY": "OAKLAND", "SITUS_ZIP_": 94607, "USEDESCRIP": "Exempt Public Agency", "BASEZONE_1": "C-45"}}, {"type": "Feature", "geometry": {"type": "Polygon", "coordinates": [[[-122.2673, 37.80461], [-122.26737, 37.8045], [-122.2669, 37.80432], [-122.26683, 37.80443], [-122.2673, 37.80461]]]}, "properties": {"APN_12": " ", "FULL_SITUS": " ", "YEARBUILT": 0, "TOTALCAP": 269, "VLOWCAP": 0, "LOWCAP": 0, "MODCAP": 51, "AMODCAP": 218, "ZNLABEL_1": " ", "GPLANCODE": 0, "HESITETYPE": "Potential Project", "RHNACAT": "Mixed-Income", "STATUS": "Available (Pre-Approval Stage)", "BLDG_AREA_": 0, "SHP_NO_UNI": 0, "SITUS_CITY": " ", "SITUS_ZIP_": 0, "USEDESCRIP": " ", "BASEZONE_1": " "}}, {"type": "Feature", "geometry": {"type": "Polygon", "coordinates": [[[-122.26697, 37.80935], [-122.26687, 37.80982], [-122.2675, 37.80994], [-122.26769, 37.80963], [-122.26697, 37.80935]]]}, "properties": {"APN_12": "008 065002300", "FULL_SITUS": "2044 BROADWAY OAKLAND 94612", "YEARBUILT": 0, "TOTALCAP": 268, "VLOWCAP": 0, "LOWCAP": 268, "MODCAP": 0, "AMODCAP": 0, "ZNLABEL_1": "NA", "GPLANCODE": 8, "HESITETYPE": "Other Opportunity", "RHNACAT": "Lower-Income", "STATUS": "Available", "BLDG_AREA_": 0, "SHP_NO_UNI": 0, "SITUS_CITY": "OAKLAND", "SITUS_ZIP_": 94612, "USEDESCRIP": "One to five story office building", "BASEZONE_1": "CBD-C"}}, {"type": "Feature", "geometry": {"type": "Polygon", "coordinates": [[[-122.14169, 37.77144], [-122.14202, 37.77168], [-122.14202, 37.77169], [-122.14203, 37.77169], [-122.14204, 37.7717], [-122.14204, 37.7717], [-122.14205, 37.77171], [-122.14206, 37.77171], [-122.14206, 37.77172], [-122.14207, 37.77172], [-122.14208, 37.77173], [-122.14209, 37.77173], [-122.14209, 37.77173], [-122.1421, 37.77174], [-122.14211, 37.77174], [-122.14212, 37.77174], [-122.14213, 37.77175], [-122.14213, 37.77175], [-122.14214, 37.77175], [-122.14215, 37.77176], [-122.14216, 37.77176], [-122.14217, 37.77176], [-122.14218, 37.77177], [-122.14218, 37.77177], [-122.14219, 37.77177], [-122.1422, 37.77177], [-122.14221, 37.77178], [-122.14222, 37.77178], [-122.14223, 37.77178], [-122.14258, 37.77189], [-122.14225, 37.77225], [-122.14392, 37.77286], [-122.14486, 37.77241], [-122.14468, 37.77173], [-122.14544, 37.77137], [-122.14561, 37.77205], [-122.14678, 37.77148], [-122.14976, 37.77004], [-122.15251, 37.76872], [-122.15271, 37.76862], [-122.15288, 37.76853], [-122.15307, 37.76845], [-122.15266, 37.76774], [-122.15266, 37.76774], [-122.15266, 37.76774], [-122.15266, 37.76774], [-122.15266, 37.76774], [-122.15266, 37.76774], [-122.15266, 37.76773], [-122.15266, 37.76773], [-122.15266, 37.76773], [-122.15265, 37.76773], [-122.15265, 37.76773], [-122.15265, 37.76773], [-122.15265, 37.76772], [-122.15265, 37.76772], [-122.15265, 37.76772], [-122.15265, 37.76772], [-122.15264, 37.76772], [-122.15264, 37.76772], [-122.15264, 37.76771], [-122.15264, 37.76771], [-122.15264, 37.76771], [-122.15264, 37.76771], [-122.15263, 37.76771], [-122.15263, 37.76771], [-122.15263, 37.76771], [-122.15263, 37.76771], [-122.15263, 37.7677], [-122.15262, 37.7677], [-122.15262, 37.7677], [-122.15262, 37.7677], [-122.15204, 37.76736], [-122.15201, 37.76735], [-122.152, 37.76734], [-122.15199, 37.76733], [-122.15198, 37.76732], [-122.15197, 37.76732], [-122.15195, 37.76731], [-122.15194, 37.7673], [-122.15193, 37.76729], [-122.15192, 37.76728], [-122.15191, 37.76727], [-122.1519, 37.76726], [-122.15189, 37.76726], [-122.15188, 37.76725], [-122.15187, 37.76724], [-122.15186, 37.76723], [-122.15185, 37.76722], [-122.15184, 37.76721], [-122.15183, 37.7672], [-122.15182, 37.76719], [-122.15182, 37.76718], [-122.15181, 37.76717], [-122.1518, 37.76716], [-122.15179, 37.76715], [-122.15178, 37.76713], [-122.15178, 37.76712], [-122.15177, 37.76711], [-122.15176, 37.7671], [-122.15176, 37.76709], [-122.15175, 37.76708], [-122.15174, 37.76707], [-122.15174, 37.76706], [-122.15173, 37.76705], [-122.15173, 37.76703], [-122.15172, 37.76702], [-122.15172, 37.76701], [-122.15171, 37.767], [-122.15171, 37.76699], [-122.1517, 37.76698], [-122.1517, 37.76696], [-122.1517, 37.76695], [-122.15169, 37.76694], [-122.15169, 37.76693], [-122.15169, 37.76692], [-122.15168, 37.7669], [-122.15168, 37.76689], [-122.15168, 37.76688], [-122.15168, 37.76687], [-122.15168, 37.76686], [-122.15168, 37.76684], [-122.15167, 37.76683], [-122.15167, 37.76682], [-122.15167, 37.76681], [-122.15167, 37.76679], [-122.15167, 37.76678], [-122.15167, 37.76677], [-122.15167, 37.76676], [-122.15168, 37.76674], [-122.15168, 37.76673], [-122.15168, 37.76672], [-122.15168, 37.76671], [-122.15168, 37.7667], [-122.15168, 37.76668], [-122.15169, 37.76667], [-122.15169, 37.76666], [-122.15169, 37.76665], [-122.1517, 37.76664], [-122.1517, 37.76662], [-122.1517, 37.76661], [-122.15171, 37.7666], [-122.15171, 37.76659], [-122.15172, 37.76658], [-122.15172, 37.76657], [-122.15173, 37.76655], [-122.15173, 37.76654], [-122.15174, 37.76653], [-122.15174, 37.76652], [-122.15175, 37.76651], [-122.15176, 37.7665], [-122.15176, 37.76649], [-122.15177, 37.76647], [-122.15178, 37.76646], [-122.15178, 37.76645], [-122.15175, 37.76641], [-122.15171, 37.76637], [-122.15167, 37.76633], [-122.15163, 37.76629], [-122.15159, 37.76625], [-122.15155, 37.76622], [-122.15151, 37.76618], [-122.15147, 37.76614], [-122.15143, 37.76611], [-122.15138, 37.76607], [-122.15134, 37.76604], [-122.15127, 37.76599], [-122.14987, 37.76494], [-122.1498, 37.76489], [-122.14976, 37.76486], [-122.14971, 37.76482], [-122.14966, 37.76478], [-122.14962, 37.76475], [-122.14957, 37.76471], [-122.14953, 37.76467], [-122.14949, 37.76463], [-122.14945, 37.76459], [-122.1494, 37.76455], [-122.14936, 37.76451], [-122.14933, 37.76447], [-122.14929, 37.76443], [-122.14925, 37.76439], [-122.14921, 37.76434], [-122.14918, 37.7643], [-122.14914, 37.76426], [-122.14911, 37.76421], [-122.14908, 37.76417], [-122.14905, 37.76412], [-122.14902, 37.76408], [-122.14899, 37.76403], [-122.14896, 37.76398], [-122.14893, 37.76394], [-122.1489, 37.76389], [-122.14888, 37.76384], [-122.14885, 37.76379], [-122.14883, 37.76375], [-122.14881, 37.7637], [-122.14879, 37.76365], [-122.14877, 37.7636], [-122.14875, 37.76355], [-122.14873, 37.7635], [-122.14871, 37.76345], [-122.1487, 37.7634], [-122.14868, 37.76335], [-122.14867, 37.7633], [-122.14866, 37.76325], [-122.14865, 37.7632], [-122.14864, 37.76315], [-122.14863, 37.76309], [-122.14862, 37.76304], [-122.14861, 37.76299], [-122.14861, 37.76294], [-122.1485, 37.76221], [-122.1485, 37.76218], [-122.14849, 37.76216], [-122.14849, 37.76213], [-122.14848, 37.76211], [-122.14848, 37.76208], [-122.14847, 37.76206], [-122.14846, 37.76203], [-122.14846, 37.76201], [-122.14845, 37.76198], [-122.14844, 37.76196], [-122.14843, 37.76193], [-122.14842, 37.76191], [-122.14841, 37.76189], [-122.1484, 37.76186], [-122.14839, 37.76184], [-122.14838, 37.76181], [-122.14836, 37.76179], [-122.14835, 37.76177], [-122.14834, 37.76175], [-122.14832, 37.76171], [-122.14826, 37.76162], [-122.14823, 37.76157], [-122.1482, 37.76152], [-122.14817, 37.76146], [-122.14815, 37.76141], [-122.14812, 37.76136], [-122.1481, 37.7613], [-122.14794, 37.76097], [-122.1478, 37.76067], [-122.1478, 37.76067], [-122.1478, 37.76067], [-122.1478, 37.76067], [-122.1478, 37.76067], [-122.1478, 37.76067], [-122.1478, 37.76066], [-122.1478, 37.76066], [-122.1478, 37.76066], [-122.1478, 37.76066], [-122.1478, 37.76066], [-122.1478, 37.76066], [-122.1478, 37.76066], [-122.1478, 37.76066], [-122.14779, 37.76066], [-122.14779, 37.76066], [-122.14779, 37.76066], [-122.14779, 37.76066], [-122.14779, 37.76065], [-122.14779, 37.76065], [-122.14779, 37.76065], [-122.14779, 37.76065], [-122.14779, 37.76065], [-122.14779, 37.76065], [-122.14779, 37.76065], [-122.14779, 37.76065], [-122.14779, 37.76065], [-122.14778, 37.76065], [-122.14778, 37.76065], [-122.14778, 37.76065], [-122.14778, 37.76065], [-122.14778, 37.76065], [-122.14778, 37.76065], [-122.14778, 37.76064], [-122.14778, 37.76064], [-122.14778, 37.76064], [-122.14778, 37.76064], [-122.14778, 37.76064], [-122.14777, 37.76064], [-122.14777, 37.76064], [-122.14777, 37.76064], [-122.14777, 37.76064], [-122.14777, 37.76064], [-122.14777, 37.76064], [-122.14777, 37.76064], [-122.14777, 37.76064], [-122.14777, 37.76064], [-122.14776, 37.76064], [-122.14776, 37.76064], [-122.14776, 37.76064], [-122.14776, 37.76064], [-122.14776, 37.76064], [-122.14776, 37.76064], [-122.14776, 37.76064], [-122.14776, 37.76064], [-122.14776, 37.76064], [-122.14775, 37.76063], [-122.14775, 37.76063], [-122.14775, 37.76063], [-122.14775, 37.76063], [-122.14775, 37.76063], [-122.14775, 37.76063], [-122.14775, 37.76063], [-122.14775, 37.76063], [-122.14774, 37.76063], [-122.14774, 37.76063], [-122.14774, 37.76063], [-122.14774, 37.76063], [-122.14774, 37.76063], [-122.14774, 37.76063], [-122.14774, 37.76063], [-122.14774, 37.76063], [-122.14774, 37.76063], [-122.14773, 37.76063], [-122.14773, 37.76063], [-122.14773, 37.76063], [-122.14773, 37.76063], [-122.14773, 37.76063], [-122.14773, 37.76063], [-122.14773, 37.76063], [-122.14773, 37.76063], [-122.14772, 37.76063], [-122.14772, 37.76063], [-122.14772, 37.76063], [-122.14772, 37.76063], [-122.14772, 37.76063], [-122.14772, 37.76064], [-122.14772, 37.76064], [-122.14772, 37.76064], [-122.14771, 37.76064], [-122.14771, 37.76064], [-122.14771, 37.76064], [-122.14771, 37.76064], [-122.14771, 37.76064], [-122.14771, 37.76064], [-122.14771, 37.76064], [-122.14771, 37.76064], [-122.14771, 37.76064], [-122.1477, 37.76064], [-122.1477, 37.76064], [-122.1477, 37.76064], [-122.1477, 37.76064], [-122.1477, 37.76064], [-122.1477, 37.76064], [-122.1477, 37.76064], [-122.1477, 37.76064], [-122.1477, 37.76064], [-122.1475, 37.76076], [-122.14749, 37.76077], [-122.14747, 37.76077], [-122.14746, 37.76078], [-122.14744, 37.76079], [-122.14743, 37.7608], [-122.14741, 37.7608], [-122.1474, 37.76081], [-122.14738, 37.76082], [-122.14737, 37.76082], [-122.14736, 37.76083], [-122.14735, 37.76083], [-122.14734, 37.76084], [-122.14733, 37.76084], [-122.14732, 37.76085], [-122.14731, 37.76086], [-122.1473, 37.76086], [-122.14729, 37.76087], [-122.14728, 37.76087], [-122.14727, 37.76088], [-122.14726, 37.76089], [-122.14725, 37.76089], [-122.14724, 37.7609], [-122.14691, 37.76117], [-122.1469, 37.76118], [-122.14689, 37.76119], [-122.14689, 37.76119], [-122.14688, 37.7612], [-122.14687, 37.7612], [-122.14686, 37.76121], [-122.14686, 37.76121], [-122.14685, 37.76122], [-122.14684, 37.76122], [-122.14683, 37.76122], [-122.14683, 37.76123], [-122.14682, 37.76123], [-122.14681, 37.76124], [-122.1468, 37.76124], [-122.14679, 37.76124], [-122.14679, 37.76125], [-122.14678, 37.76125], [-122.14677, 37.76126], [-122.14676, 37.76126], [-122.14675, 37.76126], [-122.14674, 37.76127], [-122.14674, 37.76127], [-122.14673, 37.76127], [-122.14672, 37.76127], [-122.14671, 37.76128], [-122.1467, 37.76128], [-122.14669, 37.76128], [-122.14668, 37.76128], [-122.14667, 37.76129], [-122.14666, 37.76129], [-122.14665, 37.76129], [-122.14665, 37.76129], [-122.14664, 37.76129], [-122.14663, 37.7613], [-122.14662, 37.7613], [-122.14661, 37.7613], [-122.1466, 37.7613], [-122.14659, 37.7613], [-122.14658, 37.7613], [-122.14657, 37.7613], [-122.14656, 37.7613], [-122.14655, 37.7613], [-122.14654, 37.7613], [-122.14653, 37.7613], [-122.14652, 37.7613], [-122.14651, 37.7613], [-122.1465, 37.7613], [-122.14649, 37.7613], [-122.14649, 37.7613], [-122.14648, 37.7613], [-122.14647, 37.7613], [-122.14646, 37.7613], [-122.14645, 37.7613], [-122.14644, 37.7613], [-122.14643, 37.7613], [-122.14642, 37.7613], [-122.14641, 37.76129], [-122.1464, 37.76129], [-122.14639, 37.76129], [-122.14638, 37.76129], [-122.14625, 37.76126], [-122.14624, 37.76126], [-122.14623, 37.76126], [-122.14622, 37.76126], [-122.14621, 37.76125], [-122.14619, 37.76125], [-122.14618, 37.76125], [-122.14617, 37.76125], [-122.14616, 37.76125], [-122.14615, 37.76125], [-122.14614, 37.76125], [-122.14613, 37.76125], [-122.14611, 37.76125], [-122.1461, 37.76125], [-122.14609, 37.76125], [-122.14608, 37.76125], [-122.14607, 37.76125], [-122.14606, 37.76125], [-122.14604, 37.76125], [-122.14603, 37.76125], [-122.14602, 37.76125], [-122.14601, 37.76125], [-122.146, 37.76125], [-122.14599, 37.76125], [-122.14598, 37.76125], [-122.14596, 37.76126], [-122.14595, 37.76126], [-122.14594, 37.76126], [-122.14593, 37.76126], [-122.14592, 37.76126], [-122.14591, 37.76127], [-122.1459, 37.76127], [-122.14589, 37.76127], [-122.14587, 37.76127], [-122.14586, 37.76128], [-122.14585, 37.76128], [-122.14584, 37.76128], [-122.14583, 37.76129], [-122.14582, 37.76129], [-122.14581, 37.76129], [-122.1458, 37.7613], [-122.14579, 37.7613], [-122.14578, 37.76131], [-122.14577, 37.76131], [-122.14576, 37.76132], [-122.14575, 37.76132], [-122.14574, 37.76133], [-122.14573, 37.76133], [-122.14572, 37.76134], [-122.14571, 37.76134], [-122.1457, 37.76135], [-122.14569, 37.76135], [-122.14568, 37.76136], [-122.14567, 37.76136], [-122.14566, 37.76137], [-122.14566, 37.76137], [-122.14565, 37.76138], [-122.14564, 37.76139], [-122.14563, 37.76139], [-122.14562, 37.7614], [-122.14561, 37.76141], [-122.14561, 37.76141], [-122.1456, 37.76142], [-122.14559, 37.76143], [-122.14558, 37.76143], [-122.14557, 37.76144], [-122.14557, 37.76145], [-122.14556, 37.76145], [-122.14555, 37.76147], [-122.14521, 37.76183], [-122.1452, 37.76183], [-122.1452, 37.76183], [-122.1452, 37.76184], [-122.14519, 37.76184], [-122.14519, 37.76185], [-122.14519, 37.76185], [-122.14518, 37.76185], [-122.14518, 37.76186], [-122.14518, 37.76186], [-122.14518, 37.76187], [-122.14517, 37.76187], [-122.14517, 37.76187], [-122.14517, 37.76188], [-122.14517, 37.76188], [-122.14517, 37.76189], [-122.14516, 37.76189], [-122.14516, 37.76189], [-122.14516, 37.7619], [-122.14516, 37.7619], [-122.14516, 37.76191], [-122.14516, 37.76191], [-122.14515, 37.76191], [-122.14515, 37.76192], [-122.14515, 37.76192], [-122.14515, 37.76193], [-122.14515, 37.76193], [-122.14515, 37.76194], [-122.14515, 37.76194], [-122.14515, 37.76194], [-122.14515, 37.76195], [-122.14515, 37.76195], [-122.14515, 37.76196], [-122.14515, 37.76196], [-122.14515, 37.76197], [-122.14515, 37.76197], [-122.14515, 37.76198], [-122.14515, 37.76198], [-122.14515, 37.76198], [-122.14515, 37.76199], [-122.14515, 37.76199], [-122.14515, 37.762], [-122.14515, 37.762], [-122.14515, 37.76201], [-122.14515, 37.76201], [-122.14515, 37.76201], [-122.14515, 37.76202], [-122.14515, 37.76202], [-122.14515, 37.76203], [-122.14515, 37.76203], [-122.14515, 37.76204], [-122.14516, 37.76204], [-122.14516, 37.76204], [-122.14516, 37.76205], [-122.14516, 37.76205], [-122.14516, 37.76206], [-122.14516, 37.76206], [-122.14517, 37.76206], [-122.14517, 37.76207], [-122.14517, 37.76207], [-122.14517, 37.76208], [-122.14518, 37.76208], [-122.14518, 37.76208], [-122.14518, 37.76209], [-122.14518, 37.76209], [-122.14519, 37.7621], [-122.14519, 37.7621], [-122.14519, 37.7621], [-122.14519, 37.76211], [-122.14525, 37.76218], [-122.14538, 37.76234], [-122.14646, 37.76369], [-122.14689, 37.76422], [-122.14672, 37.7643], [-122.1464, 37.76446], [-122.14641, 37.76448], [-122.14641, 37.76449], [-122.14642, 37.76449], [-122.14642, 37.7645], [-122.14643, 37.7645], [-122.14643, 37.76451], [-122.14644, 37.76452], [-122.14644, 37.76452], [-122.14644, 37.76453], [-122.14645, 37.76454], [-122.14645, 37.76454], [-122.14645, 37.76455], [-122.14646, 37.76456], [-122.14646, 37.76456], [-122.14646, 37.76457], [-122.14647, 37.76458], [-122.14647, 37.76458], [-122.14647, 37.76459], [-122.14647, 37.7646], [-122.14648, 37.7646], [-122.14648, 37.76461], [-122.14648, 37.76462], [-122.14648, 37.76462], [-122.14648, 37.76463], [-122.14649, 37.76464], [-122.14649, 37.76465], [-122.14649, 37.76465], [-122.14649, 37.76466], [-122.14649, 37.76467], [-122.14649, 37.76467], [-122.14649, 37.76468], [-122.14649, 37.76469], [-122.14649, 37.7647], [-122.14649, 37.7647], [-122.14649, 37.76471], [-122.14649, 37.76472], [-122.14649, 37.76472], [-122.14649, 37.76473], [-122.14649, 37.76474], [-122.14649, 37.76475], [-122.14649, 37.76475], [-122.14649, 37.76476], [-122.14648, 37.76477], [-122.14648, 37.76477], [-122.14648, 37.76478], [-122.14648, 37.76479], [-122.14648, 37.76479], [-122.14648, 37.7648], [-122.14647, 37.76481], [-122.14647, 37.76482], [-122.14647, 37.76482], [-122.14647, 37.76483], [-122.14646, 37.76484], [-122.14646, 37.76484], [-122.14646, 37.76485], [-122.14645, 37.76486], [-122.14645, 37.76486], [-122.14645, 37.76487], [-122.14644, 37.76488], [-122.14644, 37.76488], [-122.14643, 37.76489], [-122.14643, 37.76489], [-122.14643, 37.7649], [-122.14642, 37.76491], [-122.14642, 37.76491], [-122.14641, 37.76492], [-122.14641, 37.76493], [-122.1464, 37.76493], [-122.1464, 37.76494], [-122.14639, 37.76494], [-122.14639, 37.76495], [-122.14638, 37.76495], [-122.14618, 37.76514], [-122.14612, 37.7651], [-122.14591, 37.76529], [-122.14597, 37.76533], [-122.14567, 37.7656], [-122.14522, 37.766], [-122.1448, 37.76638], [-122.14399, 37.76712], [-122.14395, 37.76715], [-122.14391, 37.76719], [-122.14387, 37.76722], [-122.14383, 37.76725], [-122.14378, 37.76729], [-122.14374, 37.76732], [-122.1437, 37.76735], [-122.14365, 37.76738], [-122.14361, 37.76741], [-122.14356, 37.76744], [-122.14351, 37.76747], [-122.14347, 37.76749], [-122.14342, 37.76752], [-122.14337, 37.76755], [-122.14332, 37.76757], [-122.14327, 37.7676], [-122.14322, 37.76762], [-122.14317, 37.76765], [-122.14312, 37.76767], [-122.14307, 37.76769], [-122.14301, 37.76771], [-122.14296, 37.76773], [-122.14291, 37.76775], [-122.14285, 37.76777], [-122.1428, 37.76779], [-122.14275, 37.76781], [-122.14269, 37.76783], [-122.14264, 37.76784], [-122.14258, 37.76786], [-122.14253, 37.76787], [-122.14247, 37.76789], [-122.14241, 37.7679], [-122.14236, 37.76791], [-122.1423, 37.76793], [-122.14224, 37.76794], [-122.14218, 37.76795], [-122.14213, 37.76796], [-122.14207, 37.76796], [-122.14201, 37.76797], [-122.14195, 37.76798], [-122.14189, 37.76799], [-122.14184, 37.76799], [-122.14178, 37.76799], [-122.14172, 37.768], [-122.14166, 37.768], [-122.1416, 37.768], [-122.14154, 37.768], [-122.14148, 37.768], [-122.14142, 37.768], [-122.14137, 37.768], [-122.14131, 37.768], [-122.14125, 37.768], [-122.14119, 37.76799], [-122.14113, 37.76799], [-122.14107, 37.76798], [-122.14101, 37.76798], [-122.14096, 37.76797], [-122.1409, 37.76796], [-122.14084, 37.76796], [-122.14078, 37.76795], [-122.14072, 37.76794], [-122.14069, 37.76793], [-122.14066, 37.76793], [-122.14064, 37.76792], [-122.14061, 37.76792], [-122.14058, 37.76791], [-122.14055, 37.76791], [-122.14052, 37.76791], [-122.14049, 37.76791], [-122.14046, 37.7679], [-122.14043, 37.7679], [-122.1404, 37.7679], [-122.14037, 37.7679], [-122.14033, 37.7679], [-122.1403, 37.7679], [-122.14027, 37.7679], [-122.14024, 37.7679], [-122.14021, 37.7679], [-122.14018, 37.76791], [-122.14015, 37.76791], [-122.14012, 37.76791], [-122.14009, 37.76791], [-122.14006, 37.76792], [-122.14003, 37.76792], [-122.14, 37.76793], [-122.13998, 37.76793], [-122.13995, 37.76794], [-122.13992, 37.76794], [-122.13989, 37.76795], [-122.13986, 37.76795], [-122.13983, 37.76796], [-122.1398, 37.76797], [-122.13977, 37.76798], [-122.13974, 37.76798], [-122.13971, 37.76799], [-122.13969, 37.768], [-122.13966, 37.76801], [-122.13963, 37.76802], [-122.1396, 37.76803], [-122.13958, 37.76804], [-122.13955, 37.76805], [-122.13952, 37.76806], [-122.1395, 37.76807], [-122.13947, 37.76808], [-122.13944, 37.7681], [-122.13942, 37.76811], [-122.13939, 37.76812], [-122.13937, 37.76814], [-122.13934, 37.76815], [-122.13932, 37.76816], [-122.13929, 37.76818], [-122.13927, 37.76819], [-122.13923, 37.76821], [-122.13895, 37.7684], [-122.13859, 37.76892], [-122.14025, 37.7704], [-122.14027, 37.77042], [-122.14104, 37.77096], [-122.14127, 37.77108], [-122.14129, 37.7711], [-122.1413, 37.77111], [-122.14132, 37.77111], [-122.14133, 37.77112], [-122.14135, 37.77113], [-122.14136, 37.77114], [-122.14137, 37.77115], [-122.14139, 37.77116], [-122.1414, 37.77117], [-122.14141, 37.77118], [-122.14142, 37.77119], [-122.14144, 37.7712], [-122.14145, 37.77121], [-122.14146, 37.77122], [-122.14169, 37.77144]], [[-122.15064, 37.7657], [-122.15066, 37.76572], [-122.15068, 37.76574], [-122.15069, 37.76576], [-122.15071, 37.76578], [-122.15073, 37.7658], [-122.15074, 37.76582], [-122.15076, 37.76584], [-122.15078, 37.76586], [-122.1508, 37.76588], [-122.15083, 37.76591], [-122.15084, 37.76592], [-122.15085, 37.76593], [-122.15086, 37.76594], [-122.15086, 37.76595], [-122.15087, 37.76596], [-122.15088, 37.76597], [-122.15089, 37.76598], [-122.1509, 37.76599], [-122.15091, 37.766], [-122.15092, 37.766], [-122.15093, 37.76601], [-122.15094, 37.76602], [-122.15095, 37.76603], [-122.15096, 37.76604], [-122.15097, 37.76605], [-122.1512, 37.76624], [-122.1514, 37.76636], [-122.1514, 37.76637], [-122.15141, 37.76637], [-122.15141, 37.76637], [-122.15142, 37.76638], [-122.15142, 37.76638], [-122.15142, 37.76638], [-122.15143, 37.76639], [-122.15143, 37.76639], [-122.15144, 37.76639], [-122.15144, 37.7664], [-122.15144, 37.7664], [-122.15145, 37.7664], [-122.15145, 37.76641], [-122.15146, 37.76641], [-122.15146, 37.76642], [-122.15146, 37.76642], [-122.15147, 37.76642], [-122.15147, 37.76643], [-122.15147, 37.76643], [-122.15148, 37.76644], [-122.15148, 37.76644], [-122.15148, 37.76644], [-122.15148, 37.76645], [-122.15149, 37.76645], [-122.15149, 37.76646], [-122.15149, 37.76646], [-122.1515, 37.76647], [-122.1515, 37.76647], [-122.1515, 37.76648], [-122.1515, 37.76648], [-122.1515, 37.76648], [-122.15151, 37.76649], [-122.15151, 37.76649], [-122.15151, 37.7665], [-122.15151, 37.7665], [-122.15151, 37.76651], [-122.15151, 37.76651], [-122.15152, 37.76652], [-122.15152, 37.76652], [-122.15152, 37.76653], [-122.15152, 37.76653], [-122.15152, 37.76654], [-122.15152, 37.76654], [-122.15152, 37.76655], [-122.15152, 37.76655], [-122.15152, 37.76656], [-122.15152, 37.76656], [-122.15152, 37.76657], [-122.15152, 37.76657], [-122.15152, 37.76657], [-122.15152, 37.76658], [-122.15152, 37.76658], [-122.15152, 37.76659], [-122.15152, 37.76659], [-122.15152, 37.7666], [-122.15152, 37.7666], [-122.15152, 37.76661], [-122.15152, 37.76661], [-122.15152, 37.76662], [-122.15152, 37.76662], [-122.15139, 37.76723], [-122.15139, 37.76725], [-122.15138, 37.76728], [-122.15138, 37.7673], [-122.15138, 37.76733], [-122.15137, 37.76735], [-122.15137, 37.76736], [-122.15108, 37.76737], [-122.1507, 37.76749], [-122.15057, 37.76781], [-122.15041, 37.76821], [-122.1504, 37.76824], [-122.15039, 37.76825], [-122.15039, 37.76826], [-122.15038, 37.76827], [-122.15038, 37.76828], [-122.15037, 37.76829], [-122.15036, 37.7683], [-122.15036, 37.76831], [-122.15035, 37.76832], [-122.15034, 37.76833], [-122.15033, 37.76834], [-122.15033, 37.76835], [-122.15032, 37.76836], [-122.15031, 37.76837], [-122.1503, 37.76838], [-122.15029, 37.76839], [-122.15029, 37.7684], [-122.15028, 37.76841], [-122.15027, 37.76842], [-122.15026, 37.76843], [-122.15025, 37.76844], [-122.15024, 37.76845], [-122.15023, 37.76845], [-122.15022, 37.76846], [-122.15021, 37.76847], [-122.1502, 37.76848], [-122.15019, 37.76849], [-122.15018, 37.7685], [-122.15017, 37.7685], [-122.15015, 37.76851], [-122.14985, 37.76873], [-122.14985, 37.76873], [-122.14984, 37.76873], [-122.14984, 37.76874], [-122.14984, 37.76874], [-122.14983, 37.76874], [-122.14983, 37.76874], [-122.14983, 37.76874], [-122.14982, 37.76874], [-122.14982, 37.76874], [-122.14982, 37.76874], [-122.14982, 37.76874], [-122.14981, 37.76875], [-122.14981, 37.76875], [-122.14981, 37.76875], [-122.1498, 37.76875], [-122.1498, 37.76875], [-122.1498, 37.76875], [-122.14979, 37.76875], [-122.14979, 37.76875], [-122.14979, 37.76875], [-122.14978, 37.76875], [-122.14978, 37.76875], [-122.14978, 37.76875], [-122.14977, 37.76875], [-122.14977, 37.76875], [-122.14977, 37.76875], [-122.14976, 37.76875], [-122.14976, 37.76875], [-122.14976, 37.76876], [-122.14975, 37.76876], [-122.14975, 37.76876], [-122.14975, 37.76876], [-122.14974, 37.76876], [-122.14974, 37.76876], [-122.14974, 37.76876], [-122.14973, 37.76876], [-122.14973, 37.76875], [-122.14973, 37.76875], [-122.14972, 37.76875], [-122.14972, 37.76875], [-122.14972, 37.76875], [-122.14971, 37.76875], [-122.14971, 37.76875], [-122.14971, 37.76875], [-122.1497, 37.76875], [-122.1497, 37.76875], [-122.1497, 37.76875], [-122.1497, 37.76875], [-122.14969, 37.76875], [-122.14969, 37.76875], [-122.14969, 37.76875], [-122.14968, 37.76875], [-122.14968, 37.76875], [-122.14968, 37.76875], [-122.14967, 37.76874], [-122.14967, 37.76874], [-122.14967, 37.76874], [-122.14966, 37.76874], [-122.14966, 37.76874], [-122.14966, 37.76874], [-122.14965, 37.76874], [-122.14965, 37.76874], [-122.14965, 37.76873], [-122.14965, 37.76873], [-122.14964, 37.76873], [-122.14964, 37.76873], [-122.14964, 37.76873], [-122.14964, 37.76873], [-122.14963, 37.76873], [-122.14963, 37.76872], [-122.14963, 37.76872], [-122.14962, 37.76872], [-122.14962, 37.76872], [-122.14962, 37.76872], [-122.14962, 37.76872], [-122.14961, 37.76871], [-122.14961, 37.76871], [-122.14961, 37.76871], [-122.14961, 37.76871], [-122.14961, 37.76871], [-122.1496, 37.76871], [-122.1496, 37.7687], [-122.1496, 37.7687], [-122.1496, 37.7687], [-122.14959, 37.7687], [-122.14959, 37.76869], [-122.14959, 37.76869], [-122.14959, 37.76869], [-122.14959, 37.76869], [-122.14958, 37.76869], [-122.14958, 37.76868], [-122.14958, 37.76868], [-122.14958, 37.76868], [-122.14941, 37.76845], [-122.14941, 37.76845], [-122.14941, 37.76844], [-122.1494, 37.76844], [-122.1494, 37.76844], [-122.1494, 37.76843], [-122.1494, 37.76843], [-122.1494, 37.76843], [-122.1494, 37.76843], [-122.1494, 37.76842], [-122.14939, 37.76842], [-122.14939, 37.76842], [-122.14939, 37.76841], [-122.14939, 37.76841], [-122.14939, 37.76841], [-122.14939, 37.76841], [-122.14939, 37.7684], [-122.14939, 37.7684], [-122.14939, 37.7684], [-122.14939, 37.76839], [-122.14939, 37.76839], [-122.14939, 37.76839], [-122.14938, 37.76838], [-122.14938, 37.76838], [-122.14938, 37.76838], [-122.14938, 37.76838], [-122.14938, 37.76837], [-122.14938, 37.76837], [-122.14938, 37.76837], [-122.14938, 37.76836], [-122.14938, 37.76836], [-122.14938, 37.76836], [-122.14938, 37.76835], [-122.14938, 37.76835], [-122.14939, 37.76835], [-122.14939, 37.76834], [-122.14939, 37.76834], [-122.14939, 37.76834], [-122.14939, 37.76834], [-122.14939, 37.76833], [-122.14939, 37.76833], [-122.14939, 37.76833], [-122.14939, 37.76832], [-122.14939, 37.76832], [-122.14939, 37.76832], [-122.14939, 37.76831], [-122.14939, 37.76831], [-122.1494, 37.76831], [-122.1494, 37.76831], [-122.1494, 37.7683], [-122.1494, 37.7683], [-122.1494, 37.7683], [-122.1494, 37.7683], [-122.1494, 37.76829], [-122.14941, 37.76829], [-122.14941, 37.76829], [-122.14941, 37.76828], [-122.14941, 37.76828], [-122.14941, 37.76828], [-122.14942, 37.76828], [-122.14942, 37.76827], [-122.14942, 37.76827], [-122.14942, 37.76827], [-122.14942, 37.76827], [-122.14943, 37.76826], [-122.14943, 37.76826], [-122.14947, 37.76823], [-122.14951, 37.7682], [-122.14955, 37.76817], [-122.14959, 37.76814], [-122.14962, 37.7681], [-122.14968, 37.76805], [-122.1497, 37.76804], [-122.14971, 37.76802], [-122.14972, 37.76801], [-122.14974, 37.768], [-122.14975, 37.76798], [-122.14976, 37.76797], [-122.14977, 37.76795], [-122.14979, 37.76794], [-122.1498, 37.76793], [-122.14981, 37.76791], [-122.14982, 37.7679], [-122.14983, 37.76788], [-122.14984, 37.76787], [-122.14985, 37.76785], [-122.14986, 37.76784], [-122.14987, 37.76782], [-122.14988, 37.7678], [-122.14989, 37.7678], [-122.15, 37.76758], [-122.15016, 37.76734], [-122.15016, 37.76733], [-122.15016, 37.76733], [-122.15016, 37.76733], [-122.15016, 37.76733], [-122.15017, 37.76732], [-122.15017, 37.76732], [-122.15017, 37.76732], [-122.15017, 37.76731], [-122.15017, 37.76731], [-122.15017, 37.76731], [-122.15018, 37.7673], [-122.15018, 37.7673], [-122.15018, 37.7673], [-122.15018, 37.76729], [-122.15018, 37.76729], [-122.15018, 37.76729], [-122.15018, 37.76728], [-122.15018, 37.76728], [-122.15018, 37.76728], [-122.15018, 37.76727], [-122.15019, 37.76727], [-122.15019, 37.76727], [-122.15019, 37.76726], [-122.15019, 37.76726], [-122.15019, 37.76726], [-122.15019, 37.76725], [-122.15019, 37.76725], [-122.15019, 37.76725], [-122.15019, 37.76724], [-122.15019, 37.76724], [-122.15019, 37.76724], [-122.15019, 37.76723], [-122.15019, 37.76723], [-122.15019, 37.76723], [-122.15019, 37.76722], [-122.15019, 37.76722], [-122.15019, 37.76722], [-122.15018, 37.76721], [-122.15018, 37.76721], [-122.15018, 37.76721], [-122.15018, 37.7672], [-122.15018, 37.7672], [-122.15018, 37.7672], [-122.15018, 37.76719], [-122.15018, 37.76719], [-122.15018, 37.76719], [-122.15018, 37.76718], [-122.15017, 37.76718], [-122.15017, 37.76718], [-122.15017, 37.76718], [-122.15017, 37.76717], [-122.15017, 37.76717], [-122.15017, 37.76717], [-122.15016, 37.76716], [-122.15016, 37.76716], [-122.15016, 37.76716], [-122.15016, 37.76715], [-122.15016, 37.76715], [-122.15016, 37.76715], [-122.15015, 37.76715], [-122.15015, 37.76714], [-122.15015, 37.76714], [-122.15015, 37.76714], [-122.15014, 37.76713], [-122.15014, 37.76713], [-122.15014, 37.76713], [-122.15014, 37.76713], [-122.15013, 37.76712], [-122.15013, 37.76712], [-122.15013, 37.76712], [-122.15013, 37.76712], [-122.15012, 37.76711], [-122.15012, 37.76711], [-122.15012, 37.76711], [-122.15011, 37.76711], [-122.15011, 37.7671], [-122.15011, 37.7671], [-122.1501, 37.7671], [-122.1501, 37.7671], [-122.1501, 37.76709], [-122.15009, 37.76709], [-122.15009, 37.76709], [-122.15009, 37.76709], [-122.15008, 37.76709], [-122.15008, 37.76708], [-122.15008, 37.76708], [-122.15007, 37.76708], [-122.15007, 37.76708], [-122.15007, 37.76708], [-122.15006, 37.76708], [-122.15006, 37.76707], [-122.15005, 37.76707], [-122.14956, 37.76688], [-122.1499, 37.76619], [-122.15, 37.76603], [-122.15038, 37.7657], [-122.15042, 37.76551], [-122.15064, 37.7657]], [[-122.14932, 37.76688], [-122.14946, 37.7669], [-122.14965, 37.76698], [-122.14994, 37.7671], [-122.14994, 37.7671], [-122.14995, 37.7671], [-122.14995, 37.7671], [-122.14995, 37.7671], [-122.14996, 37.7671], [-122.14996, 37.76711], [-122.14996, 37.76711], [-122.14997, 37.76711], [-122.14997, 37.76711], [-122.14997, 37.76711], [-122.14998, 37.76711], [-122.14998, 37.76711], [-122.14998, 37.76712], [-122.14998, 37.76712], [-122.14999, 37.76712], [-122.14999, 37.76712], [-122.14999, 37.76712], [-122.15, 37.76712], [-122.15, 37.76713], [-122.15, 37.76713], [-122.15, 37.76713], [-122.15001, 37.76713], [-122.15001, 37.76713], [-122.15001, 37.76714], [-122.15001, 37.76714], [-122.15002, 37.76714], [-122.15002, 37.76714], [-122.15002, 37.76714], [-122.15002, 37.76715], [-122.15003, 37.76715], [-122.15003, 37.76715], [-122.15003, 37.76715], [-122.15003, 37.76715], [-122.15003, 37.76716], [-122.15004, 37.76716], [-122.15004, 37.76716], [-122.15004, 37.76716], [-122.15004, 37.76717], [-122.15004, 37.76717], [-122.15005, 37.76717], [-122.15005, 37.76717], [-122.15005, 37.76718], [-122.15005, 37.76718], [-122.15005, 37.76718], [-122.15005, 37.76718], [-122.15006, 37.76719], [-122.15006, 37.76719], [-122.15006, 37.76719], [-122.15006, 37.76719], [-122.15006, 37.7672], [-122.15006, 37.7672], [-122.15006, 37.7672], [-122.15006, 37.76721], [-122.15006, 37.76721], [-122.15007, 37.76721], [-122.15007, 37.76721], [-122.15007, 37.76722], [-122.15007, 37.76722], [-122.15007, 37.76722], [-122.15007, 37.76722], [-122.15007, 37.76723], [-122.15007, 37.76723], [-122.15007, 37.76723], [-122.15007, 37.76724], [-122.15007, 37.76724], [-122.15007, 37.76724], [-122.15007, 37.76724], [-122.15007, 37.76725], [-122.15007, 37.76725], [-122.15007, 37.76725], [-122.15007, 37.76726], [-122.15007, 37.76726], [-122.15007, 37.76726], [-122.15007, 37.76726], [-122.15007, 37.76727], [-122.15007, 37.76727], [-122.15007, 37.76727], [-122.15007, 37.76728], [-122.15007, 37.76728], [-122.15007, 37.76728], [-122.15007, 37.76728], [-122.15007, 37.76729], [-122.15006, 37.76729], [-122.15006, 37.76729], [-122.15006, 37.76729], [-122.15006, 37.7673], [-122.15006, 37.7673], [-122.15006, 37.7673], [-122.15006, 37.76731], [-122.15006, 37.76731], [-122.15006, 37.76731], [-122.15005, 37.76731], [-122.1499, 37.76753], [-122.1499, 37.76753], [-122.1499, 37.76753], [-122.1499, 37.76753], [-122.1499, 37.76753], [-122.1499, 37.76753], [-122.1499, 37.76753], [-122.1499, 37.76754], [-122.1499, 37.76754], [-122.14989, 37.76754], [-122.14989, 37.76754], [-122.14989, 37.76754], [-122.14989, 37.76754], [-122.14989, 37.76754], [-122.14989, 37.76754], [-122.14989, 37.76754], [-122.14989, 37.76754], [-122.14988, 37.76754], [-122.14988, 37.76755], [-122.14988, 37.76755], [-122.14988, 37.76755], [-122.14988, 37.76755], [-122.14988, 37.76755], [-122.14988, 37.76755], [-122.14987, 37.76755], [-122.14987, 37.76755], [-122.14987, 37.76755], [-122.14987, 37.76755], [-122.14987, 37.76755], [-122.14987, 37.76755], [-122.14987, 37.76755], [-122.14986, 37.76756], [-122.14986, 37.76756], [-122.14986, 37.76756], [-122.14986, 37.76756], [-122.14986, 37.76756], [-122.14986, 37.76756], [-122.14985, 37.76756], [-122.14985, 37.76756], [-122.14985, 37.76756], [-122.14985, 37.76756], [-122.14985, 37.76756], [-122.14985, 37.76756], [-122.14984, 37.76756], [-122.14984, 37.76756], [-122.14984, 37.76756], [-122.14984, 37.76756], [-122.14984, 37.76756], [-122.14984, 37.76756], [-122.14983, 37.76756], [-122.14983, 37.76756], [-122.14983, 37.76756], [-122.14983, 37.76756], [-122.14983, 37.76756], [-122.14983, 37.76756], [-122.14982, 37.76756], [-122.14982, 37.76756], [-122.14982, 37.76756], [-122.14982, 37.76756], [-122.14982, 37.76756], [-122.14982, 37.76756], [-122.14981, 37.76756], [-122.14981, 37.76756], [-122.14981, 37.76756], [-122.14981, 37.76756], [-122.14981, 37.76756], [-122.14981, 37.76756], [-122.1498, 37.76756], [-122.1498, 37.76756], [-122.1498, 37.76756], [-122.1498, 37.76756], [-122.1498, 37.76756], [-122.1498, 37.76756], [-122.14979, 37.76756], [-122.14979, 37.76756], [-122.14979, 37.76756], [-122.14979, 37.76756], [-122.14979, 37.76756], [-122.14979, 37.76756], [-122.14978, 37.76756], [-122.14978, 37.76756], [-122.14978, 37.76756], [-122.14978, 37.76755], [-122.14978, 37.76755], [-122.14978, 37.76755], [-122.14978, 37.76755], [-122.14977, 37.76755], [-122.14977, 37.76755], [-122.14934, 37.76733], [-122.14918, 37.76726], [-122.14916, 37.76725], [-122.14914, 37.76724], [-122.14912, 37.76724], [-122.1491, 37.76723], [-122.14908, 37.76723], [-122.14906, 37.76722], [-122.14904, 37.76722], [-122.14902, 37.76722], [-122.149, 37.76721], [-122.14898, 37.76721], [-122.14895, 37.76721], [-122.14893, 37.7672], [-122.14891, 37.7672], [-122.14889, 37.7672], [-122.14887, 37.7672], [-122.14885, 37.76719], [-122.14882, 37.76719], [-122.1489, 37.76701], [-122.14903, 37.76676], [-122.14932, 37.76688]]]}, "properties": {"APN_12": "043A467500323", "FULL_SITUS": "8750 MOUNTAIN BLVD OAKLAND 94605", "YEARBUILT": 0, "TOTALCAP": 267, "VLOWCAP": 0, "LOWCAP": 0, "MODCAP": 0, "AMODCAP": 267, "ZNLABEL_1": "NA", "GPLANCODE": 0, "HESITETYPE": "Potential Project", "RHNACAT": "Above-Moderate-Income", "STATUS": "Available (Pre-Approval Stage)", "BLDG_AREA_": 0, "SHP_NO_UNI": 0, "SITUS_CITY": "OAKLAND", "SITUS_ZIP_": 94605, "USEDESCRIP": "Vacant residential tract lot", "BASEZONE_1": "RH-4"}}, {"type": "Feature", "geometry": {"type": "Polygon", "coordinates": [[[-122.27298, 37.80516], [-122.27291, 37.80528], [-122.27291, 37.80528], [-122.27289, 37.80531], [-122.27289, 37.80531], [-122.27288, 37.80535], [-122.27287, 37.80538], [-122.27277, 37.80555], [-122.27274, 37.80554], [-122.27266, 37.80567], [-122.2731, 37.80584], [-122.27342, 37.80533], [-122.27298, 37.80516]]]}, "properties": {"APN_12": "003 006700400", "FULL_SITUS": "1414 CLAY ST OAKLAND 94612", "YEARBUILT": 0, "TOTALCAP": 255, "VLOWCAP": 0, "LOWCAP": 255, "MODCAP": 0, "AMODCAP": 0, "ZNLABEL_1": "NA", "GPLANCODE": 8, "HESITETYPE": "Other Opportunity", "RHNACAT": "Lower-Income", "STATUS": "Available", "BLDG_AREA_": 0, "SHP_NO_UNI": 0, "SITUS_CITY": "OAKLAND", "SITUS_ZIP_": 94612, "USEDESCRIP": "Exempt Public Agency", "BASEZONE_1": "CBD-C"}}, {"type": "Feature", "geometry": {"type": "Polygon", "coordinates": [[[-122.26488, 37.80142], [-122.26494, 37.80144], [-122.26509, 37.8012], [-122.26456, 37.80099], [-122.26441, 37.80123], [-122.26472, 37.80136], [-122.26488, 37.80142]]]}, "properties": {"APN_12": "002 007900500", "FULL_SITUS": "1309 MADISON ST OAKLAND 94612", "YEARBUILT": 0, "TOTALCAP": 253, "VLOWCAP": 0, "LOWCAP": 0, "MODCAP": 0, "AMODCAP": 253, "ZNLABEL_1": "NA", "GPLANCODE": 8, "HESITETYPE": "Potential Project", "RHNACAT": "Above-Moderate-Income", "STATUS": "Available (Pre-Approval Stage)", "BLDG_AREA_": 0, "SHP_NO_UNI": 0, "SITUS_CITY": "OAKLAND", "SITUS_ZIP_": 94612, "USEDESCRIP": "Vacant apartment land, capable of 5 or more units", "BASEZONE_1": "D-LM-4"}}, {"type": "Feature", "geometry": {"type": "Polygon", "coordinates": [[[-122.19637, 37.7456], [-122.19636, 37.7456], [-122.19636, 37.7456], [-122.19636, 37.7456], [-122.19636, 37.7456], [-122.19636, 37.7456], [-122.19636, 37.7456], [-122.19635, 37.7456], [-122.19635, 37.7456], [-122.19635, 37.74561], [-122.19635, 37.74561], [-122.19635, 37.74561], [-122.19635, 37.74561], [-122.19635, 37.74561], [-122.19635, 37.74561], [-122.19634, 37.74561], [-122.19634, 37.74561], [-122.19634, 37.74561], [-122.19634, 37.74561], [-122.19634, 37.74561], [-122.19634, 37.74561], [-122.19634, 37.74561], [-122.19633, 37.74561], [-122.19633, 37.74561], [-122.19633, 37.74561], [-122.19633, 37.74562], [-122.19633, 37.74562], [-122.19633, 37.74562], [-122.19633, 37.74562], [-122.19633, 37.74562], [-122.19633, 37.74562], [-122.19633, 37.74562], [-122.19633, 37.74562], [-122.19632, 37.74562], [-122.19632, 37.74562], [-122.19632, 37.74563], [-122.19632, 37.74563], [-122.19632, 37.74563], [-122.19632, 37.74563], [-122.19632, 37.74563], [-122.19632, 37.74563], [-122.19632, 37.74563], [-122.19632, 37.74563], [-122.19632, 37.74563], [-122.19632, 37.74564], [-122.19632, 37.74564], [-122.19632, 37.74564], [-122.19632, 37.74564], [-122.19632, 37.74564], [-122.19632, 37.74564], [-122.19632, 37.74564], [-122.19632, 37.74564], [-122.19632, 37.74686], [-122.19632, 37.74693], [-122.19632, 37.747], [-122.19632, 37.74707], [-122.19633, 37.74714], [-122.19634, 37.74721], [-122.19635, 37.74733], [-122.19649, 37.74821], [-122.19656, 37.74821], [-122.19834, 37.74822], [-122.1984, 37.74822], [-122.19837, 37.74584], [-122.19638, 37.7456], [-122.19637, 37.7456], [-122.19637, 37.7456], [-122.19637, 37.7456], [-122.19637, 37.7456], [-122.19637, 37.7456], [-122.19637, 37.7456]]]}, "properties": {"APN_12": "042 432800116", "FULL_SITUS": "633 HEGENBERGER RD OAKLAND 94621", "YEARBUILT": 0, "TOTALCAP": 250, "VLOWCAP": 0, "LOWCAP": 236, "MODCAP": 4, "AMODCAP": 10, "ZNLABEL_1": "NA", "GPLANCODE": 9, "HESITETYPE": "Other Opportunity", "RHNACAT": "Mixed-Income", "STATUS": "Available", "BLDG_AREA_": 0, "SHP_NO_UNI": 0, "SITUS_CITY": "OAKLAND", "SITUS_ZIP_": 94621, "USEDESCRIP": "Exempt Public Agency", "BASEZONE_1": "CC-2"}}, {"type": "Feature", "geometry": {"type": "Polygon", "coordinates": [[[-122.17671, 37.76789], [-122.17757, 37.76873], [-122.17819, 37.76833], [-122.17642, 37.7666], [-122.1759, 37.76693], [-122.17626, 37.76729], [-122.17626, 37.76729], [-122.17626, 37.76729], [-122.17617, 37.76735], [-122.17617, 37.76735], [-122.17617, 37.76735], [-122.1764, 37.76758], [-122.1764, 37.76758], [-122.1764, 37.76758], [-122.17639, 37.76758], [-122.17639, 37.76758], [-122.17639, 37.76758], [-122.17671, 37.76789], [-122.17671, 37.76789], [-122.17671, 37.76789], [-122.17671, 37.76789]]]}, "properties": {"APN_12": "039 329102200", "FULL_SITUS": "7200 BANCROFT AVE OAKLAND 94605", "YEARBUILT": 1973, "TOTALCAP": 243, "VLOWCAP": 0, "LOWCAP": 58, "MODCAP": 5, "AMODCAP": 180, "ZNLABEL_1": "NA", "GPLANCODE": 6, "HESITETYPE": "Other Opportunity", "RHNACAT": "Mixed-Income", "STATUS": "Available", "BLDG_AREA_": 114893, "SHP_NO_UNI": 0, "SITUS_CITY": "OAKLAND", "SITUS_ZIP_": 94605, "USEDESCRIP": "Shopping Center-NBHD without anchor (strip mall)", "BASEZONE_1": "CC-2"}}], "exceededTransferLimit": true, "properties": {"exceededTransferLimit": true}}