{"type": "FeatureCollection", "features": [{"type": "Feature", "geometry": {"type": "Polygon", "coordinates": [[[-122.29087, 37.80545], [-122.29204, 37.80572], [-122.29206, 37.80567], [-122.2921, 37.80554], [-122.29187, 37.80526], [-122.29176, 37.80516], [-122.29176, 37.80501], [-122.29152, 37.80471], [-122.29116, 37.80464], [-122.29087, 37.80545]]]}, "properties": {"property_id": "BB-001", "address": "1300 7TH ST OAKLAND 94607", "neighborhood": "West Oakland", "primary_blocker": "ENVIRONMENTAL_REMEDIATION", "candidate_potential_units": 24, "potential_units_source": "DEMO", "housing_element_capacity": 376, "block_id": "west-oakland-7th", "layer": "candidate"}}, {"type": "Feature", "geometry": {"type": "Polygon", "coordinates": [[[-122.29054, 37.80419], [-122.29054, 37.80419], [-122.29054, 37.80419], [-122.29054, 37.80422], [-122.29111, 37.80434], [-122.29107, 37.8043], [-122.29107, 37.8043], [-122.29107, 37.8043], [-122.29106, 37.8043], [-122.29106, 37.8043], [-122.29106, 37.8043], [-122.29106, 37.8043], [-122.29106, 37.8043], [-122.29106, 37.8043], [-122.29106, 37.8043], [-122.29106, 37.8043], [-122.29106, 37.8043], [-122.29106, 37.8043], [-122.29106, 37.8043], [-122.29106, 37.8043], [-122.29106, 37.8043], [-122.29106, 37.8043], [-122.29106, 37.8043], [-122.29102, 37.80427], [-122.29102, 37.80427], [-122.29102, 37.80427], [-122.29101, 37.80426], [-122.29101, 37.80426], [-122.29101, 37.80426], [-122.29101, 37.80426], [-122.291, 37.80425], [-122.291, 37.80425], [-122.291, 37.80425], [-122.291, 37.80425], [-122.291, 37.80425], [-122.29099, 37.80424], [-122.29098, 37.80424], [-122.29097, 37.80423], [-122.29097, 37.80423], [-122.29097, 37.80423], [-122.29097, 37.80423], [-122.29097, 37.80423], [-122.29097, 37.80423], [-122.29097, 37.80423], [-122.29097, 37.80423], [-122.29097, 37.80423], [-122.29096, 37.80423], [-122.29096, 37.80423], [-122.29094, 37.80421], [-122.29094, 37.80421], [-122.29093, 37.8042], [-122.29093, 37.8042], [-122.29093, 37.8042], [-122.29093, 37.8042], [-122.29093, 37.8042], [-122.29093, 37.8042], [-122.29093, 37.8042], [-122.29093, 37.8042], [-122.29092, 37.8042], [-122.29092, 37.80419], [-122.29092, 37.80419], [-122.29092, 37.80419], [-122.29081, 37.80412], [-122.2907, 37.80405], [-122.2907, 37.80405], [-122.2907, 37.80405], [-122.2907, 37.80405], [-122.2907, 37.80405], [-122.2907, 37.80405], [-122.2907, 37.80405], [-122.2907, 37.80405], [-122.2907, 37.80404], [-122.2907, 37.80404], [-122.2907, 37.80404], [-122.29069, 37.80404], [-122.29069, 37.80404], [-122.29069, 37.80404], [-122.29069, 37.80404], [-122.29069, 37.80404], [-122.29066, 37.80402], [-122.29066, 37.80402], [-122.29066, 37.80402], [-122.29066, 37.80402], [-122.29066, 37.80402], [-122.29065, 37.80402], [-122.29065, 37.80402], [-122.29065, 37.80402], [-122.29064, 37.80401], [-122.29064, 37.80401], [-122.29063, 37.80403], [-122.29062, 37.80404], [-122.2906, 37.80406], [-122.2906, 37.80408], [-122.29059, 37.80408], [-122.29059, 37.80408], [-122.29059, 37.80409], [-122.29059, 37.8041], [-122.29058, 37.80411], [-122.29058, 37.80411], [-122.29058, 37.80411], [-122.29058, 37.80412], [-122.29058, 37.80412], [-122.29058, 37.80412], [-122.29058, 37.80412], [-122.29057, 37.80414], [-122.29056, 37.80416], [-122.29055, 37.80418], [-122.29054, 37.80419]]]}, "properties": {"property_id": "BB-002", "address": "1255 7TH ST OAKLAND 94607", "neighborhood": "West Oakland", "primary_blocker": "FUNDING_GAP", "candidate_potential_units": 12, "potential_units_source": "DEMO", "housing_element_capacity": 0, "block_id": "west-oakland-7th", "layer": "candidate"}}, {"type": "Feature", "geometry": {"type": "Polygon", "coordinates": [[[-122.29444, 37.8153], [-122.29564, 37.8159], [-122.29607, 37.81536], [-122.29487, 37.81476], [-122.29444, 37.8153]]]}, "properties": {"property_id": "BB-003", "address": "1708 WOOD ST OAKLAND 94607", "neighborhood": "West Oakland", "primary_blocker": "PLANNING_REVIEW", "candidate_potential_units": 11, "potential_units_source": "DEMO", "housing_element_capacity": 54, "block_id": "west-oakland-7th", "layer": "candidate"}}, {"type": "Feature", "geometry": {"type": "MultiPolygon", "coordinates": [[[[-122.23684, 37.7833], [-122.23684, 37.7833], [-122.23673, 37.78341], [-122.23653, 37.78362], [-122.23653, 37.78363], [-122.23667, 37.78371], [-122.23698, 37.78338], [-122.23691, 37.78333], [-122.23685, 37.7833], [-122.23684, 37.7833], [-122.23684, 37.7833]]], [[[-122.23643, 37.78357], [-122.23649, 37.7836], [-122.23643, 37.78357], [-122.23643, 37.78357]]]]}, "properties": {"property_id": "BB-004", "address": "2257 INTERNATIONAL BLVD OAKLAND 94606", "neighborhood": "San Antonio", "primary_blocker": "FUNDING_GAP", "candidate_potential_units": 14, "potential_units_source": "DEMO", "housing_element_capacity": 0, "block_id": null, "layer": "candidate"}}, {"type": "Feature", "geometry": {"type": "Polygon", "coordinates": [[[-122.20174, 37.75514], [-122.20268, 37.75596], [-122.20272, 37.75594], [-122.20394, 37.75553], [-122.20393, 37.75551], [-122.20397, 37.75549], [-122.20401, 37.75548], [-122.20405, 37.75546], [-122.20409, 37.75544], [-122.20413, 37.75543], [-122.20417, 37.75541], [-122.20421, 37.75539], [-122.20425, 37.75537], [-122.20429, 37.75536], [-122.20433, 37.75534], [-122.20437, 37.75532], [-122.20441, 37.75529], [-122.20445, 37.75527], [-122.2045, 37.75524], [-122.20472, 37.75511], [-122.2047, 37.75509], [-122.2047, 37.75508], [-122.20471, 37.75508], [-122.20471, 37.75508], [-122.20471, 37.75508], [-122.20471, 37.75508], [-122.20472, 37.75507], [-122.20472, 37.75507], [-122.20472, 37.75507], [-122.20473, 37.75507], [-122.20473, 37.75506], [-122.20473, 37.75506], [-122.20473, 37.75506], [-122.20474, 37.75506], [-122.20474, 37.75505], [-122.20474, 37.75505], [-122.20474, 37.75505], [-122.20475, 37.75505], [-122.20475, 37.75504], [-122.20475, 37.75504], [-122.20475, 37.75504], [-122.20476, 37.75504], [-122.20476, 37.75503], [-122.20476, 37.75503], [-122.20476, 37.75503], [-122.20476, 37.75502], [-122.20477, 37.75502], [-122.20477, 37.75502], [-122.20477, 37.75502], [-122.20477, 37.75501], [-122.20477, 37.75501], [-122.20477, 37.75501], [-122.20478, 37.755], [-122.20478, 37.755], [-122.20478, 37.755], [-122.20478, 37.75499], [-122.20478, 37.75499], [-122.20478, 37.75499], [-122.20478, 37.75499], [-122.20478, 37.75498], [-122.20479, 37.75498], [-122.20479, 37.75498], [-122.20479, 37.75497], [-122.20479, 37.75497], [-122.20479, 37.75497], [-122.20479, 37.75496], [-122.20479, 37.75496], [-122.20479, 37.75496], [-122.20479, 37.75495], [-122.20479, 37.75495], [-122.20479, 37.75495], [-122.20479, 37.75494], [-122.20479, 37.75494], [-122.20479, 37.75494], [-122.20479, 37.75493], [-122.20479, 37.75493], [-122.20479, 37.75493], [-122.20479, 37.75492], [-122.20479, 37.75492], [-122.20479, 37.75492], [-122.20479, 37.75491], [-122.20479, 37.75491], [-122.20479, 37.75491], [-122.20479, 37.7549], [-122.20479, 37.7549], [-122.20479, 37.7549], [-122.20479, 37.7549], [-122.20478, 37.75489], [-122.20478, 37.75489], [-122.20478, 37.75489], [-122.20478, 37.75488], [-122.20478, 37.75488], [-122.20478, 37.75488], [-122.20478, 37.75487], [-122.20478, 37.75487], [-122.20477, 37.75487], [-122.20477, 37.75486], [-122.20477, 37.75486], [-122.20477, 37.75486], [-122.20477, 37.75486], [-122.20477, 37.75485], [-122.20476, 37.75485], [-122.20476, 37.75485], [-122.20476, 37.75484], [-122.20476, 37.75484], [-122.20476, 37.75484], [-122.20475, 37.75484], [-122.20475, 37.75483], [-122.20475, 37.75483], [-122.20475, 37.75483], [-122.20474, 37.75482], [-122.20474, 37.75482], [-122.20474, 37.75482], [-122.20474, 37.75482], [-122.20473, 37.75481], [-122.20473, 37.75481], [-122.20473, 37.75481], [-122.20472, 37.75481], [-122.20472, 37.75481], [-122.20472, 37.7548], [-122.20471, 37.7548], [-122.2046, 37.75472], [-122.20408, 37.75482], [-122.20381, 37.75483], [-122.2035, 37.75483], [-122.20329, 37.75492], [-122.20264, 37.75509], [-122.20222, 37.75508], [-122.20207, 37.75514], [-122.20174, 37.75514]]]}, "properties": {"property_id": "BB-005", "address": "796 66TH AVE OAKLAND 94621", "neighborhood": "East Oakland", "primary_blocker": "FUNDING_GAP", "candidate_potential_units": 15, "potential_units_source": "DEMO", "housing_element_capacity": 296, "block_id": null, "layer": "candidate"}}, {"type": "Feature", "geometry": {"type": "Polygon", "coordinates": [[[-122.2661, 37.80323], [-122.26657, 37.80341], [-122.26663, 37.80332], [-122.26672, 37.80317], [-122.26626, 37.80298], [-122.2661, 37.80323]]]}, "properties": {"property_id": "BB-006", "address": "1443 ALICE ST OAKLAND 94612", "neighborhood": "Downtown", "primary_blocker": "FUNDING_GAP", "candidate_potential_units": 8, "potential_units_source": "DEMO", "housing_element_capacity": 53, "block_id": null, "layer": "candidate"}}, {"type": "Feature", "geometry": {"type": "Polygon", "coordinates": [[[-122.26091, 37.78925], [-122.261, 37.78933], [-122.2612, 37.78919], [-122.26133, 37.78909], [-122.26133, 37.78909], [-122.26128, 37.78904], [-122.26101, 37.78881], [-122.26068, 37.78904], [-122.26091, 37.78925]]]}, "properties": {"property_id": "BB-007", "address": "48 5TH AVE OAKLAND 94606", "neighborhood": "San Antonio", "primary_blocker": "SPECIALIZED_WORKFORCE_GAP", "candidate_potential_units": 6, "potential_units_source": "DEMO", "housing_element_capacity": 21, "block_id": null, "layer": "candidate"}}, {"type": "Feature", "geometry": {"type": "Polygon", "coordinates": [[[-122.26526, 37.79845], [-122.26542, 37.7982], [-122.26518, 37.79811], [-122.26503, 37.79835], [-122.26526, 37.79845]]]}, "properties": {"property_id": "BB-008", "address": "113 10TH ST OAKLAND 94607", "neighborhood": "Jack London", "primary_blocker": "ASSESSMENT_NEEDED", "candidate_potential_units": 5, "potential_units_source": "DEMO", "housing_element_capacity": 25, "block_id": null, "layer": "candidate"}}, {"type": "Feature", "geometry": {"type": "Polygon", "coordinates": [[[-122.235, 37.78219], [-122.23516, 37.78229], [-122.23531, 37.78214], [-122.23509, 37.78201], [-122.2349, 37.78189], [-122.23475, 37.78204], [-122.23489, 37.78213], [-122.235, 37.78219]]]}, "properties": {"property_id": "BB-009", "address": "1218 MILLER AVE OAKLAND 94601", "neighborhood": "Fruitvale", "primary_blocker": "ENVIRONMENTAL_REVIEW", "candidate_potential_units": 7, "potential_units_source": "DEMO", "housing_element_capacity": 4, "block_id": null, "layer": "candidate"}}, {"type": "Feature", "geometry": {"type": "Polygon", "coordinates": [[[-122.26473, 37.7988], [-122.26498, 37.79889], [-122.26514, 37.79864], [-122.26467, 37.79846], [-122.26451, 37.79871], [-122.26473, 37.7988]]]}, "properties": {"property_id": "BB-010", "address": "102 10TH ST OAKLAND 94607", "neighborhood": "Jack London", "primary_blocker": "READY_FOR_FURTHER_EVALUATION", "candidate_potential_units": 4, "potential_units_source": "DEMO", "housing_element_capacity": 26, "block_id": null, "layer": "candidate"}}, {"type": "Feature", "geometry": {"type": "Polygon", "coordinates": [[[-122.27477, 37.79704], [-122.2752, 37.79721], [-122.27536, 37.79696], [-122.27531, 37.79694], [-122.27531, 37.79694], [-122.27531, 37.79694], [-122.27531, 37.79694], [-122.27531, 37.79694], [-122.27531, 37.79694], [-122.27523, 37.79691], [-122.27523, 37.79691], [-122.27492, 37.79679], [-122.27492, 37.79679], [-122.27477, 37.79704]]]}, "properties": {"property_id": "BB-011", "address": "419 4TH ST OAKLAND 94607", "neighborhood": "Jack London", "primary_blocker": "PLANNING_REVIEW", "candidate_potential_units": 6, "potential_units_source": "DEMO", "housing_element_capacity": 69, "block_id": null, "layer": "candidate"}}, {"type": "Feature", "geometry": {"type": "Polygon", "coordinates": [[[-122.27419, 37.81114], [-122.2745, 37.81064], [-122.27357, 37.8103], [-122.27344, 37.8105], [-122.2737, 37.81131], [-122.27419, 37.81114]]]}, "properties": {"property_id": "BB-012", "address": "2103 SAN PABLO AVE OAKLAND 94612", "neighborhood": "Uptown", "primary_blocker": "REHABILITATION_UNDERWAY", "candidate_potential_units": 8, "potential_units_source": "DEMO", "housing_element_capacity": 500, "block_id": null, "layer": "candidate"}}, {"type": "Feature", "geometry": {"type": "Polygon", "coordinates": [[[-122.26299, 37.83262], [-122.263, 37.83272], [-122.26333, 37.8327], [-122.26336, 37.83259], [-122.26299, 37.83262]]]}, "properties": {"property_id": "BB-013", "address": "4432 TELEGRAPH AVE OAKLAND 94609", "neighborhood": "North Oakland", "primary_blocker": "ASSESSMENT_NEEDED", "candidate_potential_units": 5, "potential_units_source": "DEMO", "housing_element_capacity": 4, "block_id": null, "layer": "candidate"}}, {"type": "Feature", "geometry": {"type": "Polygon", "coordinates": [[[-122.27015, 37.81038], [-122.2707, 37.81047], [-122.27078, 37.81015], [-122.27075, 37.81015], [-122.27082, 37.80988], [-122.27055, 37.80984], [-122.27048, 37.81011], [-122.27048, 37.81011], [-122.27038, 37.81009], [-122.27034, 37.81008], [-122.27023, 37.81006], [-122.27023, 37.81006], [-122.27023, 37.81006], [-122.27023, 37.81006], [-122.27023, 37.81006], [-122.27015, 37.81038]]]}, "properties": {"property_id": "BB-014", "address": "525 21ST ST OAKLAND 94612", "neighborhood": "Uptown", "primary_blocker": "ACTIVATED", "candidate_potential_units": 4, "potential_units_source": "DEMO", "housing_element_capacity": 68, "block_id": null, "layer": "candidate"}}, {"type": "Feature", "geometry": {"type": "Polygon", "coordinates": [[[-122.26588, 37.80451], [-122.26636, 37.80469], [-122.26648, 37.8045], [-122.266, 37.80432], [-122.26588, 37.80451]]]}, "properties": {"property_id": "BB-015", "address": "1600 HARRISON ST OAKLAND 94612", "neighborhood": "Downtown", "primary_blocker": "ENVIRONMENTAL_REVIEW", "candidate_potential_units": 5, "potential_units_source": "DEMO", "housing_element_capacity": 68, "block_id": null, "layer": "candidate"}}, {"type": "Feature", "geometry": {"type": "Polygon", "coordinates": [[[-122.27493, 37.80624], [-122.27493, 37.80624], [-122.275, 37.80627], [-122.275, 37.80627], [-122.275, 37.80627], [-122.27516, 37.80601], [-122.27509, 37.80598], [-122.27493, 37.80624], [-122.27493, 37.80624], [-122.27493, 37.80624]]]}, "properties": {"property_id": "BB-016", "address": "616 14TH ST OAKLAND 94612", "neighborhood": "Downtown", "primary_blocker": "PLANNING_REVIEW", "candidate_potential_units": 6, "potential_units_source": "DEMO", "housing_element_capacity": 5, "block_id": null, "layer": "candidate"}}, {"type": "Feature", "geometry": {"type": "Polygon", "coordinates": [[[-122.27149, 37.82887], [-122.27189, 37.82893], [-122.27194, 37.82872], [-122.27153, 37.82869], [-122.27149, 37.82887]]]}, "properties": {"property_id": "BB-017", "address": "3855 WEST ST OAKLAND 94608", "neighborhood": "North Oakland", "primary_blocker": "SPECIALIZED_WORKFORCE_GAP", "candidate_potential_units": 4, "potential_units_source": "DEMO", "housing_element_capacity": 6, "block_id": null, "layer": "candidate"}}, {"type": "Feature", "geometry": {"type": "Polygon", "coordinates": [[[-122.23536, 37.78389], [-122.23509, 37.78373], [-122.23498, 37.78384], [-122.23526, 37.784], [-122.23536, 37.78389]]]}, "properties": {"property_id": "BB-018", "address": "1440 23RD AVE OAKLAND 94606", "neighborhood": "San Antonio", "primary_blocker": "READY_FOR_FURTHER_EVALUATION", "candidate_potential_units": 4, "potential_units_source": "DEMO", "housing_element_capacity": 9, "block_id": null, "layer": "candidate"}}]}