{"type": "FeatureCollection", "features": [{"type": "Feature", "properties": {"name": "West Oakland", "status": "DEMO", "note": "Approximate navigation box. Not an official neighborhood boundary."}, "geometry": {"type": "Polygon", "coordinates": [[[-122.322, 37.8], [-122.275, 37.8], [-122.275, 37.822], [-122.322, 37.822], [-122.322, 37.8]]]}}, {"type": "Feature", "properties": {"name": "Downtown", "status": "DEMO", "note": "Approximate navigation box. Not an official neighborhood boundary."}, "geometry": {"type": "Polygon", "coordinates": [[[-122.28, 37.798], [-122.258, 37.798], [-122.258, 37.812], [-122.28, 37.812], [-122.28, 37.798]]]}}, {"type": "Feature", "properties": {"name": "Jack London", "status": "DEMO", "note": "Approximate navigation box. Not an official neighborhood boundary."}, "geometry": {"type": "Polygon", "coordinates": [[[-122.29, 37.788], [-122.262, 37.788], [-122.262, 37.8], [-122.29, 37.8], [-122.29, 37.788]]]}}, {"type": "Feature", "properties": {"name": "Uptown", "status": "DEMO", "note": "Approximate navigation box. Not an official neighborhood boundary."}, "geometry": {"type": "Polygon", "coordinates": [[[-122.275, 37.808], [-122.255, 37.808], [-122.255, 37.822], [-122.275, 37.822], [-122.275, 37.808]]]}}, {"type": "Feature", "properties": {"name": "San Antonio", "status": "DEMO", "note": "Approximate navigation box. Not an official neighborhood boundary."}, "geometry": {"type": "Polygon", "coordinates": [[[-122.255, 37.778], [-122.225, 37.778], [-122.225, 37.798], [-122.255, 37.798], [-122.255, 37.778]]]}}, {"type": "Feature", "properties": {"name": "Fruitvale", "status": "DEMO", "note": "Approximate navigation box. Not an official neighborhood boundary."}, "geometry": {"type": "Polygon", "coordinates": [[[-122.23, 37.768], [-122.205, 37.768], [-122.205, 37.788], [-122.23, 37.788], [-122.23, 37.768]]]}}, {"type": "Feature", "properties": {"name": "East Oakland", "status": "DEMO", "note": "Approximate navigation box. Not an official neighborhood boundary."}, "geometry": {"type": "Polygon", "coordinates": [[[-122.21, 37.735], [-122.155, 37.735], [-122.155, 37.775], [-122.21, 37.775], [-122.21, 37.735]]]}}, {"type": "Feature", "properties": {"name": "North Oakland", "status": "DEMO", "note": "Approximate navigation box. Not an official neighborhood boundary."}, "geometry": {"type": "Polygon", "coordinates": [[[-122.275, 37.822], [-122.24, 37.822], [-122.24, 37.852], [-122.275, 37.852], [-122.275, 37.822]]]}}]}