{"type": "FeatureCollection", "features": [{"type": "Feature", "properties": {"name": "Oakland (schematic shoreline)", "status": "DEMO", "note": "Schematic outline for offline orientation. Not a survey boundary."}, "geometry": {"type": "Polygon", "coordinates": [[[-122.355, 37.806], [-122.332, 37.828], [-122.285, 37.858], [-122.23, 37.868], [-122.155, 37.848], [-122.12, 37.808], [-122.145, 37.762], [-122.185, 37.728], [-122.23, 37.722], [-122.275, 37.748], [-122.318, 37.782], [-122.355, 37.806]]]}}]}