{"type": "FeatureCollection", "features": [{"type": "Feature", "properties": {"name": "I-880 schematic", "status": "DEMO", "note": "Schematic street for offline orientation."}, "geometry": {"type": "LineString", "coordinates": [[-122.32, 37.788], [-122.29, 37.798], [-122.255, 37.795], [-122.21, 37.77], [-122.175, 37.745]]}}, {"type": "Feature", "properties": {"name": "San Pablo Ave", "status": "DEMO", "note": "Schematic street for offline orientation."}, "geometry": {"type": "LineString", "coordinates": [[-122.3, 37.812], [-122.285, 37.815], [-122.27, 37.812]]}}, {"type": "Feature", "properties": {"name": "Broadway", "status": "DEMO", "note": "Schematic street for offline orientation."}, "geometry": {"type": "LineString", "coordinates": [[-122.272, 37.793], [-122.27, 37.808], [-122.265, 37.83]]}}, {"type": "Feature", "properties": {"name": "Telegraph Ave", "status": "DEMO", "note": "Schematic street for offline orientation."}, "geometry": {"type": "LineString", "coordinates": [[-122.275, 37.808], [-122.268, 37.825], [-122.262, 37.845]]}}, {"type": "Feature", "properties": {"name": "International Blvd", "status": "DEMO", "note": "Schematic street for offline orientation."}, "geometry": {"type": "LineString", "coordinates": [[-122.25, 37.792], [-122.225, 37.782], [-122.19, 37.762], [-122.165, 37.748]]}}, {"type": "Feature", "properties": {"name": "7th St", "status": "DEMO", "note": "Schematic street for offline orientation."}, "geometry": {"type": "LineString", "coordinates": [[-122.305, 37.806], [-122.285, 37.803], [-122.27, 37.8]]}}, {"type": "Feature", "properties": {"name": "MacArthur", "status": "DEMO", "note": "Schematic street for offline orientation."}, "geometry": {"type": "LineString", "coordinates": [[-122.29, 37.822], [-122.25, 37.828], [-122.21, 37.812]]}}]}